{
"type": "FeatureCollection",
"name": "lines_aco",
"crs": { "type": "name", "properties": { "name": "urn:ogc:def:crs:OGC:1.3:CRS84" } },
"features": [
{ "type": "Feature", "properties": { "type": "line", "line_id": 0, "kde_values": [ 1.0462010249007, 1.2283330823519851, 1.2849066475832829, 1.4098202709067673, 2.4824239522564575, 5.20968311545836, 5.280225195288467, 3.847186202515998, 4.264297095717995, 4.472137226820778, 3.759109964608185, 2.5005582840946143, 1.2631382625392544, 2.580902470869757, 1.6612662248262344, 1.3451329390986797, 1.3838750910805548, 1.0054840933788498, 1.280293519360156, 1.396253157393984, 2.1651122313423725, 0.8358599983569991 ], "segment_lengths": [ 2353.64058538334, 2714.7755895586015, 4054.307623651632, 4361.09123888801, 4622.3038053975715, 1827.0301476183772, 3529.316893554143, 2439.00191507061, 3774.173442153795, 1105.0667816552254, 1465.4446199994438, 3979.615831385684, 5416.408774198599, 3628.2941786687834, 5044.551712125759, 3153.271867516433, 2649.1172589201515, 7592.297981121715, 2977.7034436285608, 7119.111891378897, 9083.291140008161 ], "group": 0, "name_list": [ "Fort Washington 3", "Fort Washington 2", "Fort Washington", "National Harbor", "Fairlington 2", "Fairlington", "Claremont", "Glencarlyn", "Boulevard Manor", "High View Park", "", "Gulf Branch", "Chainbridge Forest", "Bethesda", "Cabin John", "Potomac 2", "Potomac", "Travilah", "North Potomac", "Gaithersburg", "Germantown", "Clarksburg" ], "is_station": [ true, true, true, true, true, true, true, true, true, true, false, true, true, true, true, true, true, true, true, true, true, true ], "route_kind": "generated", "service_status": "planned", "occupancy_pct": null, "delay_min": null, "accessibility_score": null, "is_accessible": null, "row_type": null, "construction_cost_musd": null, "ridership_estimate": null }, "geometry": { "type": "LineString", "coordinates": [ [ -77.126146086263347, 38.710303770054978 ], [ -77.108584504025401, 38.719490477128922 ], [ -77.099651164790629, 38.737193090981023 ], [ -77.095967989720663, 38.765450704914443 ], [ -77.087192534222382, 38.795214704709409 ], [ -77.105262409358829, 38.824346144359616 ], [ -77.118151743017663, 38.832261430284497 ], [ -77.137234108905574, 38.851981513171943 ], [ -77.140066880621831, 38.868899061523514 ], [ -77.129864079939637, 38.894068071014637 ], [ -77.126836191188701, 38.901425765006444 ], [ -77.12967373520614, 38.911429067747534 ], [ -77.132711331515111, 38.939140379908046 ], [ -77.126819081481273, 38.976697549601752 ], [ -77.148293572381192, 38.9957561395669 ], [ -77.17420280455417, 39.024645185787946 ], [ -77.195904053459245, 39.038787090076298 ], [ -77.201600433420069, 39.056731385992094 ], [ -77.228752175411785, 39.105297934338367 ], [ -77.240295837816518, 39.124020116864649 ], [ -77.265652904556447, 39.169551696025415 ], [ -77.271261730729734, 39.232633973217993 ] ] } },
{ "type": "Feature", "properties": { "type": "line", "line_id": 1, "kde_values": [ 0.7703172535678783, 0.6821643301412337, 0.03509928217159561, 0.29550057660223866, 1.0222367387120739, 1.0911999555770215 ], "segment_lengths": [ 12098.287662343944, 18237.581969178864, 13993.499342580566, 10098.1148325671, 3583.4197850599435 ], "group": 1, "name_list": [ "Fort Washington 5", "Fort Washington 4", "Rosaryville", "Marlboro Village", "Queen Anne", "Bowie" ], "is_station": [ true, true, true, true, true, true ], "route_kind": "generated", "service_status": "planned", "occupancy_pct": null, "delay_min": null, "accessibility_score": null, "is_accessible": null, "row_type": null, "construction_cost_musd": null, "ridership_estimate": null }, "geometry": { "type": "LineString", "coordinates": [ [ -77.082557255971849, 38.709223098455169 ], [ -76.97391813312953, 38.706875558179341 ], [ -76.827292497323285, 38.763885602437476 ], [ -76.747881828519539, 38.839827604926448 ], [ -76.736285571197783, 38.909869877161896 ], [ -76.740241473444357, 38.934724143439169 ] ] } },
{ "type": "Feature", "properties": { "type": "line", "line_id": 2, "kde_values": [ 0.03509928217159561, 3.097053278441636, 5.4585759984149655, 7.215273175097973, 7.75346148815677, 6.8515765787628515, 9.558225199573979, 10.432330148368687, 9.921381571562923, 9.275380335418483, 8.373461167353142, 7.132445345015008, 4.994160445596675, 4.266512295393787, 3.2423825714406247, 3.899993370567161, 4.185876066574117, 4.272218833758239, 3.8999199681932017, 3.1965769397725143, 2.3082561931045817, 1.3451329390986797, 0.41401704511894516, 0.617606448399285, 0.48421957903409235 ], "segment_lengths": [ 13417.682239826894, 4177.271948674301, 2950.0113659440685, 1995.0907513304792, 2098.037821969235, 4170.610763465036, 2139.8133290079154, 1230.5565614617915, 2964.65885558405, 3421.011183288873, 3045.080983535994, 2495.7759672540324, 1578.375039998672, 2375.4274755696088, 2480.3821588826545, 820.4081768408752, 820.3401278891134, 2312.40328451177, 3424.174747012565, 4058.374069774732, 4078.4625507742103, 5631.588630626417, 18990.33197307945, 9814.15355805328 ], "group": 2, "name_list": [ "Rosaryville", "Forestville", "Capitol Heights", "Marshall Heights", "Central NE", "Mayfair", "Brentwood", "Brookland", "University Heights", "Fort Totten", "Takoma", "Silver Spring", "Four Corners 2", "Four Corners", "Kemp Mill", "Wheaton", "", "North Kensington", "Kensington", "Garrett Park", "North Bethesda", "Potomac 2", "Potomac 3", "Darnestown", "Poolesville" ], "is_station": [ true, true, true, true, true, true, true, true, true, true, true, true, true, true, true, true, false, true, true, true, true, true, true, true, true ], "route_kind": "generated", "service_status": "planned", "occupancy_pct": null, "delay_min": null, "accessibility_score": null, "is_accessible": null, "row_type": null, "construction_cost_musd": null, "ridership_estimate": null }, "geometry": { "type": "LineString", "coordinates": [ [ -76.827292497323285, 38.763885602437476 ], [ -76.879557556741986, 38.84852375144046 ], [ -76.900025744988639, 38.873014027927098 ], [ -76.924650681801069, 38.880637094401102 ], [ -76.938385872012091, 38.889598912962676 ], [ -76.948237010017337, 38.902104058494182 ], [ -76.979490630540838, 38.91818062953147 ], [ -76.990053290920102, 38.930674968718883 ], [ -76.994041997913826, 38.938694401744542 ], [ -77.013780435657097, 38.952599617974791 ], [ -77.018209570212761, 38.976244987024458 ], [ -77.007485957020293, 38.995805597606171 ], [ -77.004662114462775, 39.013089318346246 ], [ -77.013350895341461, 39.02179477919276 ], [ -77.023256060251668, 39.036477266122326 ], [ -77.044373858012051, 39.041997443077157 ], [ -77.050672672094137, 39.039025645307554 ], [ -77.056506111010634, 39.035528028165189 ], [ -77.073061987406376, 39.025782033667284 ], [ -77.103818811503558, 39.026119144082266 ], [ -77.139181638761031, 39.033005430309508 ], [ -77.17420280455417, 39.024645185787946 ], [ -77.22459055671365, 39.021139334681394 ], [ -77.395018800048959, 39.015314616706306 ], [ -77.469638473606381, 39.051785529680039 ] ] } },
{ "type": "Feature", "properties": { "type": "line", "line_id": 3, "kde_values": [ 0.7703172535678783, 0.6821643301412337, 0.03509928217159561, 0.29550057660223866, 1.0222367387120739, 1.0911999555770215 ], "segment_lengths": [ 12098.287662343944, 18237.581969178864, 13993.499342580566, 10098.1148325671, 3583.4197850599435 ], "group": 1, "name_list": [ "Fort Washington 5", "Fort Washington 4", "Rosaryville", "Marlboro Village", "Queen Anne", "Bowie" ], "is_station": [ true, true, true, true, true, true ], "route_kind": "generated", "service_status": "planned", "occupancy_pct": null, "delay_min": null, "accessibility_score": null, "is_accessible": null, "row_type": null, "construction_cost_musd": null, "ridership_estimate": null }, "geometry": { "type": "LineString", "coordinates": [ [ -77.082557255971849, 38.709223098455169 ], [ -76.97391813312953, 38.706875558179341 ], [ -76.827292497323285, 38.763885602437476 ], [ -76.747881828519539, 38.839827604926448 ], [ -76.736285571197783, 38.909869877161896 ], [ -76.740241473444357, 38.934724143439169 ] ] } },
{ "type": "Feature", "properties": { "type": "line", "line_id": 4, "kde_values": [ 5.4585759984149655, 7.215273175097973, 7.75346148815677, 6.8515765787628515, 9.558225199573979, 13.132098843219506, 15.920776638517184, 18.67580765300953, 18.955045561726173, 17.10453512616529, 14.992186166746906, 11.354558589616833, 8.742492065376661, 6.8140225118764155, 5.912291600722759, 5.94000698922727, 6.4358809398804855, 6.809920671859172, 5.9911736861014, 5.626407248539041, 5.280225195288467, 4.038604556704577, 3.524711712404084, 1.640134340526434, 0.7174452494813939, 0.8139723224532126 ], "segment_lengths": [ 2950.0113659440685, 1995.0907513304792, 2098.037821969235, 4170.610763465036, 2054.0583219391706, 1234.8444688805055, 1479.697574448443, 714.2262501609684, 1250.7932879184757, 1339.7780146768791, 1641.7493050114406, 1844.2170317404234, 1224.3027256667444, 2562.9947961657217, 1912.9050780739108, 1522.1639412975521, 1559.1523450633651, 2268.2717686075744, 2175.997104410121, 783.83375617229, 2668.9761776693863, 1385.3561464339343, 4690.3806323214385, 6577.390075218368, 6399.92923089471 ], "group": 3, "name_list": [ "Capitol Heights", "Marshall Heights", "Central NE", "Mayfair", "Brentwood", "Eckington", "", "Logan Circle/Shaw", "", "Cardozo/Shaw", "Adams Morgan", "Woodley Park", "Burleith/Hillandale 2", "Burleith/Hillandale", "Colonial Village", "Lyon Park", "Arlington Heights", "Alcova Heights", "Columbia Forest", "Claremont 2", "Claremont", "Fairlington 6", "Fairlington 5", "Fairlington 4", "Fairlington 3", "Indian Head" ], "is_station": [ true, true, true, true, true, true, false, true, false, true, true, true, true, true, true, true, true, true, true, true, true, true, true, true, true, true ], "route_kind": "generated", "service_status": "planned", "occupancy_pct": null, "delay_min": null, "accessibility_score": null, "is_accessible": null, "row_type": null, "construction_cost_musd": null, "ridership_estimate": null }, "geometry": { "type": "LineString", "coordinates": [ [ -76.900025744988639, 38.873014027927098 ], [ -76.924650681801069, 38.880637094401102 ], [ -76.938385872012091, 38.889598912962676 ], [ -76.948237010017337, 38.902104058494182 ], [ -76.979490630540838, 38.91818062953147 ], [ -76.99784280025159, 38.916689849963426 ], [ -77.006714579952174, 38.911508594202452 ], [ -77.019834194376557, 38.909846557674321 ], [ -77.025997316601988, 38.911234381857909 ], [ -77.030795743449133, 38.919139591340617 ], [ -77.042118964576446, 38.922312928934282 ], [ -77.056589712164481, 38.924527591732165 ], [ -77.070345391893781, 38.917344418754119 ], [ -77.078723474006239, 38.911800558861309 ], [ -77.08066185451716, 38.893946802113824 ], [ -77.088381184324831, 38.881996806853728 ], [ -77.09221120440742, 38.87177788553074 ], [ -77.102426390925913, 38.864317153976167 ], [ -77.116331330872484, 38.85271891221204 ], [ -77.116049663289857, 38.83749617618443 ], [ -77.118151743017663, 38.832261430284497 ], [ -77.132563923078123, 38.817334035623873 ], [ -77.137004275676304, 38.808275279044061 ], [ -77.144751793799287, 38.775994665416285 ], [ -77.176987889913107, 38.737380581229608 ], [ -77.221755117627566, 38.709238251440432 ] ] } },
{ "type": "Feature", "properties": { "type": "line", "line_id": 5, "kde_values": [ 0.7174452494813939, 2.077862828407583, 3.002337367719414, 2.7990223785384853, 1.7029258463173198, 1.770224068987169, 1.4227261476196658, 0.3400238116570169, 1.6329191816976223, 1.588541297449106, 0.617606448399285, 0.48421957903409235 ], "segment_lengths": [ 5046.022708020606, 4588.011494268901, 3660.513894962883, 5052.453416163012, 3522.18830839378, 3692.606447880483, 5280.1714157333, 9072.378680275018, 3746.799393741953, 6075.805934576813, 9814.15355805328 ], "group": 4, "name_list": [ "Fairlington 3", "Fairlington 7", "Columbia Forest 2", "Boulevard Manor 2", "East Falls Church 4", "East Falls Church 3", "East Falls Church 2", "East Falls Church", "Travilah 3", "Travilah 2", "Darnestown", "Poolesville" ], "is_station": [ true, true, true, true, true, true, true, true, true, true, true, true ], "route_kind": "generated", "service_status": "planned", "occupancy_pct": null, "delay_min": null, "accessibility_score": null, "is_accessible": null, "row_type": null, "construction_cost_musd": null, "ridership_estimate": null }, "geometry": { "type": "LineString", "coordinates": [ [ -77.176987889913107, 38.737380581229608 ], [ -77.18092144499623, 38.772596297285006 ], [ -77.179668707067449, 38.804706832461413 ], [ -77.191631543299877, 38.828572155589683 ], [ -77.202537770117928, 38.862885502283397 ], [ -77.227307706164993, 38.878212819576042 ], [ -77.251640857082705, 38.895760705231531 ], [ -77.273918312819006, 38.928344564940502 ], [ -77.33801783793173, 38.967488316043969 ], [ -77.368770661891077, 38.978123394060532 ], [ -77.395018800048959, 39.015314616706306 ], [ -77.469638473606381, 39.051785529680039 ] ] } },
{ "type": "Feature", "properties": { "type": "line", "line_id": 6, "kde_values": [ 0.7174452494813939, 2.077862828407583, 2.557344744476049, 2.985642548920534, 2.8063035584387857, 2.6123203916080033, 1.7029258463173198, 1.7216163715857367, 1.4311709665145802, 1.2631382625392544, 2.580902470869757, 1.6612662248262344, 1.3451329390986797, 1.3838750910805548, 1.0054840933788498, 1.280293519360156, 1.396253157393984, 2.1651122313423725, 1.293464871710018 ], "segment_lengths": [ 5046.022708020606, 2007.832184574073, 3546.6484826834967, 2813.436630184551, 767.2527007611338, 4443.028572532009, 5505.57739370462, 3569.768405849899, 4858.468503150916, 5416.408774198599, 3628.2941786687834, 5044.551712125759, 3153.271867516433, 2649.1172589201515, 7592.297981121715, 2977.7034436285608, 7119.111891378897, 5147.754166226664 ], "group": 0, "name_list": [ "Fairlington 3", "Fairlington 7", "Columbia Forest 3", "Boulevard Manor 3", "Madison Manor", "", "East Falls Church 4", "East Falls Church 5", "Williamsburg", "Chainbridge Forest", "Bethesda", "Cabin John", "Potomac 2", "Potomac", "Travilah", "North Potomac", "Gaithersburg", "Germantown", "Clarksburg 2" ], "is_station": [ true, true, true, true, true, false, true, true, true, true, true, true, true, true, true, true, true, true, true ], "route_kind": "generated", "service_status": "planned", "occupancy_pct": null, "delay_min": null, "accessibility_score": null, "is_accessible": null, "row_type": null, "construction_cost_musd": null, "ridership_estimate": null }, "geometry": { "type": "LineString", "coordinates": [ [ -77.176987889913107, 38.737380581229608 ], [ -77.18092144499623, 38.772596297285006 ], [ -77.189945931655771, 38.78477058797769 ], [ -77.200163811671771, 38.808289926 ], [ -77.208853013660786, 38.826781300728122 ], [ -77.207437489060425, 38.832036096140449 ], [ -77.202537770117928, 38.862885502283397 ], [ -77.189224862579479, 38.899964455221308 ], [ -77.165873922955285, 38.917067398734623 ], [ -77.132711331515111, 38.939140379908046 ], [ -77.126819081481273, 38.976697549601752 ], [ -77.148293572381192, 38.9957561395669 ], [ -77.17420280455417, 39.024645185787946 ], [ -77.195904053459245, 39.038787090076298 ], [ -77.201600433420069, 39.056731385992094 ], [ -77.228752175411785, 39.105297934338367 ], [ -77.240295837816518, 39.124020116864649 ], [ -77.265652904556447, 39.169551696025415 ], [ -77.252288799703862, 39.2038648777689 ] ] } },
{ "type": "Feature", "properties": { "type": "line", "line_id": 7, "kde_values": [ 0.8054975326990318, 2.09655534017755, 2.4931070726729794, 3.097053278441636, 1.749461193960711, 1.9537369093961174, 1.1169074231111094, 1.0294736954240693, 0.8385503587636668, 1.4887910006930438, 1.4098202709067673, 1.640134340526434, 2.077862828407583, 2.091612466854679, 2.581824473598383, 2.9705090891619395, 2.624413354628277, 2.0619143503116835, 2.3281855115529337, 2.7243903267573186, 2.0313069805292727, 1.8560806693442582, 2.6329074957892984, 1.588541297449106, 0.617606448399285, 0.48421957903409235 ], "segment_lengths": [ 3628.751235880256, 1666.7450671591314, 7575.214378826504, 6450.047270530103, 2240.951415347146, 5252.027799622766, 3653.728388871038, 4689.858058097299, 5090.6811593363445, 3424.511308526866, 5635.398386650557, 4055.521447819531, 4704.870457254686, 3259.841743639051, 3457.6103985167624, 1933.6429591352942, 2639.514249376903, 2338.2550054217413, 2964.180125783638, 2099.642529721781, 10510.967335672378, 3401.8450289748316, 2984.0366362730547, 6075.805934576813, 9814.15355805328 ], "group": 5, "name_list": [ "Kettering", "Largo 2", "Largo", "Forestville", "Camp Springs 2", "Camp Springs", "Friendly 2", "Friendly", "National Harbor 3", "National Harbor 2", "National Harbor", "Fairlington 4", "Fairlington 7", "Columbia Forest 4", "Madison Manor 4", "Madison Manor 3", "Madison Manor 2", "East Falls Church 9", "East Falls Church 8", "East Falls Church 7", "East Falls Church 6", "Travilah 5", "Travilah 4", "Travilah 2", "Darnestown", "Poolesville" ], "is_station": [ true, true, true, true, true, true, true, true, true, true, true, true, true, true, true, true, true, true, true, true, true, true, true, true, true, true ], "route_kind": "generated", "service_status": "planned", "occupancy_pct": null, "delay_min": null, "accessibility_score": null, "is_accessible": null, "row_type": null, "construction_cost_musd": null, "ridership_estimate": null }, "geometry": { "type": "LineString", "coordinates": [ [ -76.784022429950269, 38.890032100869973 ], [ -76.816565261108011, 38.888561550641604 ], [ -76.831082335063783, 38.88570857544012 ], [ -76.879557556741986, 38.84852375144046 ], [ -76.900767950208703, 38.806518081061249 ], [ -76.917117392874104, 38.797365000319523 ], [ -76.95140484298561, 38.772102531379076 ], [ -76.978629744696178, 38.757808126984976 ], [ -77.019932897836298, 38.764283554867603 ], [ -77.065396993213653, 38.768125739943599 ], [ -77.095967989720663, 38.765450704914443 ], [ -77.144751793799287, 38.775994665416285 ], [ -77.18092144499623, 38.772596297285006 ], [ -77.222807439506795, 38.776996618354751 ], [ -77.244650850913573, 38.792199948861132 ], [ -77.264130041262803, 38.811054018531586 ], [ -77.274893070634576, 38.821676941583775 ], [ -77.297885202105945, 38.826191618639633 ], [ -77.307448948885266, 38.840759445071406 ], [ -77.298901366038393, 38.860399215755017 ], [ -77.303181895509113, 38.874701499928818 ], [ -77.358338317423616, 38.934339829416487 ], [ -77.362212043403233, 38.957915210560763 ], [ -77.368770661891077, 38.978123394060532 ], [ -77.395018800048959, 39.015314616706306 ], [ -77.469638473606381, 39.051785529680039 ] ] } },
{ "type": "Feature", "properties": { "type": "line", "line_id": 8, "kde_values": [ 0.5518908896182197, 0.30808700441592934, 1.396253157393984, 1.280293519360156, 1.0054840933788498, 1.3838750910805548, 1.3451329390986797, 1.6612662248262344, 2.580902470869757, 4.224159321148807, 5.448594403954818, 5.780390070739516, 5.670200625807413, 6.930898439360513, 8.373461167353142 ], "segment_lengths": [ 24968.900283089017, 7712.7051415093665, 2977.7034436285608, 7592.297981121715, 2649.1172589201515, 3153.271867516433, 5044.551712125759, 3628.2941786687834, 3173.9872587867508, 1650.9273884186587, 1604.4234061823279, 1378.805817310287, 2997.0147855429504, 2367.5689266941404 ], "group": 0, "name_list": [ "Poolesville 2", "Darnestown 2", "Gaithersburg", "North Potomac", "Travilah", "Potomac", "Potomac 2", "Cabin John", "Bethesda", "Somerset", "Friendship Heights Village", "Chevy Chase Village", "Chevy Chase", "Shepherd Park", "Takoma" ], "is_station": [ true, true, true, true, true, true, true, true, true, true, true, true, true, true, true ], "route_kind": "generated", "service_status": "planned", "occupancy_pct": null, "delay_min": null, "accessibility_score": null, "is_accessible": null, "row_type": null, "construction_cost_musd": null, "ridership_estimate": null }, "geometry": { "type": "LineString", "coordinates": [ [ -77.527479216655763, 39.110845291658862 ], [ -77.306384499469573, 39.14015412551953 ], [ -77.240295837816518, 39.124020116864649 ], [ -77.228752175411785, 39.105297934338367 ], [ -77.201600433420069, 39.056731385992094 ], [ -77.195904053459245, 39.038787090076298 ], [ -77.17420280455417, 39.024645185787946 ], [ -77.148293572381192, 38.9957561395669 ], [ -77.126819081481273, 38.976697549601752 ], [ -77.104627054374731, 38.962779351326311 ], [ -77.089871502326062, 38.963937453170878 ], [ -77.075774972360065, 38.96627212458138 ], [ -77.0634465223647, 38.965344656536566 ], [ -77.039389772585963, 38.974742184200565 ], [ -77.018209570212761, 38.976244987024458 ] ] } },
{ "type": "Feature", "properties": { "type": "line", "line_id": 9, "kde_values": [ 0.5518908896182197, 0.30808700441592934, 1.280293519360156, 2.1350375453243458, 2.7882563922862693, 2.3301232044262643, 4.530075766108132, 4.62806756948579, 4.321341971522947, 3.8999199681932017, 5.166724425845082, 7.311606204194945, 7.81330621006274 ], "segment_lengths": [ 24968.900283089017, 9984.957689262976, 4293.468588689031, 3907.8895394918827, 5456.948024713677, 5600.914806883442, 755.1638594723569, 1902.1957581835852, 1896.6918413547953, 4138.060653593772, 2163.0930737942026, 874.4752535364449 ], "group": 0, "name_list": [ "Poolesville 2", "Darnestown 2", "North Potomac", "Gaithersburg 2", "Derwood", "Aspen Hill", "Wheaton 2", "", "North Kensington 2", "Kensington", "Forest Glen", "North Portal Estates", "Silver Spring 2" ], "is_station": [ true, true, true, true, true, true, true, false, true, true, true, true, true ], "route_kind": "generated", "service_status": "planned", "occupancy_pct": null, "delay_min": null, "accessibility_score": null, "is_accessible": null, "row_type": null, "construction_cost_musd": null, "ridership_estimate": null }, "geometry": { "type": "LineString", "coordinates": [ [ -77.527479216655763, 39.110845291658862 ], [ -77.306384499469573, 39.14015412551953 ], [ -77.228752175411785, 39.105297934338367 ], [ -77.190617051577149, 39.109773783105979 ], [ -77.157402594374773, 39.100954362481204 ], [ -77.112562137356207, 39.085581053921395 ], [ -77.077933437215066, 39.057242931772706 ], [ -77.076114465603666, 39.052167949693015 ], [ -77.075139009807174, 39.038918493971565 ], [ -77.073061987406376, 39.025782033667284 ], [ -77.044429289426816, 39.007363105433491 ], [ -77.032924896861871, 38.995193405937783 ], [ -77.02533063658808, 38.993631858135338 ] ] } },
{ "type": "Feature", "properties": { "type": "line", "line_id": 10, "kde_values": [ 0.4548861892824605, 0.21256345185080994, 0.3932605985630958, 1.5970762323383705, 0.6487784059109952, 0.5588271308010622, 0.7427712950716691, 1.430396706180601, 1.7187905342589491, 2.0074124601430894, 3.2423825714406247, 4.028768611243422, 5.879920798496205, 7.132445345015008, 5.796080798720011, 6.127942920791825, 7.585248418723814, 9.275380335418483, 11.065178437013678, 13.241097260815266, 11.35897961039312, 11.354558589616833, 8.742492065376661, 6.8140225118764155, 5.912291600722759, 5.94000698922727, 6.4358809398804855, 6.414896675167795, 6.612788493881433, 6.703382827765262, 6.344838372024757, 5.280225195288467, 2.541725911549362, 2.6805215544579166, 2.7990223785384853, 2.8063035584387857, 2.69022985533321, 2.8013050875820427, 2.581824473598383 ], "segment_lengths": [ 4993.400152834741, 7117.9157880479515, 11916.809711518861, 6245.640058898261, 3319.91524262256, 3362.206248565166, 3271.0584407978517, 1968.2658584523508, 1970.6038929679737, 4035.3300225643407, 1651.3806619000322, 2539.5928402842706, 2384.8013042251555, 2874.689441816528, 2344.022295998008, 2412.5706418588006, 3400.8190501320805, 2167.387582066671, 1899.2990005756337, 1421.5613938933855, 1261.190458566619, 1844.2170317404234, 1224.3027256667444, 2562.9947961657217, 1912.9050780739108, 1522.1639412975521, 1362.6579526039864, 973.685294040993, 1152.8856410511576, 1628.3417214082815, 1861.01589600498, 4917.153770468124, 1621.0725467888383, 1750.1706484449248, 1934.089496073782, 1384.086754581939, 2826.4994352277786, 2704.7878398005623 ], "group": 6, "name_list": [ "Damascus 2", "Damascus", "Laytonsville", "Olney", "Sandy Spring", "Spencerville", "Cloverly", "Colesville 3", "Colesville 2", "Colesville", "Kemp Mill", "Forest Glen 3", "Silver Spring 3", "Silver Spring", "Langley Park", "Chillum 2", "Chillum", "Fort Totten", "Petworth", "Mount Pleasant 2", "Mount Pleasant", "Woodley Park", "Burleith/Hillandale 2", "Burleith/Hillandale", "Colonial Village", "Lyon Park", "Arlington Heights", "Columbia Heights", "", "Douglas Park", "Shirlington", "Claremont", "Forest Glen 2", "Glencarlyn 2", "Boulevard Manor 2", "Madison Manor", "Madison Manor 6", "Madison Manor 5", "Madison Manor 4" ], "is_station": [ true, true, true, true, true, true, true, true, true, true, true, true, true, true, true, true, true, true, true, true, true, true, true, true, true, true, true, true, false, true, true, true, true, true, true, true, true, true, true ], "route_kind": "generated", "service_status": "planned", "occupancy_pct": null, "delay_min": null, "accessibility_score": null, "is_accessible": null, "row_type": null, "construction_cost_musd": null, "ridership_estimate": null }, "geometry": { "type": "LineString", "coordinates": [ [ -77.209975879330656, 39.27341762326445 ], [ -77.196147152031855, 39.240376261769889 ], [ -77.157315757808576, 39.201020868669353 ], [ -77.069161225715618, 39.153940474537663 ], [ -77.013712235510326, 39.147303765675979 ], [ -76.992630146182663, 39.130942595053135 ], [ -76.98679264833153, 39.107951794210301 ], [ -76.998700570849351, 39.087103773085516 ], [ -77.011057688467972, 39.077287218079654 ], [ -77.01513534030137, 39.06391331585089 ], [ -77.023256060251668, 39.036477266122326 ], [ -77.028580716751904, 39.02572158334457 ], [ -77.020080976160344, 39.009272672657701 ], [ -77.007485957020293, 38.995805597606171 ], [ -76.983081977867869, 38.98924213147054 ], [ -76.97512302556909, 38.974088042639131 ], [ -76.984296669880607, 38.958821393775409 ], [ -77.013780435657097, 38.952599617974791 ], [ -77.024020007603795, 38.939720353488887 ], [ -77.035868643572243, 38.930170994884932 ], [ -77.048614144646947, 38.930787332520936 ], [ -77.056589712164481, 38.924527591732165 ], [ -77.070345391893781, 38.917344418754119 ], [ -77.078723474006239, 38.911800558861309 ], [ -77.08066185451716, 38.893946802113824 ], [ -77.088381184324831, 38.881996806853728 ], [ -77.09221120440742, 38.87177788553074 ], [ -77.089160497531296, 38.862547765423031 ], [ -77.091764473843142, 38.856045586590582 ], [ -77.096787311829004, 38.848992330442371 ], [ -77.103862454289569, 38.839020829547536 ], [ -77.118151743017663, 38.832261430284497 ], [ -77.161696981079871, 38.82648737041432 ], [ -77.176248177515149, 38.826043584943911 ], [ -77.191631543299877, 38.828572155589683 ], [ -77.208853013660786, 38.826781300728122 ], [ -77.220556241959301, 38.823510586692244 ], [ -77.23999688479158, 38.810784935048325 ], [ -77.244650850913573, 38.792199948861132 ] ] } },
{ "type": "Feature", "properties": { "type": "line", "line_id": 11, "kde_values": [ 0.7703172535678783, 0.6821643301412337, 0.03509928217159561, 0.29550057660223866, 1.0222367387120739, 1.0911999555770215 ], "segment_lengths": [ 12098.287662343944, 18237.581969178864, 13993.499342580566, 10098.1148325671, 3583.4197850599435 ], "group": 1, "name_list": [ "Fort Washington 5", "Fort Washington 4", "Rosaryville", "Marlboro Village", "Queen Anne", "Bowie" ], "is_station": [ true, true, true, true, true, true ], "route_kind": "generated", "service_status": "planned", "occupancy_pct": null, "delay_min": null, "accessibility_score": null, "is_accessible": null, "row_type": null, "construction_cost_musd": null, "ridership_estimate": null }, "geometry": { "type": "LineString", "coordinates": [ [ -77.082557255971849, 38.709223098455169 ], [ -76.97391813312953, 38.706875558179341 ], [ -76.827292497323285, 38.763885602437476 ], [ -76.747881828519539, 38.839827604926448 ], [ -76.736285571197783, 38.909869877161896 ], [ -76.740241473444357, 38.934724143439169 ] ] } },
{ "type": "Feature", "properties": { "type": "line", "line_id": 12, "kde_values": [ 0.5518908896182197, 0.30808700441592934, 1.280293519360156, 2.1350375453243458, 2.7882563922862693, 2.3301232044262643, 2.1754072785057845, 2.0074124601430894, 2.473153144162346, 3.1421748467454376, 2.7581222258638616, 3.4169170675570686, 4.449190923420422, 5.575592740754575 ], "segment_lengths": [ 24968.900283089017, 9984.957689262976, 4293.468588689031, 3907.8895394918827, 5456.948024713677, 5564.442720755857, 6643.95394451707, 3010.6257130196395, 2649.5801014677972, 3006.1617137220715, 2127.1227105218923, 2891.2126549736217, 1945.0958383785012 ], "group": 0, "name_list": [ "Poolesville 2", "Darnestown 2", "North Potomac", "Gaithersburg 2", "Derwood", "Aspen Hill", "Leisure World", "Colesville", "White Oak", "Burnt Mills", "Hillandale", "Adelphi", "Langley Park 2", "University Park" ], "is_station": [ true, true, true, true, true, true, true, true, true, true, true, true, true, true ], "route_kind": "generated", "service_status": "planned", "occupancy_pct": null, "delay_min": null, "accessibility_score": null, "is_accessible": null, "row_type": null, "construction_cost_musd": null, "ridership_estimate": null }, "geometry": { "type": "LineString", "coordinates": [ [ -77.527479216655763, 39.110845291658862 ], [ -77.306384499469573, 39.14015412551953 ], [ -77.228752175411785, 39.105297934338367 ], [ -77.190617051577149, 39.109773783105979 ], [ -77.157402594374773, 39.100954362481204 ], [ -77.112562137356207, 39.085581053921395 ], [ -77.063148176988932, 39.091435098531086 ], [ -77.01513534030137, 39.06391331585089 ], [ -76.993681870784187, 39.051126138819953 ], [ -76.991993278976466, 39.032686376095683 ], [ -76.970609827498009, 39.019873935480703 ], [ -76.967216403289569, 39.005262662203165 ], [ -76.961588357117876, 38.985556779114496 ], [ -76.955130035799797, 38.972935543566003 ] ] } },
{ "type": "Feature", "properties": { "type": "line", "line_id": 13, "kde_values": [ 0.3496222498457135, 0.617606448399285, 0.41401704511894516, 1.3451329390986797, 2.3082561931045817, 3.1545173013128696, 2.3301232044262643, 1.1454599518580841, 1.5970762323383705 ], "segment_lengths": [ 10430.336774388648, 18990.33197307945, 5631.588630626417, 4078.4625507742103, 3644.5986798939193, 5199.558751931752, 7216.271933403264, 3841.3821272779232 ], "group": 2, "name_list": [ "Poolesville 3", "Darnestown", "Potomac 3", "Potomac 2", "North Bethesda", "North Bethesda 2", "Aspen Hill", "Olney 2", "Olney" ], "is_station": [ true, true, true, true, true, true, true, true, true ], "route_kind": "generated", "service_status": "planned", "occupancy_pct": null, "delay_min": null, "accessibility_score": null, "is_accessible": null, "row_type": null, "construction_cost_musd": null, "ridership_estimate": null }, "geometry": { "type": "LineString", "coordinates": [ [ -77.4870111149135, 39.001488305308584 ], [ -77.395018800048959, 39.015314616706306 ], [ -77.22459055671365, 39.021139334681394 ], [ -77.17420280455417, 39.024645185787946 ], [ -77.139181638761031, 39.033005430309508 ], [ -77.114085015043216, 39.049335700335448 ], [ -77.112562137356207, 39.085581053921395 ], [ -77.077764065994188, 39.128021505811525 ], [ -77.069161225715618, 39.153940474537663 ] ] } },
{ "type": "Feature", "properties": { "type": "line", "line_id": 14, "kde_values": [ 1.3207816212270356, 1.3186987098090452, 1.9000196961792688, 2.7882563922862693, 3.409836808117402, 2.8499448752711163, 1.8924951266069725, 1.3451329390986797, 0.9171956520091769, 1.6786750879260097, 1.9156635839989944, 1.5470321406708387, 1.770224068987169, 1.8564221736397464, 1.7207466556955535, 2.69022985533321, 2.7826460953013443, 2.5295151434609338, 2.091612466854679 ], "segment_lengths": [ 4654.010367490446, 4767.53984996322, 3019.675380658158, 2393.187283718477, 2162.6762623324194, 3476.379179857568, 3961.634874044545, 3633.393087199605, 11013.147325622691, 2689.139738882725, 3376.3027493168665, 1612.9732806705317, 1635.7482665349478, 3507.364872748466, 3070.7969307107073, 2052.2015640279824, 2710.277312792758, 2050.3051744719105 ], "group": 7, "name_list": [ "Montgomery Village", "Washington Grove", "Derwood 2", "Derwood", "Rockville 3", "Rockville 2", "Rockville", "Potomac 2", "Potomac 4", "Williamsburg 2", "East Falls Church 12", "East Falls Church 11", "East Falls Church 3", "East Falls Church 10", "Madison Manor 8", "Madison Manor 6", "Madison Manor 7", "Boulevard Manor 4", "Columbia Forest 4" ], "is_station": [ true, true, true, true, true, true, true, true, true, true, true, true, true, true, true, true, true, true, true ], "route_kind": "generated", "service_status": "planned", "occupancy_pct": null, "delay_min": null, "accessibility_score": null, "is_accessible": null, "row_type": null, "construction_cost_musd": null, "ridership_estimate": null }, "geometry": { "type": "LineString", "coordinates": [ [ -77.181026226659313, 39.181626491311036 ], [ -77.157467252975835, 39.154849542303431 ], [ -77.161403046844413, 39.121772020201611 ], [ -77.157402594374773, 39.100954362481204 ], [ -77.150285060692823, 39.085209965285415 ], [ -77.158234199044387, 39.071448800159764 ], [ -77.177206652857961, 39.052188567936504 ], [ -77.17420280455417, 39.024645185787946 ], [ -77.185439868930899, 39.000834623966995 ], [ -77.225733068857721, 38.930581039509391 ], [ -77.221075936409946, 38.912139280533474 ], [ -77.229191077764568, 38.889396126100593 ], [ -77.227307706164993, 38.878212819576042 ], [ -77.234251446769633, 38.868130740250848 ], [ -77.229229978863259, 38.843908912471427 ], [ -77.220556241959301, 38.823510586692244 ], [ -77.222757117022979, 38.809249336278221 ], [ -77.228126574190227, 38.790742112626376 ], [ -77.222807439506795, 38.776996618354751 ] ] } },
{ "type": "Feature", "properties": { "type": "line", "line_id": 15, "kde_values": [ 1.2849066475832829, 1.2729055986204387, 0.8385503587636668, 1.7595112949854659, 3.8988199989601906, 6.650432540841879, 9.066168696051749, 9.935278031901237, 9.746388579737744, 9.427112535574393, 8.199885736536462, 3.8340858868389183, 4.374975881700255, 4.862087850523813, 5.912291600722759, 4.085563254054617, 3.923442808372302, 5.560666984150805, 5.952836842828388, 6.071173074430276, 5.670200625807413, 5.3986625567996995, 5.111677161303123, 5.166724425845082, 4.028768611243422, 3.2423825714406247, 2.0074124601430894, 1.7187905342589491, 0.8606115351903896 ], "segment_lengths": [ 3738.3798468665527, 6047.721118248216, 3735.235590747287, 3071.33756602716, 2386.8626736011397, 2015.594187294198, 1280.0721766490658, 534.762416874544, 403.2792488064885, 1107.2385396771585, 5067.390630429177, 1161.4267411627218, 1202.0280352760644, 4435.392548000656, 3302.30055971683, 1925.7341939056223, 1988.4886082862608, 1898.7694506096457, 1707.9629755317924, 1453.9577824289083, 1399.4092768283597, 2004.622797202115, 3328.59484138051, 3167.1949922358435, 1651.3806619000322, 4035.3300225643407, 1970.6038929679737, 3254.782166008672 ], "group": 8, "name_list": [ "Fort Washington", "Fort Washington 6", "National Harbor 3", "National Harbor 4", "Glassmanor 2", "Glassmanor", "Washington Highlands", "", "Congress Heights 2", "", "Congress Heights", "Aurora Highlands", "", "Foxcroft Heights", "Colonial Village", "Georgetown Reservoir", "Palisades", "Cathedral Heights", "Tenleytown", "Chevy Chase 2", "Chevy Chase", "Barnaby Woods", "Hawthorne", "Forest Glen", "Forest Glen 3", "Kemp Mill", "Colesville", "Colesville 2", "Cloverly 2" ], "is_station": [ true, true, true, true, true, true, true, false, true, false, true, true, false, true, true, true, true, true, true, true, true, true, true, true, true, true, true, true, true ], "route_kind": "generated", "service_status": "planned", "occupancy_pct": null, "delay_min": null, "accessibility_score": null, "is_accessible": null, "row_type": null, "construction_cost_musd": null, "ridership_estimate": null }, "geometry": { "type": "LineString", "coordinates": [ [ -77.099651164790629, 38.737193090981023 ], [ -77.066902173831878, 38.742992571570184 ], [ -77.019932897836298, 38.764283554867603 ], [ -77.000263454266872, 38.785476930131331 ], [ -76.984771601339716, 38.803270926866588 ], [ -76.983426296730087, 38.819945501668528 ], [ -76.983473260743253, 38.834051104092055 ], [ -76.989967070056224, 38.841443072355645 ], [ -76.994632017794004, 38.842336329368187 ], [ -76.998041316804859, 38.843290491952501 ], [ -77.005147951768507, 38.848710445968564 ], [ -77.04985037199431, 38.855403697054584 ], [ -77.05848901821318, 38.859959430776186 ], [ -77.067411401667073, 38.864695035742997 ], [ -77.08066185451716, 38.893946802113824 ], [ -77.097424638175752, 38.912993370127296 ], [ -77.098670977840996, 38.926417612873841 ], [ -77.086947043741517, 38.936901402420474 ], [ -77.083263919393858, 38.949854761478811 ], [ -77.071074111024402, 38.957100457300228 ], [ -77.0634465223647, 38.965344656536566 ], [ -77.065250283285792, 38.975017224934462 ], [ -77.062505609118631, 38.988851962976675 ], [ -77.044429289426816, 39.007363105433491 ], [ -77.028580716751904, 39.02572158334457 ], [ -77.023256060251668, 39.036477266122326 ], [ -77.01513534030137, 39.06391331585089 ], [ -77.011057688467972, 39.077287218079654 ], [ -77.013420012961774, 39.099906897952586 ] ] } },
{ "type": "Feature", "properties": { "type": "line", "line_id": 16, "kde_values": [ 0.49564419909732965, 0.7524945844638019, 1.8560806693442582, 0.3400238116570169, 1.6786750879260097, 0.6202880681924064, 1.6612662248262344, 2.783785128032127, 3.1965769397725143, 3.8999199681932017, 5.166724425845082, 7.311606204194945, 7.550445201175896, 8.073420991212158, 8.373461167353142, 7.580027909207421, 6.998544945064688 ], "segment_lengths": [ 13489.428135431344, 6921.986818392981, 9436.6727247997, 5373.4957385213875, 8513.816440413206, 4302.053856811752, 3394.182250942096, 3278.346910922343, 3424.174747012565, 4138.060653593772, 2163.0930737942026, 1005.0334401789034, 1081.6888158597544, 1426.4859519270765, 1928.1814890225335, 1240.043324797741 ], "group": 9, "name_list": [ "Poolesville 4", "Travilah 6", "Travilah 5", "East Falls Church", "Williamsburg 2", "Cabin John 2", "Cabin John", "North Bethesda 3", "Garrett Park", "Kensington", "Forest Glen", "North Portal Estates", "", "Shepherd Park 2", "Takoma", "Takoma Park 2", "Takoma Park" ], "is_station": [ true, true, true, true, true, true, true, true, true, true, true, true, false, true, true, true, true ], "route_kind": "generated", "service_status": "planned", "occupancy_pct": null, "delay_min": null, "accessibility_score": null, "is_accessible": null, "row_type": null, "construction_cost_musd": null, "ridership_estimate": null }, "geometry": { "type": "LineString", "coordinates": [ [ -77.54036645544852, 38.926475950780919 ], [ -77.419215849016638, 38.924486428895662 ], [ -77.358338317423616, 38.934339829416487 ], [ -77.273918312819006, 38.928344564940502 ], [ -77.225733068857721, 38.930581039509391 ], [ -77.168792322722183, 38.970289573729374 ], [ -77.148293572381192, 38.9957561395669 ], [ -77.128754313317657, 39.013945510055507 ], [ -77.103818811503558, 39.026119144082266 ], [ -77.073061987406376, 39.025782033667284 ], [ -77.044429289426816, 39.007363105433491 ], [ -77.032924896861871, 38.995193405937783 ], [ -77.034394837084648, 38.988269856763694 ], [ -77.028294469598862, 38.982390766421204 ], [ -77.018209570212761, 38.976244987024458 ], [ -77.00096576929613, 38.977516109064815 ], [ -76.990738601604164, 38.974083726571266 ] ] } },
{ "type": "Feature", "properties": { "type": "line", "line_id": 17, "kde_values": [ 6.3165289823164965, 6.865241768560086, 7.579851312204986, 8.69600832913271, 9.921381571562923, 9.275380335418483, 8.373461167353142, 7.132445345015008, 4.994160445596675, 4.266512295393787, 3.2423825714406247, 3.630223331711965, 3.8991825824741877, 3.3774676323647665, 2.3301232044262643, 2.7882563922862693, 2.1350375453243458, 1.280293519360156, 0.30808700441592934 ], "segment_lengths": [ 996.7354074842606, 1605.592451298422, 1929.6154955911352, 2039.1509145618256, 2964.65885558405, 3421.011183288873, 3045.080983535994, 2495.7759672540324, 1578.375039998672, 2375.4274755696088, 4580.143510725366, 1600.0560776365369, 2090.72586633702, 4389.2226070043, 5456.948024713677, 3907.8895394918827, 4293.468588689031, 9984.957689262976 ], "group": 0, "name_list": [ "Edmonston", "", "Brentwood 2", "Woodridge", "University Heights", "Fort Totten", "Takoma", "Silver Spring", "Four Corners 2", "Four Corners", "Kemp Mill", "Glenmont 2", "Glenmont", "Aspen Hill 2", "Aspen Hill", "Derwood", "Gaithersburg 2", "North Potomac", "Darnestown 2" ], "is_station": [ true, false, true, true, true, true, true, true, true, true, true, true, true, true, true, true, true, true, true ], "route_kind": "generated", "service_status": "planned", "occupancy_pct": null, "delay_min": null, "accessibility_score": null, "is_accessible": null, "row_type": null, "construction_cost_musd": null, "ridership_estimate": null }, "geometry": { "type": "LineString", "coordinates": [ [ -76.940342089768706, 38.955658193116918 ], [ -76.948416743609187, 38.95264928582845 ], [ -76.961565335618388, 38.948038843272066 ], [ -76.975857291215561, 38.940410124083662 ], [ -76.994041997913826, 38.938694401744542 ], [ -77.013780435657097, 38.952599617974791 ], [ -77.018209570212761, 38.976244987024458 ], [ -77.007485957020293, 38.995805597606171 ], [ -77.004662114462775, 39.013089318346246 ], [ -77.013350895341461, 39.02179477919276 ], [ -77.023256060251668, 39.036477266122326 ], [ -77.049143991146238, 39.061312408333229 ], [ -77.061059590200429, 39.067553798763946 ], [ -77.074430948554408, 39.077792883654737 ], [ -77.112562137356207, 39.085581053921395 ], [ -77.157402594374773, 39.100954362481204 ], [ -77.190617051577149, 39.109773783105979 ], [ -77.228752175411785, 39.105297934338367 ], [ -77.306384499469573, 39.14015412551953 ] ] } },
{ "type": "Feature", "properties": { "type": "line", "line_id": 18, "kde_values": [ 2.557344744476049, 3.002337367719414, 2.7990223785384853, 1.7029258463173198, 1.7216163715857367, 1.4311709665145802, 1.2631382625392544, 2.580902470869757, 3.4501220875386256, 3.4723191040447747, 3.1965769397725143, 3.1545173013128696, 3.025699064249497, 2.8499448752711163, 2.2226330944087955, 2.1350375453243458, 2.059827525972731, 2.0513203758152145, 1.340056450929168 ], "segment_lengths": [ 3068.6895259289204, 3660.513894962883, 5052.453416163012, 5505.57739370462, 3569.768405849899, 4858.468503150916, 5416.408774198599, 2700.619927397153, 1965.5287371860707, 2884.3417926180273, 3518.1384474618562, 1978.9195988646238, 4203.915843829803, 2600.702227597783, 4373.008244485353, 4573.157189215133, 2916.280229245897, 3951.418558904567 ], "group": 10, "name_list": [ "Columbia Forest 3", "Columbia Forest 2", "Boulevard Manor 2", "East Falls Church 4", "East Falls Church 5", "Williamsburg", "Chainbridge Forest", "Bethesda", "Bethesda 3", "Bethesda 2", "Garrett Park", "North Bethesda 2", "North Bethesda 4", "Rockville 2", "Rockville 4", "Gaithersburg 2", "Washington Grove 2", "Flower Hill", "Montgomery Village 2" ], "is_station": [ true, true, true, true, true, true, true, true, true, true, true, true, true, true, true, true, true, true, true ], "route_kind": "generated", "service_status": "planned", "occupancy_pct": null, "delay_min": null, "accessibility_score": null, "is_accessible": null, "row_type": null, "construction_cost_musd": null, "ridership_estimate": null }, "geometry": { "type": "LineString", "coordinates": [ [ -77.189945931655771, 38.78477058797769 ], [ -77.179668707067449, 38.804706832461413 ], [ -77.191631543299877, 38.828572155589683 ], [ -77.202537770117928, 38.862885502283397 ], [ -77.189224862579479, 38.899964455221308 ], [ -77.165873922955285, 38.917067398734623 ], [ -77.132711331515111, 38.939140379908046 ], [ -77.126819081481273, 38.976697549601752 ], [ -77.116267347672974, 38.993678006728373 ], [ -77.111358628075365, 39.0068588100753 ], [ -77.103818811503558, 39.026119144082266 ], [ -77.114085015043216, 39.049335700335448 ], [ -77.12276497302679, 39.061382744401747 ], [ -77.158234199044387, 39.071448800159764 ], [ -77.178217097736066, 39.080844717526965 ], [ -77.190617051577149, 39.109773783105979 ], [ -77.192601155346026, 39.141606020715983 ], [ -77.196320759424509, 39.16171568980014 ], [ -77.223556247497342, 39.179364065840879 ] ] } },
{ "type": "Feature", "properties": { "type": "line", "line_id": 19, "kde_values": [ 1.8722185795750044, 2.581824473598383, 2.8013050875820427, 2.69022985533321, 2.8063035584387857, 2.7990223785384853, 1.8561740482429798, 2.6356265364301006, 3.1345684155773075, 2.5005582840946143, 3.923442808372302, 7.477079034131854, 8.44997527279448, 7.971561427577358, 7.686902930176243, 6.930898439360513, 5.111677161303123, 4.534453449211242, 3.9133225071767845, 3.1965769397725143, 3.1545173013128696, 3.025699064249497, 2.3301232044262643, 1.1454599518580841, 1.6172905333219103, 1.5970762323383705 ], "segment_lengths": [ 2813.396860889543, 2704.7878398005623, 2826.4994352277786, 1384.086754581939, 1934.089496073782, 2694.4823110813613, 4903.190234627174, 2829.942276329265, 4058.9073256226916, 4063.2311121527378, 2761.981768602227, 2183.6298196804105, 3693.510559970852, 963.867712440538, 2006.0699032123625, 3271.749402399309, 1924.3948355360722, 1986.352817120095, 3209.2662397803806, 3518.1384474618562, 1978.9195988646238, 3650.964541160788, 7216.271933403264, 2174.762712404163, 1779.4295188706997 ], "group": 11, "name_list": [ "Madison Manor 10", "Madison Manor 4", "Madison Manor 5", "Madison Manor 6", "Madison Manor", "Boulevard Manor 2", "Boulevard Manor 5", "Madison Manor 9", "East Falls Church 13", "Gulf Branch", "Palisades", "Mass. Ave. Heights", "Cleveland Park", "16th Street Heights", "", "Shepherd Park", "Hawthorne", "Chevy Chase 3", "North Chevy Chase", "Garrett Park", "North Bethesda 2", "North Bethesda 4", "Aspen Hill", "Olney 2", "Olney 3", "Olney" ], "is_station": [ true, true, true, true, true, true, true, true, true, true, true, true, true, true, false, true, true, true, true, true, true, true, true, true, true, true ], "route_kind": "generated", "service_status": "planned", "occupancy_pct": null, "delay_min": null, "accessibility_score": null, "is_accessible": null, "row_type": null, "construction_cost_musd": null, "ridership_estimate": null }, "geometry": { "type": "LineString", "coordinates": [ [ -77.266454885911728, 38.782238559642337 ], [ -77.244650850913573, 38.792199948861132 ], [ -77.23999688479158, 38.810784935048325 ], [ -77.220556241959301, 38.823510586692244 ], [ -77.208853013660786, 38.826781300728122 ], [ -77.191631543299877, 38.828572155589683 ], [ -77.174374032353541, 38.841792752419011 ], [ -77.171434025437705, 38.876014671754348 ], [ -77.155709906087139, 38.891564008059127 ], [ -77.12967373520614, 38.911429067747534 ], [ -77.098670977840996, 38.926417612873841 ], [ -77.073903353155615, 38.927562436221237 ], [ -77.058545133975628, 38.9370548444764 ], [ -77.03462059394171, 38.954934160548476 ], [ -77.033218510414784, 38.96157824235015 ], [ -77.039389772585963, 38.974742184200565 ], [ -77.062505609118631, 38.988851962976675 ], [ -77.076403032254177, 38.996842896786468 ], [ -77.087924100380448, 39.007431828962218 ], [ -77.103818811503558, 39.026119144082266 ], [ -77.114085015043216, 39.049335700335448 ], [ -77.12276497302679, 39.061382744401747 ], [ -77.112562137356207, 39.085581053921395 ], [ -77.077764065994188, 39.128021505811525 ], [ -77.068949537770905, 39.141544952007123 ], [ -77.069161225715618, 39.153940474537663 ] ] } }
]
}
