{"type": "FeatureCollection", "name": "lines_iterative", "crs": {"type": "name", "properties": {"name": "urn:ogc:def:crs:OGC:1.3:CRS84"}}, "features": [{"type": "Feature", "properties": {"type": "line", "line_id": 6, "kde_values": [10.478885727188489, 13.653513407487663, 14.906602946970024], "segment_lengths": [4419.168986089183, 646.7731327750363], "group": 5, "name_list": ["Unnamed station", "Unnamed station", "Unnamed station"], "is_station": [true, true, true], "route_kind": "generated", "service_status": "planned", "occupancy_pct": null, "delay_min": null, "accessibility_score": null, "is_accessible": true, "row_type": "unknown", "construction_cost_musd": 808.0, "ridership_estimate": 210000.0}, "geometry": {"type": "LineString", "coordinates": [[-76.98970054779859, 38.84452801922953], [-76.9944650245866, 38.87521677971875], [-76.99672027453946, 38.87938521419269]]}}, {"type": "Feature", "properties": {"type": "line", "line_id": 8, "kde_values": [3.772719743099199, 3.198550555206238], "segment_lengths": [12319.111694249194], "group": 1, "name_list": ["Unnamed station", "Unnamed station"], "is_station": [true, true], "route_kind": "generated", "service_status": "planned", "occupancy_pct": null, "delay_min": null, "accessibility_score": null, "is_accessible": true, "row_type": "unknown", "construction_cost_musd": 1704.8, "ridership_estimate": 46667.0}, "geometry": {"type": "LineString", "coordinates": [[-77.04317292872666, 39.06329925324762], [-76.96115942738595, 39.00558585592912]]}}, {"type": "Feature", "properties": {"type": "line", "line_id": 13, "kde_values": [3.198550555206238, 3.772719743099199], "segment_lengths": [12319.111694249194], "group": 1, "name_list": ["Unnamed station", "Unnamed station"], "is_station": [true, true], "route_kind": "generated", "service_status": "planned", "occupancy_pct": null, "delay_min": null, "accessibility_score": null, "is_accessible": true, "row_type": "unknown", "construction_cost_musd": 1704.8, "ridership_estimate": 46667.0}, "geometry": {"type": "LineString", "coordinates": [[-76.96115942738595, 39.00558585592912], [-77.04317292872666, 39.06329925324762]]}}, {"type": "Feature", "properties": {"type": "line", "line_id": 16, "kde_values": [3.772719743099199, 3.198550555206238], "segment_lengths": [12319.111694249194], "group": 1, "name_list": ["Unnamed station", "Unnamed station"], "is_station": [true, true], "route_kind": "generated", "service_status": "planned", "occupancy_pct": null, "delay_min": null, "accessibility_score": null, "is_accessible": true, "row_type": "unknown", "construction_cost_musd": 1704.8, "ridership_estimate": 46667.0}, "geometry": {"type": "LineString", "coordinates": [[-77.04317292872666, 39.06329925324762], [-76.96115942738595, 39.00558585592912]]}}]}