{
"type": "FeatureCollection",
"name": "lines_naive",
"crs": { "type": "name", "properties": { "name": "urn:ogc:def:crs:OGC:1.3:CRS84" } },
"features": [
{ "type": "Feature", "properties": { "type": "line", "line_id": 0, "kde_values": [ 9.438938212225537, 10.575472211292386, 9.569142491323658, 2.8121032882539225, 3.5810813458871493, 3.951626405566518, 4.143447408550944, 3.8561995416764225, 3.1085298018742957, 1.1488787391858402, 1.3990941432770305, 1.3926359663397483, 1.2154145499140654, 0.9053626110943904, 0.2690656463394578, 0.012763471220182183, 0.0075444671871809825 ], "segment_lengths": [ 1374.5687508215378, 2121.0837363801843, 5877.093217139402, 3322.199432545311, 1442.3693339762901, 1132.6361922317253, 2199.4357444064303, 1905.6526133336101, 5645.616875100097, 3507.2166380635836, 1885.803135526946, 4397.896018387789, 3166.1504400175872, 10326.822024569925, 13841.903038927518, 25865.116849392765 ], "group": 0, "name_list": [ "Shipley", "Douglass", "Congress Heights", "Arlington Ridge", "Fairlington 2", "Fairlington", "", "Columbia Forest", "Glencarlyn", "Madison Manor", "East Falls Church 4", "East Falls Church 3", "East Falls Church 2", "East Falls Church", "Travilah", "Darnestown", "Barnesville" ], "is_station": [ true, true, true, true, true, true, false, true, true, true, true, true, true, true, true, true, true ], "route_kind": "generated", "service_status": "planned", "occupancy_pct": null, "delay_min": null, "accessibility_score": null, "is_accessible": null, "row_type": null, "construction_cost_musd": null, "ridership_estimate": null }, "geometry": { "type": "LineString", "coordinates": [ [ -76.972174158344359, 38.847978586218147 ], [ -76.984218178347007, 38.850099119135713 ], [ -77.002485866196423, 38.845880049287061 ], [ -77.054708305541737, 38.8398414005677 ], [ -77.084468241720288, 38.838099682929503 ], [ -77.097377051116453, 38.837229822670913 ], [ -77.106234468194515, 38.841129782242653 ], [ -77.122020043824477, 38.850384156632003 ], [ -77.136908538694414, 38.856963791229525 ], [ -77.187593914563848, 38.858323400000963 ], [ -77.215208271743776, 38.870133696999481 ], [ -77.232147128893558, 38.869952390546544 ], [ -77.270709094055519, 38.876639450081825 ], [ -77.298406964888827, 38.881671055260021 ], [ -77.366403361683908, 38.930778047422905 ], [ -77.419687606156202, 39.018120790310256 ], [ -77.356193962680948, 39.191560252246518 ] ] } },
{ "type": "Feature", "properties": { "type": "line", "line_id": 1, "kde_values": [ 0.7897763744923872, 1.7298591827019614, 1.3889357662689967, 1.3356238937799896, 2.453850682182499, 4.374698474358289, 4.362720406792531, 4.175393168875094, 2.8388144787729277, 2.3426542703786764, 1.6454530331638852, 1.0040037125754933, 0.2672948540511841, 0.2690656463394578, 0.16914113764344718 ], "segment_lengths": [ 5451.612045706589, 2814.224733421349, 4242.751926750949, 5512.127679530169, 2898.490350850597, 4161.950433669169, 2467.4026820861664, 3732.098478845134, 2718.5573542223556, 2994.4613203622425, 2210.6330063331457, 15565.664027772455, 5860.28758430462, 8876.739453427363 ], "group": 1, "name_list": [ "West Laurel", "Fairland 2", "Fairland", "Cloverly", "Layhill", "Glenmont", "Aspen Hill", "North Bethesda 2", "North Bethesda", "Potomac 4", "Potomac 3", "Potomac 2", "Potomac", "Travilah", "East Falls Church 5" ], "is_station": [ true, true, true, true, true, true, true, true, true, true, true, true, true, true, true ], "route_kind": "generated", "service_status": "planned", "occupancy_pct": null, "delay_min": null, "accessibility_score": null, "is_accessible": null, "row_type": null, "construction_cost_musd": null, "ridership_estimate": null }, "geometry": { "type": "LineString", "coordinates": [ [ -76.889641405027405, 39.097134372428329 ], [ -76.937439568800386, 39.088860103193191 ], [ -76.960232834637779, 39.097347075028054 ], [ -76.998341851242387, 39.097789949568948 ], [ -77.046319409416654, 39.088283901689543 ], [ -77.06751584655639, 39.076545810949 ], [ -77.102913465048687, 39.06720276068792 ], [ -77.123242406879342, 39.060344337690971 ], [ -77.151350774906817, 39.046154019294214 ], [ -77.167498365539686, 39.031923955379504 ], [ -77.193292566264731, 39.02599490830346 ], [ -77.210803821882422, 39.018718784357105 ], [ -77.325513029861881, 38.95656602529737 ], [ -77.366403361683908, 38.930778047422905 ], [ -77.430849186603751, 38.894237043658379 ] ] } },
{ "type": "Feature", "properties": { "type": "line", "line_id": 2, "kde_values": [ 5.975191995882519, 6.678372346963397, 9.479180696164873, 10.097975442597695, 8.548361808691118, 7.2168872528786965, 3.022225311619564, 2.474843425022744, 1.582115479818566, 1.396924895518089, 1.0716900183738223, 1.216827944400626, 1.6470210333294473, 2.1383603706312564, 2.062544327137913, 1.9312935096308677, 1.2069264325145346, 0.9788711263161697, 0.45993973524610593 ], "segment_lengths": [ 1139.812302457034, 2343.9021547721904, 1531.0664637701032, 1576.5724668288483, 880.7219694725774, 3089.527682772293, 1968.4781365138049, 3524.2506464475987, 6598.516364114816, 3514.407527228658, 1889.6441911027225, 3467.361127101216, 3455.8616096786704, 3314.485637588791, 1311.1996137312674, 3011.82634611734, 13674.960768562583, 5165.096122694028 ], "group": 2, "name_list": [ "Hillcrest Heights", "", "Douglass 2", "Congress Heights 2", "Bellevue 3", "Bellevue 2", "Bellevue", "Long Branch Creek", "Fairlington 6", "Fairlington 5", "Fairlington 4", "Fairlington 3", "Columbia Forest 2", "Madison Manor 4", "Madison Manor 3", "Madison Manor 2", "East Falls Church 8", "East Falls Church 7", "East Falls Church 6" ], "is_station": [ true, false, true, true, true, true, true, true, true, true, true, true, true, true, true, true, true, true, true ], "route_kind": "generated", "service_status": "planned", "occupancy_pct": null, "delay_min": null, "accessibility_score": null, "is_accessible": null, "row_type": null, "construction_cost_musd": null, "ridership_estimate": null }, "geometry": { "type": "LineString", "coordinates": [ [ -76.952602026106788, 38.836861415472413 ], [ -76.962039595241336, 38.833767925705672 ], [ -76.982794869827217, 38.836528344364645 ], [ -76.996370679718495, 38.838246321806935 ], [ -77.009401250309466, 38.833924539969878 ], [ -77.015605672659206, 38.83010039175727 ], [ -77.03938584500689, 38.81895203735624 ], [ -77.056957842271601, 38.817409745119633 ], [ -77.084145147131437, 38.804769724847205 ], [ -77.142336006969188, 38.79597303397113 ], [ -77.168083344381557, 38.781732821706612 ], [ -77.184550661782126, 38.778520825832139 ], [ -77.215686703571563, 38.779188950898153 ], [ -77.241690963296421, 38.792406856154201 ], [ -77.266575948698105, 38.805147765590213 ], [ -77.278180967798136, 38.806718239500626 ], [ -77.305174093584839, 38.808151281220631 ], [ -77.422961134771811, 38.835329771403401 ], [ -77.459446837824004, 38.857654427214378 ] ] } },
{ "type": "Feature", "properties": { "type": "line", "line_id": 3, "kde_values": [ 0.7479790081697201, 0.675295571193946, 0.5143454618915516, 2.075867560960973, 3.135008216313966, 3.7160098910289703, 3.9788595982329924, 5.462147961444124, 5.449777158178106, 5.172628435064975, 6.762929293170445, 7.927586663959854, 9.438938212225537, 10.575472211292386, 9.569142491323658, 8.548361808691118, 7.2168872528786965, 3.022225311619564, 2.3059691924169963, 2.019354027267441, 1.582115479818566, 1.396924895518089, 1.0716900183738223, 1.216827944400626, 1.6470210333294473, 1.7816503740269418, 1.356917434408421, 1.0651089755081173, 1.2069264325145346, 1.2147078491048673, 0.952172506138988, 0.16914113764344718, 0.40123861829009605 ], "segment_lengths": [ 2199.1086799851587, 6500.87581698845, 4292.598660539383, 2621.284450766843, 1740.3748399852811, 2348.976462594142, 4144.469781817515, 2646.264312036618, 2361.9522561146628, 2590.6330528628773, 1128.1852320615399, 1153.5013568245345, 1374.5687508215378, 2121.0837363801843, 1874.0738762406168, 880.7219694725774, 3089.527682772293, 1691.5070782276596, 1500.5890336533598, 2532.9963411348926, 6598.516364114816, 3514.407527228658, 1889.6441911027225, 3467.361127101216, 1940.2378220831342, 2503.252032421371, 3836.101881029156, 4592.242219701064, 7820.26038941108, 2738.3748656884995, 8705.89312979898, 10824.214690465711 ], "group": 3, "name_list": [ "Upper Marlboro", "Marlboro Village", "Kettering", "Largo", "Lake Arbor", "Summerfield 2", "Summerfield", "Walker Mill", "Suitland 2", "Suitland", "Naylor Gardens", "", "Shipley", "Douglass", "Congress Heights", "Bellevue 3", "Bellevue 2", "Bellevue", "Forest Heights", "Fairlington 7", "Fairlington 6", "Fairlington 5", "Fairlington 4", "Fairlington 3", "Columbia Forest 2", "Glencarlyn 2", "Boulevard Manor", "Madison Manor 5", "East Falls Church 8", "East Falls Church 10", "East Falls Church 9", "East Falls Church 5", "Poolesville" ], "is_station": [ true, true, true, true, true, true, true, true, true, true, true, false, true, true, true, true, true, true, true, true, true, true, true, true, true, true, true, true, true, true, true, true, true ], "route_kind": "generated", "service_status": "planned", "occupancy_pct": null, "delay_min": null, "accessibility_score": null, "is_accessible": null, "row_type": null, "construction_cost_musd": null, "ridership_estimate": null }, "geometry": { "type": "LineString", "coordinates": [ [ -76.754199285651836, 38.816656411169447 ], [ -76.753669102398675, 38.832041371931666 ], [ -76.782305075313175, 38.871677266412888 ], [ -76.813802336175755, 38.888994754383795 ], [ -76.832671954064935, 38.899957998547009 ], [ -76.847987985429427, 38.897516354160423 ], [ -76.867966058960576, 38.892229768601247 ], [ -76.896389945658456, 38.873512014857496 ], [ -76.910130845619051, 38.858408348105165 ], [ -76.930008859596612, 38.852630049313149 ], [ -76.95237997255839, 38.847635966118908 ], [ -76.962218280212795, 38.845741151096512 ], [ -76.972174158344359, 38.847978586218147 ], [ -76.984218178347007, 38.850099119135713 ], [ -77.002485866196423, 38.845880049287061 ], [ -77.009401250309466, 38.833924539969878 ], [ -77.015605672659206, 38.83010039175727 ], [ -77.03938584500689, 38.81895203735624 ], [ -77.04919529197312, 38.809910028959081 ], [ -77.061408299384283, 38.805463949710294 ], [ -77.084145147131437, 38.804769724847205 ], [ -77.142336006969188, 38.79597303397113 ], [ -77.168083344381557, 38.781732821706612 ], [ -77.184550661782126, 38.778520825832139 ], [ -77.215686703571563, 38.779188950898153 ], [ -77.232941780374802, 38.777271740216257 ], [ -77.253252893928448, 38.76974810640688 ], [ -77.285064116877606, 38.780077825928991 ], [ -77.305174093584839, 38.808151281220631 ], [ -77.345855818653916, 38.852766855070378 ], [ -77.36001774366521, 38.86842891670571 ], [ -77.430849186603751, 38.894237043658379 ], [ -77.522572732401159, 38.919350900968091 ] ] } },
{ "type": "Feature", "properties": { "type": "line", "line_id": 4, "kde_values": [ 5.975191995882519, 6.678372346963397, 9.479180696164873, 10.097975442597695, 8.548361808691118, 7.2168872528786965, 3.022225311619564, 2.3059691924169963, 2.019354027267441, 1.582115479818566, 1.396924895518089, 1.0716900183738223, 1.216827944400626, 1.6470210333294473, 2.1383603706312564, 2.062544327137913, 1.9312935096308677, 1.2069264325145346, 0.9788711263161697, 0.45993973524610593 ], "segment_lengths": [ 1139.812302457034, 2343.9021547721904, 1531.0664637701032, 1576.5724668288483, 880.7219694725774, 3089.527682772293, 1691.5070782276596, 1500.5890336533598, 2532.9963411348926, 6598.516364114816, 3514.407527228658, 1889.6441911027225, 3467.361127101216, 3455.8616096786704, 3314.485637588791, 1311.1996137312674, 3011.82634611734, 13674.960768562583, 5165.096122694028 ], "group": 2, "name_list": [ "Hillcrest Heights", "", "Douglass 2", "Congress Heights 2", "Bellevue 3", "Bellevue 2", "Bellevue", "Forest Heights", "Fairlington 7", "Fairlington 6", "Fairlington 5", "Fairlington 4", "Fairlington 3", "Columbia Forest 2", "Madison Manor 4", "Madison Manor 3", "Madison Manor 2", "East Falls Church 8", "East Falls Church 7", "East Falls Church 6" ], "is_station": [ true, false, true, true, true, true, true, true, true, true, true, true, true, true, true, true, true, true, true, true ], "route_kind": "generated", "service_status": "planned", "occupancy_pct": null, "delay_min": null, "accessibility_score": null, "is_accessible": null, "row_type": null, "construction_cost_musd": null, "ridership_estimate": null }, "geometry": { "type": "LineString", "coordinates": [ [ -76.952602026106788, 38.836861415472413 ], [ -76.962039595241336, 38.833767925705672 ], [ -76.982794869827217, 38.836528344364645 ], [ -76.996370679718495, 38.838246321806935 ], [ -77.009401250309466, 38.833924539969878 ], [ -77.015605672659206, 38.83010039175727 ], [ -77.03938584500689, 38.81895203735624 ], [ -77.04919529197312, 38.809910028959081 ], [ -77.061408299384283, 38.805463949710294 ], [ -77.084145147131437, 38.804769724847205 ], [ -77.142336006969188, 38.79597303397113 ], [ -77.168083344381557, 38.781732821706612 ], [ -77.184550661782126, 38.778520825832139 ], [ -77.215686703571563, 38.779188950898153 ], [ -77.241690963296421, 38.792406856154201 ], [ -77.266575948698105, 38.805147765590213 ], [ -77.278180967798136, 38.806718239500626 ], [ -77.305174093584839, 38.808151281220631 ], [ -77.422961134771811, 38.835329771403401 ], [ -77.459446837824004, 38.857654427214378 ] ] } },
{ "type": "Feature", "properties": { "type": "line", "line_id": 5, "kde_values": [ 1.095451338597832, 1.2147078491048673, 1.2069264325145346, 1.0651089755081173, 0.2648235429450888, 0.07993008111301661, 0.5833805745620044, 0.909872613607651, 0.2013351855326797, 0.3015534266301077, 0.675295571193946 ], "segment_lengths": [ 2612.134167708179, 7820.26038941108, 4592.242219701064, 7104.4842192014185, 9319.038056969433, 19294.169691970816, 2575.0001758238072, 11746.229515608313, 14258.429223226607, 7100.911145693719 ], "group": 4, "name_list": [ "East Falls Church 11", "East Falls Church 10", "East Falls Church 8", "Madison Manor 5", "Indian Head 2", "Indian Head", "Fort Washington 2", "Fort Washington", "Clinton", "Queensland", "Marlboro Village" ], "is_station": [ true, true, true, true, true, true, true, true, true, true, true ], "route_kind": "generated", "service_status": "planned", "occupancy_pct": null, "delay_min": null, "accessibility_score": null, "is_accessible": null, "row_type": null, "construction_cost_musd": null, "ridership_estimate": null }, "geometry": { "type": "LineString", "coordinates": [ [ -77.369098640898528, 38.855276649540833 ], [ -77.345855818653916, 38.852766855070378 ], [ -77.305174093584839, 38.808151281220631 ], [ -77.285064116877606, 38.780077825928991 ], [ -77.254669294383319, 38.736317279903723 ], [ -77.180815206177442, 38.705564411081575 ], [ -77.007504936114003, 38.707169515073886 ], [ -76.984844772535766, 38.710795234988602 ], [ -76.88130332238407, 38.726656164186146 ], [ -76.810890931848363, 38.810078773969913 ], [ -76.753669102398675, 38.832041371931666 ] ] } },
{ "type": "Feature", "properties": { "type": "line", "line_id": 6, "kde_values": [ 1.144338771970658, 1.4513423424262573, 2.4905620579730505, 2.5153818491673405, 2.618085542505588, 2.751937622687004, 2.7511544457877806, 2.2409644046522947, 0.8779124322192685, 0.012763471220182183, 0.16914113764344718 ], "segment_lengths": [ 3485.793873646436, 3306.723079743917, 1112.4695705476472, 1784.3483137927153, 2047.5804807231982, 2021.3914914354293, 1969.6158808951066, 2812.353127507422, 22399.492653738118, 17777.786106858155 ], "group": 5, "name_list": [ "Clarksburg 2", "Clarksburg", "Germantown 6", "", "Germantown 5", "Germantown 4", "Germantown 3", "Germantown 2", "Germantown", "Darnestown", "East Falls Church 5" ], "is_station": [ true, true, true, false, true, true, true, true, true, true, true ], "route_kind": "generated", "service_status": "planned", "occupancy_pct": null, "delay_min": null, "accessibility_score": null, "is_accessible": null, "row_type": null, "construction_cost_musd": null, "ridership_estimate": null }, "geometry": { "type": "LineString", "coordinates": [ [ -77.269219405399582, 39.24382655571776 ], [ -77.260358522777452, 39.220562880837164 ], [ -77.252588055555563, 39.198347861807093 ], [ -77.24493736874571, 39.193365168000803 ], [ -77.239813196353694, 39.181593246517757 ], [ -77.247305811445855, 39.168570717061918 ], [ -77.260940397607186, 39.159272166056439 ], [ -77.275644088959965, 39.151640663521505 ], [ -77.298004598101002, 39.142521460449032 ], [ -77.419687606156202, 39.018120790310256 ], [ -77.430849186603751, 38.894237043658379 ] ] } },
{ "type": "Feature", "properties": { "type": "line", "line_id": 7, "kde_values": [ 5.6049483227252255, 7.125131350250838, 8.80579025047891, 9.91728306724544, 9.90832781619372, 9.597941730824342, 9.059576351169026, 7.125376824640078, 6.422216301981898, 5.844382475707124, 5.750788779050739, 5.938578229829567, 6.0633122614562485, 6.029190546215519, 5.6375426404464175, 4.907327529376296, 3.1602882337576026, 0.855270112339666, 0.5949965014888098, 0.856943789269347, 0.2672948540511841, 0.012763471220182183 ], "segment_lengths": [ 1421.7428606857945, 1469.0278558179527, 1324.5177731674685, 1208.2989209146501, 640.6550669261601, 546.5532604174809, 1639.4327988801192, 807.4603220631088, 1177.8633264152163, 1419.0534966948044, 1271.0678165991837, 1375.0772845562576, 1068.8232949037867, 1240.1855969138937, 972.5275566175541, 1925.0878233233261, 4207.356457209452, 4063.658251464915, 4796.756179615423, 12541.159753622806, 13697.377319470628 ], "group": 6, "name_list": [ "Adelphi", "Langley Park", "Takoma Park", "Silver Spring", "", "North Portal Estates 2", "", "North Portal Estates", "", "Chevy Chase", "Chevy Chase Section Five", "", "Chevy Chase Village", "", "American University Park", "", "Spring Valley", "Albemarle", "Williamsburg 2", "Williamsburg", "Potomac", "Darnestown" ], "is_station": [ true, true, true, true, false, true, false, true, false, true, true, false, true, false, true, false, true, true, true, true, true, true ], "route_kind": "generated", "service_status": "planned", "occupancy_pct": null, "delay_min": null, "accessibility_score": null, "is_accessible": null, "row_type": null, "construction_cost_musd": null, "ridership_estimate": null }, "geometry": { "type": "LineString", "coordinates": [ [ -76.983989566449907, 39.007151565217363 ], [ -76.989752212533034, 38.998294177800986 ], [ -77.002131436170899, 38.994740951367035 ], [ -77.013651427555175, 38.992427452543133 ], [ -77.02424608200576, 38.994261732519512 ], [ -77.02994710264349, 38.993649968571347 ], [ -77.033721691724438, 38.996090227022343 ], [ -77.048421547737888, 38.996788342588431 ], [ -77.055193649082824, 38.994768767023537 ], [ -77.064318300460087, 38.990605217402326 ], [ -77.075721887104734, 38.986176881994687 ], [ -77.082387191084649, 38.978970292724064 ], [ -77.086519933546938, 38.969920519111106 ], [ -77.088704857381003, 38.962651136292081 ], [ -77.093414074487669, 38.954800073470139 ], [ -77.101007063352228, 38.951439844277928 ], [ -77.1127723118869, 38.941582581969726 ], [ -77.144269954302743, 38.925332874305113 ], [ -77.179835177304597, 38.931733248222173 ], [ -77.221440987381911, 38.923011117233642 ], [ -77.325513029861881, 38.95656602529737 ], [ -77.419687606156202, 39.018120790310256 ] ] } },
{ "type": "Feature", "properties": { "type": "line", "line_id": 8, "kde_values": [ 0.40123861829009605, 0.16914113764344718, 0.952172506138988, 1.2147078491048673, 1.2069264325145346, 1.0651089755081173, 0.2648235429450888, 0.07993008111301661, 0.5833805745620044, 0.909872613607651, 0.2013351855326797, 0.3015534266301077, 0.675295571193946 ], "segment_lengths": [ 10824.214690465711, 8705.89312979898, 2738.3748656884995, 7820.26038941108, 4592.242219701064, 7104.4842192014185, 9319.038056969433, 19294.169691970816, 2575.0001758238072, 11746.229515608313, 14258.429223226607, 7100.911145693719 ], "group": 4, "name_list": [ "Poolesville", "East Falls Church 5", "East Falls Church 9", "East Falls Church 10", "East Falls Church 8", "Madison Manor 5", "Indian Head 2", "Indian Head", "Fort Washington 2", "Fort Washington", "Clinton", "Queensland", "Marlboro Village" ], "is_station": [ true, true, true, true, true, true, true, true, true, true, true, true, true ], "route_kind": "generated", "service_status": "planned", "occupancy_pct": null, "delay_min": null, "accessibility_score": null, "is_accessible": null, "row_type": null, "construction_cost_musd": null, "ridership_estimate": null }, "geometry": { "type": "LineString", "coordinates": [ [ -77.522572732401159, 38.919350900968091 ], [ -77.430849186603751, 38.894237043658379 ], [ -77.36001774366521, 38.86842891670571 ], [ -77.345855818653916, 38.852766855070378 ], [ -77.305174093584839, 38.808151281220631 ], [ -77.285064116877606, 38.780077825928991 ], [ -77.254669294383319, 38.736317279903723 ], [ -77.180815206177442, 38.705564411081575 ], [ -77.007504936114003, 38.707169515073886 ], [ -76.984844772535766, 38.710795234988602 ], [ -76.88130332238407, 38.726656164186146 ], [ -76.810890931848363, 38.810078773969913 ], [ -76.753669102398675, 38.832041371931666 ] ] } },
{ "type": "Feature", "properties": { "type": "line", "line_id": 9, "kde_values": [ 7.642356722935853, 7.8515262358365225, 11.061050099408048, 14.571650384743863, 16.725887711573787, 17.883980169784692, 15.986681591601268, 14.274837975496945, 15.419080358777908, 15.884904736292198, 15.754324920748783, 11.707487729010134, 8.792807816364434, 7.004339850424648, 6.327366439907755, 6.176504202830687, 5.6375426404464175, 4.907327529376296, 3.1602882337576026, 0.855270112339666, 0.5949965014888098, 0.856943789269347, 0.2672948540511841, 0.012763471220182183 ], "segment_lengths": [ 1232.6439429745747, 2583.4381633749613, 1541.7998490600369, 1211.7017746773256, 2295.7311636555564, 1068.4239018265591, 1637.1067170166348, 856.4807523178912, 814.6631317310721, 1260.3048176012887, 1856.2654773812692, 1704.6159066004336, 1198.8146049889713, 962.6252101079534, 1146.5216877048308, 1894.5326252097746, 972.5275566175541, 1925.0878233233261, 4207.356457209452, 4063.658251464915, 4796.756179615423, 12541.159753622806, 13697.377319470628 ], "group": 6, "name_list": [ "Benning", "", "Hill East", "Lincoln Park", "Capitol Hill", "Southwest Employment Area", "", "George Washington University", "", "West End", "", "Woodley Park", "Cleveland Park", "", "North Cleveland Park", "", "American University Park", "", "Spring Valley", "Albemarle", "Williamsburg 2", "Williamsburg", "Potomac", "Darnestown" ], "is_station": [ true, false, true, true, true, true, false, true, false, true, false, true, true, false, true, false, true, false, true, true, true, true, true, true ], "route_kind": "generated", "service_status": "planned", "occupancy_pct": null, "delay_min": null, "accessibility_score": null, "is_accessible": null, "row_type": null, "construction_cost_musd": null, "ridership_estimate": null }, "geometry": { "type": "LineString", "coordinates": [ [ -76.948136802269573, 38.894314982863484 ], [ -76.955079729319067, 38.887601009128083 ], [ -76.977418709601494, 38.882705442970192 ], [ -76.99122495053075, 38.883563978006698 ], [ -77.002099397811406, 38.883935255645348 ], [ -77.021827986332838, 38.888611254510828 ], [ -77.031410915660956, 38.889027168646102 ], [ -77.044593332114829, 38.894101385766525 ], [ -77.047372040548723, 38.89968521079323 ], [ -77.049764007488619, 38.905067592345631 ], [ -77.051163139795946, 38.913809777399763 ], [ -77.0578226609437, 38.925703925464909 ], [ -77.058111253574495, 38.93761359599948 ], [ -77.064592516756093, 38.944302963590822 ], [ -77.067097982505103, 38.950739774376025 ], [ -77.076415574816565, 38.954152637824038 ], [ -77.093414074487669, 38.954800073470139 ], [ -77.101007063352228, 38.951439844277928 ], [ -77.1127723118869, 38.941582581969726 ], [ -77.144269954302743, 38.925332874305113 ], [ -77.179835177304597, 38.931733248222173 ], [ -77.221440987381911, 38.923011117233642 ], [ -77.325513029861881, 38.95656602529737 ], [ -77.419687606156202, 39.018120790310256 ] ] } },
{ "type": "Feature", "properties": { "type": "line", "line_id": 10, "kde_values": [ 0.16914113764344718, 0.2690656463394578, 0.2672948540511841, 1.0040037125754933, 1.6454530331638852, 2.3426542703786764, 2.8388144787729277, 4.175393168875094, 4.362720406792531, 4.374698474358289, 2.453850682182499, 1.3356238937799896, 1.3889357662689967, 0.9869776207729087, 0.7897763744923872 ], "segment_lengths": [ 8876.739453427363, 5860.28758430462, 15565.664027772455, 2210.6330063331457, 2994.4613203622425, 2718.5573542223556, 3732.098478845134, 2467.4026820861664, 4161.950433669169, 2898.490350850597, 5512.127679530169, 4242.751926750949, 2958.5074806050575, 5154.459009372337 ], "group": 1, "name_list": [ "East Falls Church 5", "Travilah", "Potomac", "Potomac 2", "Potomac 3", "Potomac 4", "North Bethesda", "North Bethesda 2", "Aspen Hill", "Glenmont", "Layhill", "Cloverly", "Fairland", "Burtonsville", "West Laurel" ], "is_station": [ true, true, true, true, true, true, true, true, true, true, true, true, true, true, true ], "route_kind": "generated", "service_status": "planned", "occupancy_pct": null, "delay_min": null, "accessibility_score": null, "is_accessible": null, "row_type": null, "construction_cost_musd": null, "ridership_estimate": null }, "geometry": { "type": "LineString", "coordinates": [ [ -77.430849186603751, 38.894237043658379 ], [ -77.366403361683908, 38.930778047422905 ], [ -77.325513029861881, 38.95656602529737 ], [ -77.210803821882422, 39.018718784357105 ], [ -77.193292566264731, 39.02599490830346 ], [ -77.167498365539686, 39.031923955379504 ], [ -77.151350774906817, 39.046154019294214 ], [ -77.123242406879342, 39.060344337690971 ], [ -77.102913465048687, 39.06720276068792 ], [ -77.06751584655639, 39.076545810949 ], [ -77.046319409416654, 39.088283901689543 ], [ -76.998341851242387, 39.097789949568948 ], [ -76.960232834637779, 39.097347075028054 ], [ -76.935086249081223, 39.104021529997809 ], [ -76.889641405027405, 39.097134372428329 ] ] } },
{ "type": "Feature", "properties": { "type": "line", "line_id": 11, "kde_values": [ 0.7897763744923872, 0.9869776207729087, 1.3889357662689967, 1.3356238937799896, 2.453850682182499, 4.374698474358289, 4.362720406792531, 4.175393168875094, 2.8388144787729277, 2.3426542703786764, 1.6454530331638852, 1.0040037125754933, 0.2672948540511841, 0.2690656463394578, 0.16914113764344718 ], "segment_lengths": [ 5154.459009372337, 2958.5074806050575, 4242.751926750949, 5512.127679530169, 2898.490350850597, 4161.950433669169, 2467.4026820861664, 3732.098478845134, 2718.5573542223556, 2994.4613203622425, 2210.6330063331457, 15565.664027772455, 5860.28758430462, 8876.739453427363 ], "group": 1, "name_list": [ "West Laurel", "Burtonsville", "Fairland", "Cloverly", "Layhill", "Glenmont", "Aspen Hill", "North Bethesda 2", "North Bethesda", "Potomac 4", "Potomac 3", "Potomac 2", "Potomac", "Travilah", "East Falls Church 5" ], "is_station": [ true, true, true, true, true, true, true, true, true, true, true, true, true, true, true ], "route_kind": "generated", "service_status": "planned", "occupancy_pct": null, "delay_min": null, "accessibility_score": null, "is_accessible": null, "row_type": null, "construction_cost_musd": null, "ridership_estimate": null }, "geometry": { "type": "LineString", "coordinates": [ [ -76.889641405027405, 39.097134372428329 ], [ -76.935086249081223, 39.104021529997809 ], [ -76.960232834637779, 39.097347075028054 ], [ -76.998341851242387, 39.097789949568948 ], [ -77.046319409416654, 39.088283901689543 ], [ -77.06751584655639, 39.076545810949 ], [ -77.102913465048687, 39.06720276068792 ], [ -77.123242406879342, 39.060344337690971 ], [ -77.151350774906817, 39.046154019294214 ], [ -77.167498365539686, 39.031923955379504 ], [ -77.193292566264731, 39.02599490830346 ], [ -77.210803821882422, 39.018718784357105 ], [ -77.325513029861881, 38.95656602529737 ], [ -77.366403361683908, 38.930778047422905 ], [ -77.430849186603751, 38.894237043658379 ] ] } },
{ "type": "Feature", "properties": { "type": "line", "line_id": 12, "kde_values": [ 2.1122406631422597, 2.3328351527634186, 2.9259242044111997, 4.972668914968454, 6.762929293170445, 9.590225066987566, 10.78972814000925, 11.424087773389422, 13.653513407487663, 14.906602946970024, 16.725887711573787, 17.883980169784692, 19.561431582810613, 19.87427800287528, 19.492234566324917, 18.428615864105293, 15.884904736292198, 13.291808773588603, 11.155862700243846, 9.537050675195315, 8.836734525993704, 8.238280332799077, 7.944563785112016, 8.792807816364434, 8.876634695972468, 8.5702748184979, 8.09072665596172, 7.717141956653864, 6.460849575336025, 5.844382475707124, 5.342016616139736, 5.026888084293132, 4.787573227048497, 4.404472720090356, 3.9946215534923533, 2.8388144787729277, 3.5105105362251035, 4.362491422764572 ], "segment_lengths": [ 841.2766516974215, 2204.3917224591664, 4278.586387903248, 1983.8638174161406, 2237.1131955360315, 1467.0911300755542, 1125.001309019129, 1640.4842129121685, 646.7731327750363, 884.2687208312683, 2295.7311636555564, 1304.6791723786944, 448.5308403488575, 463.0773070174258, 912.6387597348419, 1034.5954411348582, 970.4699839740567, 791.7443830270086, 845.2512252933027, 823.4011498634803, 1032.6718437518457, 916.4312656432645, 1414.1740953987178, 2968.538299743515, 557.277942218956, 731.2947660128726, 924.1926129680571, 3486.922410175207, 1402.383971954096, 1680.4521478398715, 1180.4762973635534, 1558.9326285273892, 2561.0145436480193, 2006.322647521046, 3848.0660148740994, 2699.2504458446133, 2251.428934144664 ], "group": 7, "name_list": [ "Camp Springs 2", "", "Camp Springs", "Silver Hill", "Naylor Gardens", "Garfield Heights", "Fort Stanton", "", "Navy Yard", "", "Capitol Hill", "Southwest Employment Area", "Downtown 3", "Downtown 2", "Downtown", "Golden Triangle", "West End", "West End 2", "Georgetown", "Burleith/Hillandale", "Glover Park", "Mass. Ave. Heights", "Cleveland Park 2", "Cleveland Park", "16th Street Heights 2", "16th Street Heights", "", "Brightwood", "Hawthorne", "Chevy Chase", "North Chevy Chase 2", "North Chevy Chase", "Chevy Chase View", "Garrett Park", "North Bethesda 3", "North Bethesda", "Rockville 2", "Rockville" ], "is_station": [ true, false, true, true, true, true, true, false, true, false, true, true, true, true, true, true, true, true, true, true, true, true, true, true, true, true, false, true, true, true, true, true, true, true, true, true, true, true ], "route_kind": "generated", "service_status": "planned", "occupancy_pct": null, "delay_min": null, "accessibility_score": null, "is_accessible": null, "row_type": null, "construction_cost_musd": null, "ridership_estimate": null }, "geometry": { "type": "LineString", "coordinates": [ [ -76.906707804049489, 38.801616491622433 ], [ -76.913948445800202, 38.799929437910791 ], [ -76.93133862950144, 38.807310840519555 ], [ -76.942954535399721, 38.835855488411539 ], [ -76.95237997255839, 38.847635966118908 ], [ -76.970657845715166, 38.854141554326546 ], [ -76.982650238633312, 38.858397632072609 ], [ -76.988862038476938, 38.864604815791054 ], [ -76.994465024586603, 38.875216779718748 ], [ -76.996720274539456, 38.879385214192688 ], [ -77.002099397811406, 38.883935255645348 ], [ -77.021827986332838, 38.888611254510828 ], [ -77.027437465091865, 38.896620630937491 ], [ -77.02958719792224, 38.899272824098517 ], [ -77.033439331076863, 38.900494888438267 ], [ -77.040705685796837, 38.903449406934058 ], [ -77.049764007488619, 38.905067592345631 ], [ -77.057816127892437, 38.907667761939123 ], [ -77.064195422686396, 38.910114937240728 ], [ -77.069423503351842, 38.914399564850072 ], [ -77.071414171716398, 38.919942297147941 ], [ -77.071752789275109, 38.927154581181362 ], [ -77.069557338049705, 38.933326764255085 ], [ -77.058111253574495, 38.93761359599948 ], [ -77.036284777020029, 38.949529533111942 ], [ -77.034473974418873, 38.953159072088567 ], [ -77.034850927774471, 38.958259179761683 ], [ -77.036650600065812, 38.964561193366521 ], [ -77.054277808710751, 38.984691037191908 ], [ -77.064318300460087, 38.990605217402326 ], [ -77.074824492737918, 38.999029962105816 ], [ -77.077984068051506, 39.006896498199644 ], [ -77.089873941136034, 39.012645879246854 ], [ -77.106271101221679, 39.02518346810055 ], [ -77.122239202910308, 39.031676048420827 ], [ -77.151350774906817, 39.046154019294214 ], [ -77.15903504164848, 39.064012879875577 ], [ -77.160474387446996, 39.079674817485376 ] ] } },
{ "type": "Feature", "properties": { "type": "line", "line_id": 13, "kde_values": [ 2.280640318652003, 2.3332162321046876, 1.716437638120977, 3.198550555206238, 7.121419912796582, 8.991729188500676, 9.659930556866518, 9.659245864908236, 8.987422967889687, 8.730815663154038, 8.5702748184979, 8.876634695972468, 8.792807816364434, 7.944563785112016, 8.238280332799077, 8.836734525993704, 9.537050675195315, 11.155862700243846, 13.291808773588603, 15.884904736292198, 18.428615864105293, 19.492234566324917, 19.87427800287528, 19.561431582810613, 17.883980169784692, 15.448531621112712, 15.308940732320167, 13.138769583217785, 10.949988677796876, 10.691820388527235, 10.575472211292386, 9.479180696164873, 7.610419352539245, 4.107783065180943, 2.2258968667616505, 1.08263194171057, 0.3746379224954441, 0.4933013943365745, 0.07993008111301661, 0.2648235429450888 ], "segment_lengths": [ 1860.918508911015, 2856.3397165435745, 5754.328150123318, 3431.1879999813173, 1922.541918869821, 1145.3234613624495, 1194.5424465145472, 1568.560712905511, 1365.343584706294, 726.8528020206205, 557.277942218956, 2968.538299743515, 1414.1740953987178, 916.4312656432645, 1032.6718437518457, 823.4011498634803, 845.2512252933027, 791.7443830270086, 970.4699839740567, 1034.5954411348582, 912.6387597348419, 463.0773070174258, 448.5308403488575, 1304.6791723786944, 1347.5148602375111, 76.17241104336443, 749.2699749583352, 2531.5886545864196, 798.6065015522523, 1588.5727881712935, 1946.0696418077757, 2108.7249161734076, 2559.2170904985055, 2228.129775507794, 3066.8565482893086, 6722.889848810275, 6090.623963111694, 8596.976728612726, 9319.038056969433 ], "group": 8, "name_list": [ "Fairland 3", "Calverton 2", "Calverton", "Adelphi 2", "Langley Park 2", "Takoma Park 2", "", "Takoma", "Brightwood 2", "Brightwood Park", "16th Street Heights", "16th Street Heights 2", "Cleveland Park", "Cleveland Park 2", "Mass. Ave. Heights", "Glover Park", "Burleith/Hillandale", "Georgetown", "West End 2", "West End", "Golden Triangle", "Downtown", "Downtown 2", "Downtown 3", "Southwest Employment Area", "Southwest/Waterfront", "", "", "Barry Farm", "", "Douglass", "Douglass 2", "Glassmanor", "Forest Heights 2", "National Harbor 2", "National Harbor", "Fort Washington 4", "Fort Washington 3", "Indian Head", "Indian Head 2" ], "is_station": [ true, true, true, true, true, true, false, true, true, true, true, true, true, true, true, true, true, true, true, true, true, true, true, true, true, true, false, false, true, false, true, true, true, true, true, true, true, true, true, true ], "route_kind": "generated", "service_status": "planned", "occupancy_pct": null, "delay_min": null, "accessibility_score": null, "is_accessible": null, "row_type": null, "construction_cost_musd": null, "ridership_estimate": null }, "geometry": { "type": "LineString", "coordinates": [ [ -76.944274272267023, 39.076854989530368 ], [ -76.946998576923278, 39.064049955371601 ], [ -76.946636352284727, 39.04412645505554 ], [ -76.961159427385951, 39.00558585592912 ], [ -76.986861329746674, 38.992363615116318 ], [ -77.001424461430986, 38.985147768221232 ], [ -77.009890271293543, 38.980602811375718 ], [ -77.017782438415566, 38.974950654043482 ], [ -77.024543046881135, 38.965338871732023 ], [ -77.029842224189309, 38.956737937779664 ], [ -77.034473974418873, 38.953159072088567 ], [ -77.036284777020029, 38.949529533111942 ], [ -77.058111253574495, 38.93761359599948 ], [ -77.069557338049705, 38.933326764255085 ], [ -77.071752789275109, 38.927154581181362 ], [ -77.071414171716398, 38.919942297147941 ], [ -77.069423503351842, 38.914399564850072 ], [ -77.064195422686396, 38.910114937240728 ], [ -77.057816127892437, 38.907667761939123 ], [ -77.049764007488619, 38.905067592345631 ], [ -77.040705685796837, 38.903449406934058 ], [ -77.033439331076863, 38.900494888438267 ], [ -77.02958719792224, 38.899272824098517 ], [ -77.027437465091865, 38.896620630937491 ], [ -77.021827986332838, 38.888611254510828 ], [ -77.01608014660151, 38.880318622859726 ], [ -77.015711639015279, 38.8798697905412 ], [ -77.01499799437471, 38.874659445248525 ], [ -76.998449682779864, 38.862514083795375 ], [ -76.994329918364755, 38.857940786831875 ], [ -76.984218178347007, 38.850099119135713 ], [ -76.982794869827217, 38.836528344364645 ], [ -76.989096529928119, 38.822611947789028 ], [ -76.988764080383476, 38.804700401230932 ], [ -76.997254803356682, 38.790574057075347 ], [ -77.015865335747989, 38.774738843710701 ], [ -77.067688118124536, 38.750558119433094 ], [ -77.105821041231081, 38.719952954573891 ], [ -77.180815206177442, 38.705564411081575 ], [ -77.254669294383319, 38.736317279903723 ] ] } },
{ "type": "Feature", "properties": { "type": "line", "line_id": 14, "kde_values": [ 1.6185670032253072, 2.1218696953176366, 1.997828091479438, 1.539642349749238, 1.7704576857627223, 3.6450650138166214, 4.362720406792531, 4.1319647431788376, 3.9946215534923533, 3.9875845352757815, 3.799620118640809, 3.512452079013942, 2.535431693206114, 1.8293873781693983, 0.8028235273272483, 0.5949965014888098, 1.117246565412914, 1.3990941432770305, 1.5233236079244492, 1.9918455986530137, 1.6470210333294473 ], "segment_lengths": [ 1309.2958393430738, 2278.8294877532007, 2581.5054330510407, 2385.296349575993, 3324.466314251029, 3134.280366418887, 3156.8534070035403, 2517.755320072914, 2018.2359758450825, 1105.4618053029635, 1317.459123207207, 1587.9605506241176, 1458.741945229249, 3378.4289382472352, 6459.728897383574, 4745.374772129903, 4940.620868707658, 5707.8765977138955, 3568.988355519985, 3836.439466369874 ], "group": 9, "name_list": [ "Olney 3", "Olney 2", "Olney", "Leisure World", "Aspen Hill 3", "Aspen Hill 2", "Aspen Hill", "North Bethesda 5", "North Bethesda 3", "North Bethesda 4", "", "Bethesda 2", "Bethesda", "Cabin John 2", "Cabin John", "Williamsburg 2", "East Falls Church 12", "East Falls Church 4", "Madison Manor 6", "Boulevard Manor 2", "Columbia Forest 2" ], "is_station": [ true, true, true, true, true, true, true, true, true, true, false, true, true, true, true, true, true, true, true, true, true ], "route_kind": "generated", "service_status": "planned", "occupancy_pct": null, "delay_min": null, "accessibility_score": null, "is_accessible": null, "row_type": null, "construction_cost_musd": null, "ridership_estimate": null }, "geometry": { "type": "LineString", "coordinates": [ [ -77.045966359816262, 39.155947191637658 ], [ -77.055305700971118, 39.15040321393851 ], [ -77.066949156083894, 39.137344819905948 ], [ -77.076659518011255, 39.121008710450717 ], [ -77.09159023548176, 39.109084085882152 ], [ -77.088597623447768, 39.086023944349741 ], [ -77.102913465048687, 39.06720276068792 ], [ -77.118985823137777, 39.049060331201986 ], [ -77.122239202910308, 39.031676048420827 ], [ -77.126240907208995, 39.017938613390086 ], [ -77.129399078283882, 39.010623294091012 ], [ -77.132649449952069, 39.001780270886286 ], [ -77.145461677744521, 38.996906214727524 ], [ -77.157585243072873, 38.993040730743687 ], [ -77.179668848017016, 38.976858970858714 ], [ -77.179835177304597, 38.931733248222173 ], [ -77.193796271107274, 38.900394714780404 ], [ -77.215208271743776, 38.870133696999481 ], [ -77.21561185633395, 38.830202741193808 ], [ -77.221563202702029, 38.805656999646949 ], [ -77.215686703571563, 38.779188950898153 ] ] } },
{ "type": "Feature", "properties": { "type": "line", "line_id": 15, "kde_values": [ 1.1959025660667824, 1.716437638120977, 2.6938711246448985, 2.711783709270655, 1.3356238937799896, 1.0458004702608603, 1.6185670032253072, 0.5462569817613607, 0.5430575080961112, 1.0876602480175814, 1.4513423424262573, 1.0929702888334394, 0.0075444671871809825, 0.012763471220182183, 0.2690656463394578, 0.952172506138988, 1.095451338597832 ], "segment_lengths": [ 3650.180304063771, 3296.202569672979, 2569.999543044028, 4166.10337604313, 7709.316694408297, 2266.695383650609, 5071.948383061235, 12097.145196082985, 7264.821832912585, 2139.6974985960196, 2443.1872263541827, 9436.852436329109, 25865.116849392765, 13841.903038927518, 8946.622440541172, 2134.7943143667308 ], "group": 10, "name_list": [ "Beltsville", "Calverton", "Calverton 3", "Colesville", "Cloverly", "Sandy Spring", "Olney 3", "Brookeville", "Montgomery Village", "Clarksburg 4", "Clarksburg", "Clarksburg 3", "Barnesville", "Darnestown", "Travilah", "East Falls Church 9", "East Falls Church 11" ], "is_station": [ true, true, true, true, true, true, true, true, true, true, true, true, true, true, true, true, true ], "route_kind": "generated", "service_status": "planned", "occupancy_pct": null, "delay_min": null, "accessibility_score": null, "is_accessible": null, "row_type": null, "construction_cost_musd": null, "ridership_estimate": null }, "geometry": { "type": "LineString", "coordinates": [ [ -76.913899072636923, 39.042681143679964 ], [ -76.946636352284727, 39.04412645505554 ], [ -76.968823243023536, 39.059354327593411 ], [ -76.987385400313855, 39.070012774473184 ], [ -76.998341851242387, 39.097789949568948 ], [ -77.031172865762457, 39.14509680153003 ], [ -77.045966359816262, 39.155947191637658 ], [ -77.080482238927658, 39.179005883478744 ], [ -77.182250419778327, 39.208543095864783 ], [ -77.24301607332221, 39.226983641739743 ], [ -77.260358522777452, 39.220562880837164 ], [ -77.28200938054124, 39.223349029315976 ], [ -77.356193962680948, 39.191560252246518 ], [ -77.419687606156202, 39.018120790310256 ], [ -77.366403361683908, 38.930778047422905 ], [ -77.36001774366521, 38.86842891670571 ], [ -77.369098640898528, 38.855276649540833 ] ] } },
{ "type": "Feature", "properties": { "type": "line", "line_id": 16, "kde_values": [ 9.479180696164873, 7.610419352539245, 6.795382691814452, 5.546203758685679, 3.022225311619564, 2.474843425022744, 3.2583201992217012, 3.607758848366756, 3.176167020172142, 1.1488787391858402, 1.3990941432770305, 1.3926359663397483, 1.337402114447319, 1.2154145499140654, 0.2672948540511841, 0.012763471220182183 ], "segment_lengths": [ 2108.7249161734076, 1330.8795412068323, 1456.909376793122, 2931.9452530922163, 1968.4781365138049, 4276.521062191965, 1752.6224258433638, 2368.481846409986, 7362.841317249978, 3507.2166380635836, 1885.803135526946, 2658.762595387645, 1951.9829693783636, 12960.938055916025, 13697.377319470628 ], "group": 11, "name_list": [ "Douglass 2", "Glassmanor", "Bellevue 5", "Bellevue 4", "Bellevue", "Long Branch Creek", "Fairlington 9", "Fairlington 8", "Columbia Forest 3", "Madison Manor", "East Falls Church 4", "East Falls Church 3", "East Falls Church 13", "East Falls Church 2", "Potomac", "Darnestown" ], "is_station": [ true, true, true, true, true, true, true, true, true, true, true, true, true, true, true, true ], "route_kind": "generated", "service_status": "planned", "occupancy_pct": null, "delay_min": null, "accessibility_score": null, "is_accessible": null, "row_type": null, "construction_cost_musd": null, "ridership_estimate": null }, "geometry": { "type": "LineString", "coordinates": [ [ -76.982794869827217, 38.836528344364645 ], [ -76.989096529928119, 38.822611947789028 ], [ -77.000017661398275, 38.818822010944544 ], [ -77.013071185693391, 38.818086226730344 ], [ -77.03938584500689, 38.81895203735624 ], [ -77.056957842271601, 38.817409745119633 ], [ -77.093444446152603, 38.826777260896819 ], [ -77.109022968443497, 38.828551263883625 ], [ -77.127618038683593, 38.836605723089711 ], [ -77.187593914563848, 38.858323400000963 ], [ -77.215208271743776, 38.870133696999481 ], [ -77.232147128893558, 38.869952390546544 ], [ -77.256011342690968, 38.869194272864242 ], [ -77.270709094055519, 38.876639450081825 ], [ -77.325513029861881, 38.95656602529737 ], [ -77.419687606156202, 39.018120790310256 ] ] } },
{ "type": "Feature", "properties": { "type": "line", "line_id": 17, "kde_values": [ 2.4026885101552558, 2.8092540352534408, 2.664852422794084, 2.2221260752445176, 2.3846927976388366, 2.562648868470654, 3.0649226940267424, 3.239574661316473, 2.841358573149415, 2.5008626357085437, 2.645945809467791, 2.3426542703786764, 2.1155657502618155, 2.535431693206114, 2.8689547776568114, 0.855270112339666, 1.9916611640409196, 2.76890768774992, 3.1085298018742957, 3.176167020172142, 2.2833724623653913, 1.396924895518089 ], "segment_lengths": [ 1182.1544836791636, 3006.3762402491375, 3700.4249464541176, 2168.253124850021, 2287.0162660465485, 2413.9155475405423, 2362.3319380084927, 1788.6176327243606, 3647.2339561384874, 1357.9570325427358, 2080.9210700445065, 2411.491015741725, 3192.1925348027853, 2626.7467779424496, 7847.103415059917, 3622.786566963776, 3916.085812396791, 2700.031301466127, 3088.154247391638, 3882.054853322995, 2183.214631269972 ], "group": 12, "name_list": [ "Montgomery Village 3", "Montgomery Village 2", "Gaithersburg 2", "Gaithersburg", "North Potomac 3", "North Potomac 2", "North Potomac", "Rockville 5", "Rockville 4", "Rockville 3", "Potomac 6", "Potomac 4", "Potomac 5", "Bethesda", "Glen Echo", "Albemarle", "Yorktown", "Madison Manor 7", "Glencarlyn", "Columbia Forest 3", "Fairlington 10", "Fairlington 5" ], "is_station": [ true, true, true, true, true, true, true, true, true, true, true, true, true, true, true, true, true, true, true, true, true, true ], "route_kind": "generated", "service_status": "planned", "occupancy_pct": null, "delay_min": null, "accessibility_score": null, "is_accessible": null, "row_type": null, "construction_cost_musd": null, "ridership_estimate": null }, "geometry": { "type": "LineString", "coordinates": [ [ -77.204725214285716, 39.180193169261258 ], [ -77.207642191338138, 39.172277536488743 ], [ -77.222715144163672, 39.154902693430053 ], [ -77.239941724807821, 39.132853756685371 ], [ -77.234252417802281, 39.118402568390586 ], [ -77.217339, 39.109353587084165 ], [ -77.197842217144029, 39.101988026002942 ], [ -77.183255371990413, 39.090026089083565 ], [ -77.181784875844912, 39.07760650159981 ], [ -77.183755189765705, 39.052213772361526 ], [ -77.176206598590696, 39.044771731322754 ], [ -77.167498365539686, 39.031923955379504 ], [ -77.159869906777701, 39.016172532994489 ], [ -77.145461677744521, 38.996906214727524 ], [ -77.136806161136221, 38.979843769327893 ], [ -77.144269954302743, 38.925332874305113 ], [ -77.141919474087032, 38.900076359306794 ], [ -77.149132560985109, 38.873275355550952 ], [ -77.136908538694414, 38.856963791229525 ], [ -77.127618038683593, 38.836605723089711 ], [ -77.134430142527918, 38.809960075793668 ], [ -77.142336006969188, 38.79597303397113 ] ] } },
{ "type": "Feature", "properties": { "type": "line", "line_id": 18, "kde_values": [ 0.20671774004997262, 0.012763471220182183, 0.8779124322192685, 2.8939074654195895, 3.65505572219955, 3.7015342337136476, 2.618085542505588, 2.8092540352534408, 3.0579832324118175, 3.0406498397432573, 2.429320238541116, 0.9844897858226006, 2.1036778335508783, 2.1218696953176366, 1.0458004702608603, 1.3356238937799896 ], "segment_lengths": [ 13716.195290872663, 22399.492653738118, 3531.5261858724184, 1850.2991925917845, 1126.4797430641204, 2802.648909163273, 3822.9556681867275, 1617.6395530560076, 1175.165416684259, 2281.061549841999, 7117.835693308653, 3341.8456366457904, 1935.8063328408155, 2792.3490970984167, 7709.316694408297 ], "group": 13, "name_list": [ "Poolesville 2", "Darnestown", "Germantown", "Germantown 8", "Germantown 7", "", "Germantown 5", "Montgomery Village 2", "Montgomery Village 4", "", "Flower Hill", "Olney 5", "Olney 4", "Olney 2", "Sandy Spring", "Cloverly" ], "is_station": [ true, true, true, true, true, false, true, true, true, false, true, true, true, true, true, true ], "route_kind": "generated", "service_status": "planned", "occupancy_pct": null, "delay_min": null, "accessibility_score": null, "is_accessible": null, "row_type": null, "construction_cost_musd": null, "ridership_estimate": null }, "geometry": { "type": "LineString", "coordinates": [ [ -77.522157490644474, 38.964939357713817 ], [ -77.419687606156202, 39.018120790310256 ], [ -77.298004598101002, 39.142521460449032 ], [ -77.285263654368151, 39.165050978196291 ], [ -77.273675008895978, 39.174288785171257 ], [ -77.26441807189633, 39.177457695134883 ], [ -77.239813196353694, 39.181593246517757 ], [ -77.207642191338138, 39.172277536488743 ], [ -77.193265004207248, 39.170640090671682 ], [ -77.183640218314679, 39.167277882555645 ], [ -77.164595791775611, 39.161414156054462 ], [ -77.100843014455648, 39.157616761184727 ], [ -77.07086171786942, 39.156430377441907 ], [ -77.055305700971118, 39.15040321393851 ], [ -77.031172865762457, 39.14509680153003 ], [ -76.998341851242387, 39.097789949568948 ] ] } },
{ "type": "Feature", "properties": { "type": "line", "line_id": 19, "kde_values": [ 1.670337312583046, 1.716437638120977, 3.0045834916791785, 3.45255288866517, 3.928548557636105, 4.333916478579838, 5.06265158519988, 5.143834512889015, 5.053226286634232, 5.026888084293132, 5.044105825969899, 4.871845685257842, 4.327729232271845, 3.512452079013942, 2.535431693206114, 1.8293873781693983, 0.8028235273272483, 0.5949965014888098, 1.117246565412914, 1.3990941432770305, 1.5233236079244492, 1.9100369928560965, 2.1383603706312564, 1.356917434408421 ], "segment_lengths": [ 4123.954324717868, 3795.2019047280123, 1313.7824808043438, 1662.8596913428153, 2723.201016376916, 1944.116044182406, 2682.9723664529115, 1078.426142435039, 1584.5992817781012, 2150.5388603940696, 1191.6301692535328, 1483.8485526656914, 1329.0368750932334, 1587.9605506241176, 1458.741945229249, 3378.4289382472352, 6459.728897383574, 4745.374772129903, 4940.620868707658, 5707.8765977138955, 3730.15225155727, 2732.9680947337893, 3482.2683530887984 ], "group": 14, "name_list": [ "Beltsville 2", "Calverton", "White Oak 2", "White Oak", "Burnt Mills", "Kemp Mill", "Forest Glen", "Kensington", "", "North Chevy Chase", "North Chevy Chase 3", "", "Bethesda 3", "Bethesda 2", "Bethesda", "Cabin John 2", "Cabin John", "Williamsburg 2", "East Falls Church 12", "East Falls Church 4", "Madison Manor 6", "Madison Manor 8", "Madison Manor 4", "Boulevard Manor" ], "is_station": [ true, true, true, true, true, true, true, true, false, true, true, false, true, true, true, true, true, true, true, true, true, true, true, true ], "route_kind": "generated", "service_status": "planned", "occupancy_pct": null, "delay_min": null, "accessibility_score": null, "is_accessible": null, "row_type": null, "construction_cost_musd": null, "ridership_estimate": null }, "geometry": { "type": "LineString", "coordinates": [ [ -76.916278403324938, 39.027634252057915 ], [ -76.946636352284727, 39.04412645505554 ], [ -76.980708193880687, 39.045056496356253 ], [ -76.990066358135607, 39.039471415480882 ], [ -77.004165830049814, 39.035639320619381 ], [ -77.028578105195649, 39.036861510940739 ], [ -77.045225449071353, 39.03276100747356 ], [ -77.06474925, 39.021782820652334 ], [ -77.067827351545347, 39.014646067321756 ], [ -77.077984068051506, 39.006896498199644 ], [ -77.096765914006838, 39.003382256359743 ], [ -77.107459562128525, 39.003006128192617 ], [ -77.120711312644218, 39.001887949533405 ], [ -77.132649449952069, 39.001780270886286 ], [ -77.145461677744521, 38.996906214727524 ], [ -77.157585243072873, 38.993040730743687 ], [ -77.179668848017016, 38.976858970858714 ], [ -77.179835177304597, 38.931733248222173 ], [ -77.193796271107274, 38.900394714780404 ], [ -77.215208271743776, 38.870133696999481 ], [ -77.21561185633395, 38.830202741193808 ], [ -77.238876044995322, 38.811413433421414 ], [ -77.241690963296421, 38.792406856154201 ], [ -77.253252893928448, 38.76974810640688 ] ] } }
]
}
