{
"type": "FeatureCollection",
"name": "lines_genetic",
"crs": { "type": "name", "properties": { "name": "urn:ogc:def:crs:OGC:1.3:CRS84" } },
"features": [
{ "type": "Feature", "properties": { "type": "line", "line_id": 0, "kde_values": [ 3.097053278441636, 5.4585759984149655, 7.215273175097973, 7.75346148815677, 6.8515765787628515, 9.558225199573979, 10.432330148368687, 9.921381571562923, 9.275380335418483, 8.373461167353142, 7.132445345015008, 4.994160445596675, 4.266512295393787, 3.2423825714406247, 3.630223331711965, 3.8991825824741877, 3.3774676323647665, 2.3301232044262643, 2.7882563922862693, 2.1350375453243458, 1.280293519360156, 0.30808700441592934 ], "segment_lengths": [ 4177.271948674301, 2950.0113659440685, 1995.0907513304792, 2098.037821969235, 4170.610763465036, 2139.8133290079154, 1230.5565614617915, 2964.65885558405, 3421.011183288873, 3045.080983535994, 2495.7759672540324, 1578.375039998672, 2375.4274755696088, 4580.143510725366, 1600.0560776365369, 2090.72586633702, 4389.2226070043, 5456.948024713677, 3907.8895394918827, 4293.468588689031, 9984.957689262976 ], "group": 0, "name_list": [ "Forestville", "Capitol Heights", "Marshall Heights", "Central NE", "Mayfair", "Brentwood", "Brookland", "", "Fort Totten", "Takoma", "Silver Spring", "Four Corners 2", "Four Corners", "Kemp Mill", "Glenmont 2", "Glenmont", "Aspen Hill 2", "Aspen Hill", "Derwood", "Gaithersburg", "North Potomac", "Darnestown" ], "is_station": [ true, true, true, true, true, true, true, false, true, true, true, true, true, true, true, true, true, true, true, true, true, true ], "route_kind": "generated", "service_status": "planned", "occupancy_pct": null, "delay_min": null, "accessibility_score": null, "is_accessible": null, "row_type": null, "construction_cost_musd": null, "ridership_estimate": null }, "geometry": { "type": "LineString", "coordinates": [ [ -76.879557556741986, 38.84852375144046 ], [ -76.900025744988639, 38.873014027927098 ], [ -76.924650681801069, 38.880637094401102 ], [ -76.938385872012091, 38.889598912962676 ], [ -76.948237010017337, 38.902104058494182 ], [ -76.979490630540838, 38.91818062953147 ], [ -76.990053290920102, 38.930674968718883 ], [ -76.994041997913826, 38.938694401744542 ], [ -77.013780435657097, 38.952599617974791 ], [ -77.018209570212761, 38.976244987024458 ], [ -77.007485957020293, 38.995805597606171 ], [ -77.004662114462775, 39.013089318346246 ], [ -77.013350895341461, 39.02179477919276 ], [ -77.023256060251668, 39.036477266122326 ], [ -77.049143991146238, 39.061312408333229 ], [ -77.061059590200429, 39.067553798763946 ], [ -77.074430948554408, 39.077792883654737 ], [ -77.112562137356207, 39.085581053921395 ], [ -77.157402594374773, 39.100954362481204 ], [ -77.190617051577149, 39.109773783105979 ], [ -77.228752175411785, 39.105297934338367 ], [ -77.306384499469573, 39.14015412551953 ] ] } },
{ "type": "Feature", "properties": { "type": "line", "line_id": 1, "kde_values": [ 0.48421957903409235, 0.617606448399285, 0.41401704511894516, 1.3451329390986797, 2.3082561931045817, 3.1965769397725143, 3.8999199681932017, 5.166724425845082, 7.311606204194945, 7.81330621006274, 7.132445345015008, 5.796080798720011, 4.449190923420422, 3.3409174300618165, 3.0943732822387577 ], "segment_lengths": [ 9814.15355805328, 18990.33197307945, 5631.588630626417, 4078.4625507742103, 4058.374069774732, 3424.174747012565, 4138.060653593772, 2163.0930737942026, 874.4752535364449, 2010.7119131300308, 2874.689441816528, 2450.1817723173967, 2321.9827880713183, 1113.9685406402136 ], "group": 1, "name_list": [ "Poolesville", "Darnestown 2", "Potomac 2", "Potomac", "North Bethesda", "Garrett Park", "Kensington", "Forest Glen", "", "Silver Spring 2", "Silver Spring", "Langley Park 2", "Langley Park", "College Park 2", "College Park" ], "is_station": [ true, true, true, true, true, true, true, true, false, true, true, true, true, true, true ], "route_kind": "generated", "service_status": "planned", "occupancy_pct": null, "delay_min": null, "accessibility_score": null, "is_accessible": null, "row_type": null, "construction_cost_musd": null, "ridership_estimate": null }, "geometry": { "type": "LineString", "coordinates": [ [ -77.469638473606381, 39.051785529680039 ], [ -77.395018800048959, 39.015314616706306 ], [ -77.22459055671365, 39.021139334681394 ], [ -77.17420280455417, 39.024645185787946 ], [ -77.139181638761031, 39.033005430309508 ], [ -77.103818811503558, 39.026119144082266 ], [ -77.073061987406376, 39.025782033667284 ], [ -77.044429289426816, 39.007363105433491 ], [ -77.032924896861871, 38.995193405937783 ], [ -77.02533063658808, 38.993631858135338 ], [ -77.007485957020293, 38.995805597606171 ], [ -76.983081977867869, 38.98924213147054 ], [ -76.961588357117876, 38.985556779114496 ], [ -76.941487290059854, 38.989886837747541 ], [ -76.932700143229738, 38.993608258588061 ] ] } },
{ "type": "Feature", "properties": { "type": "line", "line_id": 2, "kde_values": [ 2.7990223785384853, 1.8561740482429798, 2.6356265364301006, 3.1345684155773075, 2.5005582840946143, 3.923442808372302, 7.477079034131854, 8.44997527279448, 9.838746835190674, 9.275380335418483, 8.933849255349704, 8.717065496342567, 7.585248418723814, 6.681150514631717, 6.0424398853248515, 4.7856084861453, 3.79776646983191, 4.153225323573129, 4.047466060172473, 3.924727010231717, 3.152277355237972, 2.09655534017755, 0.8054975326990318 ], "segment_lengths": [ 2694.4823110813613, 4903.190234627174, 2829.942276329265, 4058.9073256226916, 4063.2311121527378, 2761.981768602227, 2183.6298196804105, 2838.4240646558596, 2662.9148767151632, 1324.3903781429021, 550.866626677012, 1701.6792738551892, 2830.7737805868933, 1943.587907866304, 1621.9076022419422, 2690.4760276432025, 3453.6773409547245, 1410.7990075455962, 991.6284774800739, 3714.224164879501, 5965.484637554362, 3628.751235880256 ], "group": 2, "name_list": [ "Boulevard Manor 2", "Boulevard Manor", "Madison Manor", "East Falls Church", "Gulf Branch", "Palisades", "Mass. Ave. Heights", "Cleveland Park", "Crestwood", "Fort Totten", "Queens Chapel 2", "Queens Chapel", "Chillum", "Hyattsville", "University Park", "Riverdale Park", "East Riverdale", "New Carrollton 2", "New Carrollton", "", "Glenarden", "Largo", "Kettering" ], "is_station": [ true, true, true, true, true, true, true, true, true, true, true, true, true, true, true, true, true, true, true, false, true, true, true ], "route_kind": "generated", "service_status": "planned", "occupancy_pct": null, "delay_min": null, "accessibility_score": null, "is_accessible": null, "row_type": null, "construction_cost_musd": null, "ridership_estimate": null }, "geometry": { "type": "LineString", "coordinates": [ [ -77.191631543299877, 38.828572155589683 ], [ -77.174374032353541, 38.841792752419011 ], [ -77.171434025437705, 38.876014671754348 ], [ -77.155709906087139, 38.891564008059127 ], [ -77.12967373520614, 38.911429067747534 ], [ -77.098670977840996, 38.926417612873841 ], [ -77.073903353155615, 38.927562436221237 ], [ -77.058545133975628, 38.9370548444764 ], [ -77.034166042521392, 38.942865404978626 ], [ -77.013780435657097, 38.952599617974791 ], [ -77.001889900208312, 38.952289950942252 ], [ -76.99694486526937, 38.952145566277196 ], [ -76.984296669880607, 38.958821393775409 ], [ -76.959480529538382, 38.963137255925133 ], [ -76.942034728395129, 38.963675851392374 ], [ -76.930512909460305, 38.970609539356914 ], [ -76.906813002823583, 38.966925445672636 ], [ -76.879445913576333, 38.955561522477069 ], [ -76.87061618401593, 38.948491476260038 ], [ -76.868773157322948, 38.941713236544558 ], [ -76.853897316902135, 38.918480287305663 ], [ -76.816565261108011, 38.888561550641604 ], [ -76.784022429950269, 38.890032100869973 ] ] } },
{ "type": "Feature", "properties": { "type": "line", "line_id": 3, "kde_values": [ 2.4824239522564575, 5.20968311545836, 5.280225195288467, 3.847186202515998, 4.264297095717995, 4.472137226820778, 2.5005582840946143, 1.2631382625392544, 2.580902470869757, 1.6612662248262344, 1.3451329390986797, 1.8924951266069725, 2.2226330944087955, 2.1350375453243458, 2.059827525972731, 2.0513203758152145, 1.3207816212270356 ], "segment_lengths": [ 4622.3038053975715, 1827.0301476183772, 3529.316893554143, 2439.00191507061, 3774.173442153795, 2483.4943915454946, 3979.615831385684, 5416.408774198599, 3628.2941786687834, 5044.551712125759, 3961.634874044545, 4110.152382435571, 4373.008244485353, 4573.157189215133, 2916.280229245897, 3327.5613679970734 ], "group": 3, "name_list": [ "Fairlington 2", "Fairlington", "Claremont", "Glencarlyn", "Boulevard Manor 3", "High View Park", "Gulf Branch", "Chainbridge Forest", "Bethesda", "Cabin John", "Potomac", "Rockville 2", "Rockville", "Gaithersburg", "Washington Grove", "Flower Hill", "Montgomery Village" ], "is_station": [ true, true, true, true, true, true, true, true, true, true, true, true, true, true, true, true, true ], "route_kind": "generated", "service_status": "planned", "occupancy_pct": null, "delay_min": null, "accessibility_score": null, "is_accessible": null, "row_type": null, "construction_cost_musd": null, "ridership_estimate": null }, "geometry": { "type": "LineString", "coordinates": [ [ -77.087192534222382, 38.795214704709409 ], [ -77.105262409358829, 38.824346144359616 ], [ -77.118151743017663, 38.832261430284497 ], [ -77.137234108905574, 38.851981513171943 ], [ -77.140066880621831, 38.868899061523514 ], [ -77.129864079939637, 38.894068071014637 ], [ -77.12967373520614, 38.911429067747534 ], [ -77.132711331515111, 38.939140379908046 ], [ -77.126819081481273, 38.976697549601752 ], [ -77.148293572381192, 38.9957561395669 ], [ -77.17420280455417, 39.024645185787946 ], [ -77.177206652857961, 39.052188567936504 ], [ -77.178217097736066, 39.080844717526965 ], [ -77.190617051577149, 39.109773783105979 ], [ -77.192601155346026, 39.141606020715983 ], [ -77.196320759424509, 39.16171568980014 ], [ -77.181026226659313, 39.181626491311036 ] ] } },
{ "type": "Feature", "properties": { "type": "line", "line_id": 4, "kde_values": [ 0.8606115351903896, 2.1754072785057845, 2.3301232044262643, 2.8499448752711163, 1.8924951266069725, 1.3451329390986797, 0.9171956520091769, 0.6202880681924064, 1.2631382625392544, 2.5005582840946143, 4.472137226820778, 6.199812602961093, 5.9911736861014, 5.626407248539041, 5.280225195288467, 4.038604556704577, 2.7499065610983435, 1.640134340526434, 0.7174452494813939 ], "segment_lengths": [ 5667.515836084692, 5564.442720755857, 5473.207490823074, 3476.379179857568, 3961.634874044545, 3633.393087199605, 4750.781198842069, 6001.259488662648, 3979.615831385684, 2483.4943915454946, 2575.119651949184, 3596.1024734563516, 2175.997104410121, 783.83375617229, 2668.9761776693863, 2789.448569198382, 3447.751645914708, 6577.390075218368 ], "group": 4, "name_list": [ "Cloverly", "Leisure World", "Aspen Hill", "Rockville 3", "Rockville 2", "Potomac", "Potomac 3", "Cabin John 2", "Chainbridge Forest", "Gulf Branch", "High View Park", "Bluemont", "Columbia Forest", "Claremont 2", "Claremont", "Fairlington 6", "Fairlington 5", "Fairlington 4", "Fairlington 3" ], "is_station": [ true, true, true, true, true, true, true, true, true, true, true, true, true, true, true, true, true, true, true ], "route_kind": "generated", "service_status": "planned", "occupancy_pct": null, "delay_min": null, "accessibility_score": null, "is_accessible": null, "row_type": null, "construction_cost_musd": null, "ridership_estimate": null }, "geometry": { "type": "LineString", "coordinates": [ [ -77.013420012961774, 39.099906897952586 ], [ -77.063148176988932, 39.091435098531086 ], [ -77.112562137356207, 39.085581053921395 ], [ -77.158234199044387, 39.071448800159764 ], [ -77.177206652857961, 39.052188567936504 ], [ -77.17420280455417, 39.024645185787946 ], [ -77.185439868930899, 39.000834623966995 ], [ -77.168792322722183, 38.970289573729374 ], [ -77.132711331515111, 38.939140379908046 ], [ -77.12967373520614, 38.911429067747534 ], [ -77.129864079939637, 38.894068071014637 ], [ -77.120266520783105, 38.877684535523805 ], [ -77.116331330872484, 38.85271891221204 ], [ -77.116049663289857, 38.83749617618443 ], [ -77.118151743017663, 38.832261430284497 ], [ -77.132563923078123, 38.817334035623873 ], [ -77.131524877465765, 38.797824223069817 ], [ -77.144751793799287, 38.775994665416285 ], [ -77.176987889913107, 38.737380581229608 ] ] } },
{ "type": "Feature", "properties": { "type": "line", "line_id": 5, "kde_values": [ 0.7524945844638019, 1.8560806693442582, 0.3400238116570169, 1.9156635839989944, 1.7216163715857367, 3.1345684155773075, 3.73598971813989, 4.472137226820778, 4.686078855853594, 5.311030991227298, 5.912291600722759, 15.371619733231359, 18.535112433606233, 19.235916837627208, 17.704284936079567, 13.50019985318049, 9.841368722919851, 7.3729876783414845, 7.75346148815677, 7.215273175097973, 5.4585759984149655, 3.097053278441636 ], "segment_lengths": [ 6921.986818392981, 9436.6727247997, 6322.866289576078, 3950.300309762277, 3919.5707476128036, 1933.1465940354722, 1075.2826580498606, 1581.506173825426, 1297.7889661793224, 2737.201677639593, 3945.2588709409074, 1528.0716164449088, 732.449626287425, 1815.2330344131456, 1938.7024116033485, 1627.3894371616213, 3253.7824700670826, 1507.4538496773685, 1995.0907513304792, 2950.0113659440685, 4177.271948674301 ], "group": 3, "name_list": [ "Travilah 2", "Travilah", "East Falls Church 4", "East Falls Church 3", "East Falls Church 2", "East Falls Church", "Leeway", "High View Park", "Waverly Hills", "Cherrydale", "Colonial Village", "George Washington University", "Downtown 2", "Downtown", "North Capitol Street", "Near Northeast", "Carver", "Benning", "Central NE", "Marshall Heights", "Capitol Heights", "Forestville" ], "is_station": [ true, true, true, true, true, true, true, true, true, true, true, true, true, true, true, true, true, true, true, true, true, true ], "route_kind": "generated", "service_status": "planned", "occupancy_pct": null, "delay_min": null, "accessibility_score": null, "is_accessible": null, "row_type": null, "construction_cost_musd": null, "ridership_estimate": null }, "geometry": { "type": "LineString", "coordinates": [ [ -77.419215849016638, 38.924486428895662 ], [ -77.358338317423616, 38.934339829416487 ], [ -77.273918312819006, 38.928344564940502 ], [ -77.221075936409946, 38.912139280533474 ], [ -77.189224862579479, 38.899964455221308 ], [ -77.155709906087139, 38.891564008059127 ], [ -77.139244934347488, 38.895860546129001 ], [ -77.129864079939637, 38.894068071014637 ], [ -77.116371407617592, 38.897529851379502 ], [ -77.105221282974895, 38.894880343102663 ], [ -77.08066185451716, 38.893946802113824 ], [ -77.04652738640722, 38.901366642923961 ], [ -77.03286508920722, 38.900331433040883 ], [ -77.026309803478796, 38.900772201454068 ], [ -77.010177666734933, 38.90262310366775 ], [ -76.992916409188936, 38.900822358657685 ], [ -76.978307333388997, 38.901243352279629 ], [ -76.950417918858676, 38.894435044639216 ], [ -76.938385872012091, 38.889598912962676 ], [ -76.924650681801069, 38.880637094401102 ], [ -76.900025744988639, 38.873014027927098 ], [ -76.879557556741986, 38.84852375144046 ] ] } },
{ "type": "Feature", "properties": { "type": "line", "line_id": 6, "kde_values": [ 0.3496222498457135, 1.9576836182110495, 1.8560806693442582, 0.3400238116570169, 1.6786750879260097, 0.6202880681924064, 1.6612662248262344, 2.783785128032127, 3.1965769397725143, 4.321341971522947, 4.272218833758239, 4.028768611243422, 5.879920798496205, 7.132445345015008, 5.796080798720011, 4.449190923420422, 3.3409174300618165 ], "segment_lengths": [ 11220.938712918387, 6293.000152618806, 9436.6727247997, 5373.4957385213875, 8513.816440413206, 4302.053856811752, 3394.182250942096, 3278.346910922343, 3682.0192949195025, 2130.360286989392, 3411.525756648139, 2539.5928402842706, 2384.8013042251555, 2874.689441816528, 2450.1817723173967, 2321.9827880713183 ], "group": 5, "name_list": [ "Poolesville 2", "Travilah 3", "Travilah", "East Falls Church 4", "Williamsburg", "Cabin John 2", "Cabin John", "North Bethesda 2", "Garrett Park", "North Kensington 2", "North Kensington", "Forest Glen 2", "Silver Spring 3", "Silver Spring", "Langley Park 2", "Langley Park", "College Park 2" ], "is_station": [ true, true, true, true, true, true, true, true, true, true, true, true, true, true, true, true, true ], "route_kind": "generated", "service_status": "planned", "occupancy_pct": null, "delay_min": null, "accessibility_score": null, "is_accessible": null, "row_type": null, "construction_cost_musd": null, "ridership_estimate": null }, "geometry": { "type": "LineString", "coordinates": [ [ -77.4870111149135, 39.001488305308584 ], [ -77.396765557428822, 38.966584418349292 ], [ -77.358338317423616, 38.934339829416487 ], [ -77.273918312819006, 38.928344564940502 ], [ -77.225733068857721, 38.930581039509391 ], [ -77.168792322722183, 38.970289573729374 ], [ -77.148293572381192, 38.9957561395669 ], [ -77.128754313317657, 39.013945510055507 ], [ -77.103818811503558, 39.026119144082266 ], [ -77.075139009807174, 39.038918493971565 ], [ -77.056506111010634, 39.035528028165189 ], [ -77.028580716751904, 39.02572158334457 ], [ -77.020080976160344, 39.009272672657701 ], [ -77.007485957020293, 38.995805597606171 ], [ -76.983081977867869, 38.98924213147054 ], [ -76.961588357117876, 38.985556779114496 ], [ -76.941487290059854, 38.989886837747541 ] ] } },
{ "type": "Feature", "properties": { "type": "line", "line_id": 7, "kde_values": [ 1.293464871710018, 1.340056450929168, 2.0513203758152145, 2.059827525972731, 2.1350375453243458, 2.2226330944087955, 1.8924951266069725, 1.3451329390986797, 1.6612662248262344, 2.580902470869757, 4.224159321148807, 5.952836842828388, 6.735780432443725, 7.477079034131854, 8.742492065376661, 11.20438696200132, 15.371619733231359, 18.535112433606233, 19.235916837627208, 17.704284936079567, 13.50019985318049, 9.841368722919851, 7.3729876783414845, 7.75346148815677, 7.215273175097973, 5.4585759984149655, 3.097053278441636 ], "segment_lengths": [ 4755.448396514806, 3951.418558904567, 2916.280229245897, 4573.157189215133, 4373.008244485353, 4110.152382435571, 3961.634874044545, 5044.551712125759, 3628.2941786687834, 3173.9872587867508, 3013.0945945248613, 1727.6943266403123, 1814.7551694211127, 1514.740708856535, 1696.9496913478054, 1906.2603443584767, 1528.0716164449088, 732.449626287425, 1815.2330344131456, 1938.7024116033485, 1627.3894371616213, 3253.7824700670826, 1507.4538496773685, 1995.0907513304792, 2950.0113659440685, 4177.271948674301 ], "group": 3, "name_list": [ "Clarksburg", "Montgomery Village 2", "Flower Hill", "Washington Grove", "Gaithersburg", "Rockville", "Rockville 2", "Potomac", "Cabin John", "Bethesda", "Somerset", "Tenleytown", "McLean Gardens", "Mass. Ave. Heights", "Burleith/Hillandale", "Georgetown", "George Washington University", "Downtown 2", "Downtown", "North Capitol Street", "Near Northeast", "Carver", "Benning", "Central NE", "Marshall Heights", "Capitol Heights", "Forestville" ], "is_station": [ true, true, true, true, true, true, true, true, true, true, true, true, true, true, true, true, true, true, true, true, true, true, true, true, true, true, true ], "route_kind": "generated", "service_status": "planned", "occupancy_pct": null, "delay_min": null, "accessibility_score": null, "is_accessible": null, "row_type": null, "construction_cost_musd": null, "ridership_estimate": null }, "geometry": { "type": "LineString", "coordinates": [ [ -77.252288799703862, 39.2038648777689 ], [ -77.223556247497342, 39.179364065840879 ], [ -77.196320759424509, 39.16171568980014 ], [ -77.192601155346026, 39.141606020715983 ], [ -77.190617051577149, 39.109773783105979 ], [ -77.178217097736066, 39.080844717526965 ], [ -77.177206652857961, 39.052188567936504 ], [ -77.17420280455417, 39.024645185787946 ], [ -77.148293572381192, 38.9957561395669 ], [ -77.126819081481273, 38.976697549601752 ], [ -77.104627054374731, 38.962779351326311 ], [ -77.083263919393858, 38.949854761478811 ], [ -77.073874657588291, 38.940243450163024 ], [ -77.073903353155615, 38.927562436221237 ], [ -77.070345391893781, 38.917344418754119 ], [ -77.061667990030514, 38.907592258919429 ], [ -77.04652738640722, 38.901366642923961 ], [ -77.03286508920722, 38.900331433040883 ], [ -77.026309803478796, 38.900772201454068 ], [ -77.010177666734933, 38.90262310366775 ], [ -76.992916409188936, 38.900822358657685 ], [ -76.978307333388997, 38.901243352279629 ], [ -76.950417918858676, 38.894435044639216 ], [ -76.938385872012091, 38.889598912962676 ], [ -76.924650681801069, 38.880637094401102 ], [ -76.900025744988639, 38.873014027927098 ], [ -76.879557556741986, 38.84852375144046 ] ] } },
{ "type": "Feature", "properties": { "type": "line", "line_id": 8, "kde_values": [ 2.7990223785384853, 1.8561740482429798, 2.6356265364301006, 3.1345684155773075, 2.5005582840946143, 3.923442808372302, 5.560666984150805, 6.735780432443725, 6.6251849854005425, 7.971561427577358, 9.275380335418483, 8.717065496342567, 8.375588126858784, 7.579851312204986, 6.865241768560086, 6.0424398853248515, 4.7856084861453, 3.79776646983191, 4.153225323573129, 4.047466060172473, 3.924727010231717, 3.152277355237972, 2.09655534017755, 0.8054975326990318 ], "segment_lengths": [ 2694.4823110813613, 4903.190234627174, 2829.942276329265, 4058.9073256226916, 4063.2311121527378, 1988.4886082862608, 1531.8013911091718, 1396.601749326499, 3588.825680903543, 2343.861968648208, 1875.2538118723803, 1815.7257370433617, 2202.9545431538395, 1605.592451298422, 1731.0341605807653, 1621.9076022419422, 2690.4760276432025, 3453.6773409547245, 1410.7990075455962, 991.6284774800739, 3714.224164879501, 5965.484637554362, 3628.751235880256 ], "group": 2, "name_list": [ "Boulevard Manor 2", "Boulevard Manor", "Madison Manor", "East Falls Church", "Gulf Branch", "Palisades", "Cathedral Heights", "McLean Gardens", "Van Ness", "16th Street Heights", "Fort Totten", "Queens Chapel", "Michigan Park", "Brentwood 2", "North Brentwood", "University Park", "Riverdale Park", "East Riverdale", "New Carrollton 2", "New Carrollton", "", "Glenarden", "Largo", "Kettering" ], "is_station": [ true, true, true, true, true, true, true, true, true, true, true, true, true, true, true, true, true, true, true, true, false, true, true, true ], "route_kind": "generated", "service_status": "planned", "occupancy_pct": null, "delay_min": null, "accessibility_score": null, "is_accessible": null, "row_type": null, "construction_cost_musd": null, "ridership_estimate": null }, "geometry": { "type": "LineString", "coordinates": [ [ -77.191631543299877, 38.828572155589683 ], [ -77.174374032353541, 38.841792752419011 ], [ -77.171434025437705, 38.876014671754348 ], [ -77.155709906087139, 38.891564008059127 ], [ -77.12967373520614, 38.911429067747534 ], [ -77.098670977840996, 38.926417612873841 ], [ -77.086947043741517, 38.936901402420474 ], [ -77.073874657588291, 38.940243450163024 ], [ -77.065378969209206, 38.947423447564347 ], [ -77.03462059394171, 38.954934160548476 ], [ -77.013780435657097, 38.952599617974791 ], [ -76.99694486526937, 38.952145566277196 ], [ -76.981348337389022, 38.948432535123693 ], [ -76.961565335618388, 38.948038843272066 ], [ -76.948416743609187, 38.95264928582845 ], [ -76.942034728395129, 38.963675851392374 ], [ -76.930512909460305, 38.970609539356914 ], [ -76.906813002823583, 38.966925445672636 ], [ -76.879445913576333, 38.955561522477069 ], [ -76.87061618401593, 38.948491476260038 ], [ -76.868773157322948, 38.941713236544558 ], [ -76.853897316902135, 38.918480287305663 ], [ -76.816565261108011, 38.888561550641604 ], [ -76.784022429950269, 38.890032100869973 ] ] } },
{ "type": "Feature", "properties": { "type": "line", "line_id": 9, "kde_values": [ 0.4548861892824605, 1.293464871710018, 2.1651122313423725, 1.396253157393984, 1.280293519360156, 1.0054840933788498, 1.3838750910805548, 1.3451329390986797, 1.6612662248262344, 2.580902470869757, 4.224159321148807, 5.952836842828388, 6.735780432443725, 7.477079034131854, 8.742492065376661, 11.20438696200132, 15.371619733231359 ], "segment_lengths": [ 11050.758742264034, 5147.754166226664, 7119.111891378897, 2977.7034436285608, 7592.297981121715, 2649.1172589201515, 3153.271867516433, 5044.551712125759, 3628.2941786687834, 3173.9872587867508, 3013.0945945248613, 1727.6943266403123, 1814.7551694211127, 1514.740708856535, 1696.9496913478054, 1906.2603443584767 ], "group": 3, "name_list": [ "Damascus", "Clarksburg", "Germantown", "Gaithersburg 2", "North Potomac", "Travilah 4", "Potomac 4", "Potomac", "Cabin John", "Bethesda", "Somerset", "Tenleytown", "McLean Gardens", "Mass. Ave. Heights", "Burleith/Hillandale", "Georgetown", "George Washington University" ], "is_station": [ true, true, true, true, true, true, true, true, true, true, true, true, true, true, true, true, true ], "route_kind": "generated", "service_status": "planned", "occupancy_pct": null, "delay_min": null, "accessibility_score": null, "is_accessible": null, "row_type": null, "construction_cost_musd": null, "ridership_estimate": null }, "geometry": { "type": "LineString", "coordinates": [ [ -77.209975879330656, 39.27341762326445 ], [ -77.252288799703862, 39.2038648777689 ], [ -77.265652904556447, 39.169551696025415 ], [ -77.240295837816518, 39.124020116864649 ], [ -77.228752175411785, 39.105297934338367 ], [ -77.201600433420069, 39.056731385992094 ], [ -77.195904053459245, 39.038787090076298 ], [ -77.17420280455417, 39.024645185787946 ], [ -77.148293572381192, 38.9957561395669 ], [ -77.126819081481273, 38.976697549601752 ], [ -77.104627054374731, 38.962779351326311 ], [ -77.083263919393858, 38.949854761478811 ], [ -77.073874657588291, 38.940243450163024 ], [ -77.073903353155615, 38.927562436221237 ], [ -77.070345391893781, 38.917344418754119 ], [ -77.061667990030514, 38.907592258919429 ], [ -77.04652738640722, 38.901366642923961 ] ] } },
{ "type": "Feature", "properties": { "type": "line", "line_id": 10, "kde_values": [ 1.8957507413100498, 2.091612466854679, 2.077862828407583, 1.640134340526434, 1.4098202709067673, 1.4887910006930438, 0.8385503587636668, 1.0294736954240693, 1.1169074231111094, 1.9537369093961174, 1.749461193960711, 3.097053278441636, 2.919350598215551, 3.3300339993660373, 3.152277355237972 ], "segment_lengths": [ 2737.981066239128, 4704.870457254686, 4055.521447819531, 5635.398386650557, 3424.511308526866, 5090.6811593363445, 4689.858058097299, 3653.728388871038, 5252.027799622766, 2240.951415347146, 6450.047270530103, 6569.9596604663375, 1715.1064603269626, 2914.117800702806 ], "group": 6, "name_list": [ "Boulevard Manor 4", "Columbia Forest 2", "Fairlington 7", "Fairlington 4", "National Harbor 3", "National Harbor 2", "National Harbor", "Friendly 2", "Friendly", "Camp Springs 2", "Camp Springs", "Forestville", "Largo 2", "Lake Arbor", "Glenarden" ], "is_station": [ true, true, true, true, true, true, true, true, true, true, true, true, true, true, true ], "route_kind": "generated", "service_status": "planned", "occupancy_pct": null, "delay_min": null, "accessibility_score": null, "is_accessible": null, "row_type": null, "construction_cost_musd": null, "ridership_estimate": null }, "geometry": { "type": "LineString", "coordinates": [ [ -77.247206668810264, 38.774577815637208 ], [ -77.222807439506795, 38.776996618354751 ], [ -77.18092144499623, 38.772596297285006 ], [ -77.144751793799287, 38.775994665416285 ], [ -77.095967989720663, 38.765450704914443 ], [ -77.065396993213653, 38.768125739943599 ], [ -77.019932897836298, 38.764283554867603 ], [ -76.978629744696178, 38.757808126984976 ], [ -76.95140484298561, 38.772102531379076 ], [ -76.917117392874104, 38.797365000319523 ], [ -76.900767950208703, 38.806518081061249 ], [ -76.879557556741986, 38.84852375144046 ], [ -76.849849428034361, 38.888229253761921 ], [ -76.844488215000069, 38.89947132921116 ], [ -76.853897316902135, 38.918480287305663 ] ] } },
{ "type": "Feature", "properties": { "type": "line", "line_id": 11, "kde_values": [ 1.3207816212270356, 2.0513203758152145, 2.059827525972731, 2.1350375453243458, 2.2226330944087955, 2.8499448752711163, 3.025699064249497, 3.1545173013128696, 3.1965769397725143, 3.9133225071767845, 4.534453449211242, 5.111677161303123, 6.930898439360513, 7.3621284081690925, 7.686902930176243, 7.971561427577358, 9.838746835190674, 13.241097260815266, 17.10453512616529, 18.955045561726173, 19.235916837627208, 16.862069739700345, 14.260715702433188, 13.493711249387252, 12.129366864611587, 9.76305521660921, 10.049898859023205, 8.27568448072222, 4.90203371440721, 3.546160666590758, 2.289670153595422, 1.9537369093961174 ], "segment_lengths": [ 3327.5613679970734, 2916.280229245897, 4573.157189215133, 4373.008244485353, 2600.702227597783, 4203.915843829803, 1978.9195988646238, 3518.1384474618562, 3209.2662397803806, 1986.352817120095, 1924.3948355360722, 3271.749402399309, 1078.7478482631263, 945.8266000890394, 963.867712440538, 1728.2396558603712, 1826.5962759047036, 1676.449164592865, 1250.7932879184757, 1497.0355351313121, 1316.076466248356, 1200.2820924328603, 922.1526208708041, 761.586046309447, 2919.760885970901, 2358.624697605451, 1973.3190886594398, 2762.923890856742, 1516.6723722517033, 3190.6221785096077, 1671.5499299773364 ], "group": 7, "name_list": [ "Montgomery Village", "Flower Hill", "Washington Grove", "Gaithersburg", "Rockville", "Rockville 3", "North Bethesda 4", "North Bethesda 3", "Garrett Park", "North Chevy Chase", "Chevy Chase", "Hawthorne", "Shepherd Park", "", "Brightwood", "16th Street Heights", "Crestwood", "Mount Pleasant", "Cardozo/Shaw", "", "Downtown", "Penn Quarter", "", "Southwest/Waterfront", "", "Barry Farm", "Douglass", "Hillcrest Heights", "Temple Hills 2", "Temple Hills", "Camp Springs 3", "Camp Springs 2" ], "is_station": [ true, true, true, true, true, true, true, true, true, true, true, true, true, false, true, true, true, true, true, false, true, true, false, true, false, true, true, true, true, true, true, true ], "route_kind": "generated", "service_status": "planned", "occupancy_pct": null, "delay_min": null, "accessibility_score": null, "is_accessible": null, "row_type": null, "construction_cost_musd": null, "ridership_estimate": null }, "geometry": { "type": "LineString", "coordinates": [ [ -77.181026226659313, 39.181626491311036 ], [ -77.196320759424509, 39.16171568980014 ], [ -77.192601155346026, 39.141606020715983 ], [ -77.190617051577149, 39.109773783105979 ], [ -77.178217097736066, 39.080844717526965 ], [ -77.158234199044387, 39.071448800159764 ], [ -77.12276497302679, 39.061382744401747 ], [ -77.114085015043216, 39.049335700335448 ], [ -77.103818811503558, 39.026119144082266 ], [ -77.087924100380448, 39.007431828962218 ], [ -77.076403032254177, 38.996842896786468 ], [ -77.062505609118631, 38.988851962976675 ], [ -77.039389772585963, 38.974742184200565 ], [ -77.03494784245261, 38.968046264671955 ], [ -77.033218510414784, 38.96157824235015 ], [ -77.03462059394171, 38.954934160548476 ], [ -77.034166042521392, 38.942865404978626 ], [ -77.035868643572243, 38.930170994884932 ], [ -77.030795743449133, 38.919139591340617 ], [ -77.025997316601988, 38.911234381857909 ], [ -77.026309803478796, 38.900772201454068 ], [ -77.026398246032343, 38.891571170801967 ], [ -77.022133457094952, 38.88386287483948 ], [ -77.015177104095201, 38.880361531651111 ], [ -77.011062907152422, 38.876106238334806 ], [ -76.994970918548503, 38.85997994921393 ], [ -76.981594531099745, 38.847183783074556 ], [ -76.974080987532432, 38.834678291105945 ], [ -76.96477428233014, 38.81675311185186 ], [ -76.958941165670367, 38.80715899400041 ], [ -76.931391021990564, 38.800998580765743 ], [ -76.917117392874104, 38.797365000319523 ] ] } },
{ "type": "Feature", "properties": { "type": "line", "line_id": 12, "kde_values": [ 0.7174452494813939, 1.640134340526434, 4.038604556704577, 5.280225195288467, 5.626407248539041, 5.9911736861014, 6.809920671859172, 6.4358809398804855, 5.94000698922727, 5.912291600722759, 11.20438696200132, 15.112190430584855, 14.992186166746906, 13.241097260815266, 11.065178437013678, 9.275380335418483, 8.373461167353142, 7.132445345015008, 4.994160445596675, 4.266512295393787, 3.2423825714406247, 3.630223331711965, 2.1754072785057845, 0.8582967879632498 ], "segment_lengths": [ 6577.390075218368, 6058.449932781645, 2668.9761776693863, 783.83375617229, 2175.997104410121, 2268.2717686075744, 1559.1523450633651, 1522.1639412975521, 1912.9050780739108, 2877.56697953686, 1785.6821908366414, 1275.562205023443, 1322.2914181873646, 1899.2990005756337, 2167.387582066671, 3421.011183288873, 3045.080983535994, 2495.7759672540324, 1578.375039998672, 2375.4274755696088, 4580.143510725366, 4592.191974000341, 5658.117268376054 ], "group": 8, "name_list": [ "Fairlington 3", "Fairlington 4", "Fairlington 6", "Claremont", "Claremont 2", "Columbia Forest", "Alcova Heights", "Arlington Heights", "Lyon Park", "Colonial Village", "Georgetown", "Kalorama Heights", "", "Mount Pleasant", "Petworth", "Fort Totten", "Takoma", "Silver Spring", "Four Corners 2", "Four Corners", "Kemp Mill", "Glenmont 2", "Leisure World", "Olney" ], "is_station": [ true, true, true, true, true, true, true, true, true, true, true, true, false, true, true, true, true, true, true, true, true, true, true, true ], "route_kind": "generated", "service_status": "planned", "occupancy_pct": null, "delay_min": null, "accessibility_score": null, "is_accessible": null, "row_type": null, "construction_cost_musd": null, "ridership_estimate": null }, "geometry": { "type": "LineString", "coordinates": [ [ -77.176987889913107, 38.737380581229608 ], [ -77.144751793799287, 38.775994665416285 ], [ -77.132563923078123, 38.817334035623873 ], [ -77.118151743017663, 38.832261430284497 ], [ -77.116049663289857, 38.83749617618443 ], [ -77.116331330872484, 38.85271891221204 ], [ -77.102426390925913, 38.864317153976167 ], [ -77.09221120440742, 38.87177788553074 ], [ -77.088381184324831, 38.881996806853728 ], [ -77.08066185451716, 38.893946802113824 ], [ -77.061667990030514, 38.907592258919429 ], [ -77.04885273445214, 38.915099581154614 ], [ -77.042118964576446, 38.922312928934282 ], [ -77.035868643572243, 38.930170994884932 ], [ -77.024020007603795, 38.939720353488887 ], [ -77.013780435657097, 38.952599617974791 ], [ -77.018209570212761, 38.976244987024458 ], [ -77.007485957020293, 38.995805597606171 ], [ -77.004662114462775, 39.013089318346246 ], [ -77.013350895341461, 39.02179477919276 ], [ -77.023256060251668, 39.036477266122326 ], [ -77.049143991146238, 39.061312408333229 ], [ -77.063148176988932, 39.091435098531086 ], [ -77.04776837167492, 39.129025224723975 ] ] } },
{ "type": "Feature", "properties": { "type": "line", "line_id": 13, "kde_values": [ 1.67787210632099, 2.817705570648702, 2.581824473598383, 2.091612466854679, 2.077862828407583, 1.640134340526434, 1.4098202709067673, 1.4887910006930438, 0.8385503587636668, 1.0294736954240693, 1.1169074231111094, 1.9537369093961174, 1.749461193960711, 3.097053278441636, 2.919350598215551, 3.3300339993660373, 3.152277355237972 ], "segment_lengths": [ 3070.669064406706, 3330.342990168759, 3259.841743639051, 4704.870457254686, 4055.521447819531, 5635.398386650557, 3424.511308526866, 5090.6811593363445, 4689.858058097299, 3653.728388871038, 5252.027799622766, 2240.951415347146, 6450.047270530103, 6569.9596604663375, 1715.1064603269626, 2914.117800702806 ], "group": 6, "name_list": [ "Madison Manor 4", "Madison Manor 3", "Madison Manor 2", "Columbia Forest 2", "Fairlington 7", "Fairlington 4", "National Harbor 3", "National Harbor 2", "National Harbor", "Friendly 2", "Friendly", "Camp Springs 2", "Camp Springs", "Forestville", "Largo 2", "Lake Arbor", "Glenarden" ], "is_station": [ true, true, true, true, true, true, true, true, true, true, true, true, true, true, true, true, true ], "route_kind": "generated", "service_status": "planned", "occupancy_pct": null, "delay_min": null, "accessibility_score": null, "is_accessible": null, "row_type": null, "construction_cost_musd": null, "ridership_estimate": null }, "geometry": { "type": "LineString", "coordinates": [ [ -77.298912413618496, 38.800078474448611 ], [ -77.271501219252102, 38.802482970170395 ], [ -77.244650850913573, 38.792199948861132 ], [ -77.222807439506795, 38.776996618354751 ], [ -77.18092144499623, 38.772596297285006 ], [ -77.144751793799287, 38.775994665416285 ], [ -77.095967989720663, 38.765450704914443 ], [ -77.065396993213653, 38.768125739943599 ], [ -77.019932897836298, 38.764283554867603 ], [ -76.978629744696178, 38.757808126984976 ], [ -76.95140484298561, 38.772102531379076 ], [ -76.917117392874104, 38.797365000319523 ], [ -76.900767950208703, 38.806518081061249 ], [ -76.879557556741986, 38.84852375144046 ], [ -76.849849428034361, 38.888229253761921 ], [ -76.844488215000069, 38.89947132921116 ], [ -76.853897316902135, 38.918480287305663 ] ] } },
{ "type": "Feature", "properties": { "type": "line", "line_id": 14, "kde_values": [ 0.6821643301412337, 0.03509928217159561, 0.29550057660223866, 1.0222367387120739, 1.0911999555770215, 1.604451987264481, 1.930109111331029, 1.0324978321576421, 0.8797862834069378, 0.9795730694839352 ], "segment_lengths": [ 18237.581969178864, 13993.499342580566, 10098.1148325671, 3583.4197850599435, 2926.576389177393, 2696.5722186659605, 3528.7812825433366, 15787.798383440535, 3591.1051667289717 ], "group": 9, "name_list": [ "Fort Washington", "Rosaryville", "Marlboro Village", "Queen Anne", "Bowie 3", "Bowie 2", "Bowie", "Glenn Dale", "Laurel 2", "Laurel" ], "is_station": [ true, true, true, true, true, true, true, true, true, true ], "route_kind": "generated", "service_status": "planned", "occupancy_pct": null, "delay_min": null, "accessibility_score": null, "is_accessible": null, "row_type": null, "construction_cost_musd": null, "ridership_estimate": null }, "geometry": { "type": "LineString", "coordinates": [ [ -76.97391813312953, 38.706875558179341 ], [ -76.827292497323285, 38.763885602437476 ], [ -76.747881828519539, 38.839827604926448 ], [ -76.736285571197783, 38.909869877161896 ], [ -76.740241473444357, 38.934724143439169 ], [ -76.739106718961949, 38.955152054033263 ], [ -76.751026028739474, 38.971549268897796 ], [ -76.764628705093884, 38.993806491025417 ], [ -76.855443511848208, 39.078421434301909 ], [ -76.876297277581585, 39.097525405182239 ] ] } },
{ "type": "Feature", "properties": { "type": "line", "line_id": 15, "kde_values": [ 2.09655534017755, 2.4931070726729794, 3.097053278441636, 1.749461193960711, 1.9537369093961174, 1.1169074231111094, 1.0294736954240693, 0.8385503587636668, 1.4887910006930438, 1.4098202709067673, 1.640134340526434, 2.077862828407583, 2.091612466854679, 1.8957507413100498, 1.8722185795750044, 1.67787210632099, 2.3281855115529337, 2.7243903267573186, 2.0313069805292727, 1.8560806693442582, 1.9576836182110495, 0.3496222498457135 ], "segment_lengths": [ 1666.7450671591314, 7575.214378826504, 6450.047270530103, 2240.951415347146, 5252.027799622766, 3653.728388871038, 4689.858058097299, 5090.6811593363445, 3424.511308526866, 5635.398386650557, 4055.521447819531, 4704.870457254686, 2737.981066239128, 2405.7903904151763, 4421.169947131165, 5889.644937059877, 2964.180125783638, 2099.642529721781, 10510.967335672378, 6293.000152618806, 11220.938712918387 ], "group": 6, "name_list": [ "Largo", "Largo 3", "Forestville", "Camp Springs", "Camp Springs 2", "Friendly", "Friendly 2", "National Harbor", "National Harbor 2", "National Harbor 3", "Fairlington 4", "Fairlington 7", "Columbia Forest 2", "Boulevard Manor 4", "Madison Manor 5", "Madison Manor 4", "East Falls Church 7", "East Falls Church 6", "East Falls Church 5", "Travilah", "Travilah 3", "Poolesville 2" ], "is_station": [ true, true, true, true, true, true, true, true, true, true, true, true, true, true, true, true, true, true, true, true, true, true ], "route_kind": "generated", "service_status": "planned", "occupancy_pct": null, "delay_min": null, "accessibility_score": null, "is_accessible": null, "row_type": null, "construction_cost_musd": null, "ridership_estimate": null }, "geometry": { "type": "LineString", "coordinates": [ [ -76.816565261108011, 38.888561550641604 ], [ -76.831082335063783, 38.88570857544012 ], [ -76.879557556741986, 38.84852375144046 ], [ -76.900767950208703, 38.806518081061249 ], [ -76.917117392874104, 38.797365000319523 ], [ -76.95140484298561, 38.772102531379076 ], [ -76.978629744696178, 38.757808126984976 ], [ -77.019932897836298, 38.764283554867603 ], [ -77.065396993213653, 38.768125739943599 ], [ -77.095967989720663, 38.765450704914443 ], [ -77.144751793799287, 38.775994665416285 ], [ -77.18092144499623, 38.772596297285006 ], [ -77.222807439506795, 38.776996618354751 ], [ -77.247206668810264, 38.774577815637208 ], [ -77.266454885911728, 38.782238559642337 ], [ -77.298912413618496, 38.800078474448611 ], [ -77.307448948885266, 38.840759445071406 ], [ -77.298901366038393, 38.860399215755017 ], [ -77.303181895509113, 38.874701499928818 ], [ -77.358338317423616, 38.934339829416487 ], [ -77.396765557428822, 38.966584418349292 ], [ -77.4870111149135, 39.001488305308584 ] ] } },
{ "type": "Feature", "properties": { "type": "line", "line_id": 16, "kde_values": [ 1.2729055986204387, 1.4887910006930438, 2.4824239522564575, 5.20968311545836, 5.280225195288467, 3.847186202515998, 4.264297095717995, 4.472137226820778, 3.759109964608185, 2.5005582840946143, 1.2631382625392544, 2.580902470869757, 3.4501220875386256, 3.9133225071767845, 3.7899586255361286, 3.8999199681932017, 4.321341971522947, 4.62806756948579, 4.530075766108132, 2.3301232044262643, 1.3186987098090452 ], "segment_lengths": [ 3591.659080485858, 4566.282477333347, 4622.3038053975715, 1827.0301476183772, 3529.316893554143, 2439.00191507061, 3774.173442153795, 1105.0667816552254, 1465.4446199994438, 3979.615831385684, 5416.408774198599, 2700.619927397153, 3719.7352706753836, 2135.1476294717945, 1240.6210101834918, 1896.6918413547953, 1902.1957581835852, 755.1638594723569, 5600.914806883442, 11125.304534886722 ], "group": 3, "name_list": [ "Fort Washington 2", "National Harbor 2", "Fairlington 2", "Fairlington", "Claremont", "Glencarlyn", "Boulevard Manor 3", "High View Park", "", "Gulf Branch", "Chainbridge Forest", "Bethesda", "Bethesda 2", "North Chevy Chase", "South Kensington", "Kensington", "North Kensington 2", "North Kensington 3", "", "Aspen Hill", "Washington Grove 2" ], "is_station": [ true, true, true, true, true, true, true, true, false, true, true, true, true, true, true, true, true, true, false, true, true ], "route_kind": "generated", "service_status": "planned", "occupancy_pct": null, "delay_min": null, "accessibility_score": null, "is_accessible": null, "row_type": null, "construction_cost_musd": null, "ridership_estimate": null }, "geometry": { "type": "LineString", "coordinates": [ [ -77.066902173831878, 38.742992571570184 ], [ -77.065396993213653, 38.768125739943599 ], [ -77.087192534222382, 38.795214704709409 ], [ -77.105262409358829, 38.824346144359616 ], [ -77.118151743017663, 38.832261430284497 ], [ -77.137234108905574, 38.851981513171943 ], [ -77.140066880621831, 38.868899061523514 ], [ -77.129864079939637, 38.894068071014637 ], [ -77.126836191188701, 38.901425765006444 ], [ -77.12967373520614, 38.911429067747534 ], [ -77.132711331515111, 38.939140379908046 ], [ -77.126819081481273, 38.976697549601752 ], [ -77.116267347672974, 38.993678006728373 ], [ -77.087924100380448, 39.007431828962218 ], [ -77.073356698231564, 39.017126639027289 ], [ -77.073061987406376, 39.025782033667284 ], [ -77.075139009807174, 39.038918493971565 ], [ -77.076114465603666, 39.052167949693015 ], [ -77.077933437215066, 39.057242931772706 ], [ -77.112562137356207, 39.085581053921395 ], [ -77.157467252975835, 39.154849542303431 ] ] } },
{ "type": "Feature", "properties": { "type": "line", "line_id": 17, "kde_values": [ 2.7581222258638616, 4.018941234721131, 4.666212530810093, 5.939219568655159, 7.132445345015008, 7.81330621006274, 7.311606204194945, 5.166724425845082, 3.8999199681932017, 3.1965769397725143, 2.3082561931045817, 1.3451329390986797, 0.41401704511894516, 0.617606448399285, 0.48421957903409235 ], "segment_lengths": [ 1693.3500209855017, 880.5202097458275, 1478.9078205840653, 1680.7554883768275, 2010.7119131300308, 874.4752535364449, 2163.0930737942026, 4138.060653593772, 3424.174747012565, 4058.374069774732, 4078.4625507742103, 5631.588630626417, 18990.33197307945, 9814.15355805328 ], "group": 1, "name_list": [ "Hillandale", "Adelphi", "", "Langley Park 3", "Silver Spring", "Silver Spring 2", "", "Forest Glen", "Kensington", "Garrett Park", "North Bethesda", "Potomac", "Potomac 2", "Darnestown 2", "Poolesville" ], "is_station": [ true, true, false, true, true, true, false, true, true, true, true, true, true, true, true ], "route_kind": "generated", "service_status": "planned", "occupancy_pct": null, "delay_min": null, "accessibility_score": null, "is_accessible": null, "row_type": null, "construction_cost_musd": null, "ridership_estimate": null }, "geometry": { "type": "LineString", "coordinates": [ [ -76.970609827498009, 39.019873935480703 ], [ -76.980310844060767, 39.010770233248202 ], [ -76.982411703868607, 39.004844565698455 ], [ -76.992749562060453, 38.998360003984153 ], [ -77.007485957020293, 38.995805597606171 ], [ -77.02533063658808, 38.993631858135338 ], [ -77.032924896861871, 38.995193405937783 ], [ -77.044429289426816, 39.007363105433491 ], [ -77.073061987406376, 39.025782033667284 ], [ -77.103818811503558, 39.026119144082266 ], [ -77.139181638761031, 39.033005430309508 ], [ -77.17420280455417, 39.024645185787946 ], [ -77.22459055671365, 39.021139334681394 ], [ -77.395018800048959, 39.015314616706306 ], [ -77.469638473606381, 39.051785529680039 ] ] } },
{ "type": "Feature", "properties": { "type": "line", "line_id": 18, "kde_values": [ 0.8797862834069378, 1.2773620819943283, 3.395438830750608, 3.5911388930201085, 3.3592443149271296, 3.152277355237972, 4.03789165755348, 5.4585759984149655, 6.509151482048313, 6.482309404475501, 7.532593013587869, 9.345578365427986, 10.049898859023205, 9.935278031901237, 9.169081918579465, 6.811542743477958, 4.277206023192066, 5.771522654539275, 6.703382827765262, 5.9911736861014, 5.195055966744338, 4.264297095717995, 3.545928213178537, 2.6356265364301006, 2.31434323926948, 1.7029258463173198, 1.7207466556955535, 1.9113439453286796, 2.624413354628277 ], "segment_lengths": [ 8426.782420787424, 4479.408704475971, 3668.9740965373235, 2596.009531218764, 4633.14389268461, 4212.258948846338, 4079.9823304016845, 3104.6602990247125, 1317.4750341658032, 1881.1473692517895, 1965.846970300208, 2002.2553697472754, 1241.7337181653293, 1257.7673333186488, 1711.0981105814994, 4704.684385049435, 2466.7089142403643, 2426.7691513678965, 2239.8916874233078, 1631.5855909064157, 1880.1069784467932, 1419.5710129523195, 2265.0278699225314, 1048.2856299350337, 3090.05745158744, 4023.3464814401514, 3256.1688502977045, 3152.064507035002 ], "group": 10, "name_list": [ "Laurel 2", "Greenbelt 2", "Greenbelt", "New Carrollton 3", "Lanham", "Glenarden", "Peppermill Village", "Capitol Heights", "Coral Hills", "Fort Davis Park", "Fairfax Village", "Skyland", "Douglass", "", "Congress Heights", "Bellevue", "Long Branch Creek 2", "Long Branch Creek", "Douglas Park", "Columbia Forest", "Glencarlyn 2", "Boulevard Manor 3", "Madison Manor 8", "Madison Manor", "", "East Falls Church 9", "Madison Manor 7", "East Falls Church 8", "Madison Manor 6" ], "is_station": [ true, true, true, true, true, true, true, true, true, true, true, true, true, false, true, true, true, true, true, true, true, true, true, true, false, true, true, true, true ], "route_kind": "generated", "service_status": "planned", "occupancy_pct": null, "delay_min": null, "accessibility_score": null, "is_accessible": null, "row_type": null, "construction_cost_musd": null, "ridership_estimate": null }, "geometry": { "type": "LineString", "coordinates": [ [ -76.855443511848208, 39.078421434301909 ], [ -76.881163752157349, 39.023131764055435 ], [ -76.872488323965584, 38.99259884886056 ], [ -76.860630411243307, 38.968693557241771 ], [ -76.857279966361077, 38.950748054206649 ], [ -76.853897316902135, 38.918480287305663 ], [ -76.876198527990354, 38.89469225447354 ], [ -76.900025744988639, 38.873014027927098 ], [ -76.927859897583446, 38.871645057355622 ], [ -76.93852335865337, 38.867647716860716 ], [ -76.955024906747511, 38.864812158671342 ], [ -76.970526253662996, 38.858224898134573 ], [ -76.981594531099745, 38.847183783074556 ], [ -76.989967070056224, 38.841443072355645 ], [ -76.999136674107859, 38.836301107106465 ], [ -77.014404462353511, 38.83491554201899 ], [ -77.056378198695185, 38.83875989022507 ], [ -77.075017918574048, 38.848092418345182 ], [ -77.096787311829004, 38.848992330442371 ], [ -77.116331330872484, 38.85271891221204 ], [ -77.127383314746709, 38.860215480344671 ], [ -77.140066880621831, 38.868899061523514 ], [ -77.151335321969668, 38.873547090047161 ], [ -77.171434025437705, 38.876014671754348 ], [ -77.180840169539891, 38.87636512634041 ], [ -77.202537770117928, 38.862885502283397 ], [ -77.229229978863259, 38.843908912471427 ], [ -77.257878024346056, 38.839308177847215 ], [ -77.274893070634576, 38.821676941583775 ] ] } },
{ "type": "Feature", "properties": { "type": "line", "line_id": 19, "kde_values": [ 0.29550057660223866, 0.03509928217159561, 0.6821643301412337, 0.7703172535678783, 0.7174452494813939, 2.091612466854679, 2.581824473598383, 2.9705090891619395, 2.624413354628277, 2.338920856988039, 2.541490937028687 ], "segment_lengths": [ 13993.499342580566, 18237.581969178864, 12098.287662343944, 11253.579474294147, 7615.6838126511175, 3259.841743639051, 3457.6103985167624, 1933.6429591352942, 1988.5751327692979, 1834.719469471659 ], "group": 9, "name_list": [ "Marlboro Village", "Rosaryville", "Fort Washington", "Fort Washington 3", "Fairlington 3", "Columbia Forest 2", "Madison Manor 2", "Madison Manor 9", "Madison Manor 6", "East Falls Church 11", "East Falls Church 10" ], "is_station": [ true, true, true, true, true, true, true, true, true, true, true ], "route_kind": "generated", "service_status": "planned", "occupancy_pct": null, "delay_min": null, "accessibility_score": null, "is_accessible": null, "row_type": null, "construction_cost_musd": null, "ridership_estimate": null }, "geometry": { "type": "LineString", "coordinates": [ [ -76.747881828519539, 38.839827604926448 ], [ -76.827292497323285, 38.763885602437476 ], [ -76.97391813312953, 38.706875558179341 ], [ -77.082557255971849, 38.709223098455169 ], [ -77.176987889913107, 38.737380581229608 ], [ -77.222807439506795, 38.776996618354751 ], [ -77.244650850913573, 38.792199948861132 ], [ -77.264130041262803, 38.811054018531586 ], [ -77.274893070634576, 38.821676941583775 ], [ -77.281912573832258, 38.834473870107487 ], [ -77.293094948765372, 38.84390467186617 ] ] } }
]
}
