{
"type": "FeatureCollection",
"name": "lines_naive",
"crs": { "type": "name", "properties": { "name": "urn:ogc:def:crs:OGC:1.3:CRS84" } },
"features": [
{ "type": "Feature", "properties": { "type": "line", "line_id": 0, "kde_values": [ 3.2219163466355836, 3.356463399073181, 2.7435999320365267, 3.7446285320720825, 4.05873099058771, 3.0097733054708895, 1.549958872502987, 1.6834426036341643, 1.5149261132501564, 1.3913792511031777, 2.6262238514738065, 3.6346494648359826, 3.7322267425833346, 2.480658065129777, 2.875199994288919, 3.646291072506738, 3.60692253745901, 1.8870927188088347 ], "segment_lengths": [ 1581.7545412860684, 3206.42118353196, 3948.205777564963, 1629.7976020153355, 5110.805370120871, 6881.865410160944, 8143.112367143992, 6872.429933718534, 9509.77997800813, 9421.086597047091, 3078.7882959955864, 2759.9114825751817, 3718.1029750015105, 8092.831086796334, 1810.34057929778, 2814.0715378466853, 7625.62220142603 ], "group": 0, "name_list": [ "Largo", "Lake Arbor", "Glenarden", "Springdale", "New Carrollton", "Greenbelt", "Beltsville", "Fairland", "Cloverly", "Olney", "Redland", "Washington Grove 2", "Washington Grove", "Gaithersburg", "Germantown 3", "Germantown 2", "Germantown", "Clarksburg" ], "is_station": [ true, true, true, true, true, true, true, true, true, true, true, true, true, true, true, true, true, true ], "route_kind": "generated", "service_status": "planned", "occupancy_pct": null, "delay_min": null, "accessibility_score": null, "is_accessible": null, "row_type": null, "construction_cost_musd": null, "ridership_estimate": null }, "geometry": { "type": "LineString", "coordinates": [ [ -76.823, 38.895 ], [ -76.834, 38.902 ], [ -76.847, 38.922 ], [ -76.862, 38.947 ], [ -76.869, 38.957 ], [ -76.878, 38.992 ], [ -76.908, 39.034 ], [ -76.945, 39.083 ], [ -76.996, 39.11 ], [ -77.061, 39.153 ], [ -77.145, 39.145 ], [ -77.167, 39.132 ], [ -77.184, 39.118 ], [ -77.217, 39.114 ], [ -77.275, 39.148 ], [ -77.28, 39.16 ], [ -77.27, 39.178 ], [ -77.251, 39.229 ] ] } },
{ "type": "Feature", "properties": { "type": "line", "line_id": 1, "kde_values": [ 4.391898484406646, 4.394805684100802, 3.92728624679579, 3.7322267425833346, 3.475528317706187, 3.529420300866793, 2.589398557864302, 2.6772378532608245, 2.456201447743356, 2.024691776463726, 1.9191765229996078, 2.7394787248534636, 8.641881165050432, 16.0230796011203, 24.415801218046063, 26.700826856967964, 26.42784433984751, 25.7699041865282, 22.896330968109545, 7.438557937345261, 4.989827171692972, 6.141062197892786, 5.03663959473124, 3.2957149837496744, 2.9208860975969193, 1.8001408762940387 ], "segment_lengths": [ 484.8162438358023, 2579.6210991511402, 3520.4275291534514, 3614.968967114714, 2386.9602023984708, 2926.1202701004872, 4845.23478073605, 3738.6111473630535, 2875.527945262319, 7244.635268812706, 3724.9411182336776, 4450.055402305716, 2313.7945449653075, 2146.0001867720857, 1022.9533004901798, 483.428337440493, 306.9592390084749, 748.9775489935294, 5032.6319248571, 4350.080758562847, 3754.161055142529, 2985.8239718050336, 3610.4671196017293, 3707.624080844456, 6529.642083012081 ], "group": 1, "name_list": [ "Gaithersburg 4", "Gaithersburg 3", "Gaithersburg 2", "Washington Grove", "Derwood 2", "Derwood", "Aspen Hill 2", "Aspen Hill", "Glenmont", "Wheaton", "Silver Spring", "Brightwood", "Park View", "Howard University", "Mount Vernon Square", "Downtown", "", "", "Monumental Core", "Aurora Highlands", "Shirlington", "Fairlington 4", "Claremont", "Fairlington 3", "Fairlington 2", "Fairlington" ], "is_station": [ true, true, true, true, true, true, true, true, true, true, true, true, true, true, true, true, false, false, true, true, true, true, true, true, true, true ], "route_kind": "generated", "service_status": "planned", "occupancy_pct": null, "delay_min": null, "accessibility_score": null, "is_accessible": null, "row_type": null, "construction_cost_musd": null, "ridership_estimate": null }, "geometry": { "type": "LineString", "coordinates": [ [ -77.213, 39.157 ], [ -77.211, 39.154 ], [ -77.195, 39.141 ], [ -77.184, 39.118 ], [ -77.157, 39.104 ], [ -77.137, 39.098 ], [ -77.111, 39.095 ], [ -77.072, 39.08 ], [ -77.049, 39.061 ], [ -77.051, 39.041 ], [ -77.027, 38.994 ], [ -77.028, 38.968 ], [ -77.025, 38.937 ], [ -77.022, 38.921 ], [ -77.022, 38.906 ], [ -77.027, 38.9 ], [ -77.029, 38.897 ], [ -77.03, 38.895 ], [ -77.032, 38.89 ], [ -77.061, 38.863 ], [ -77.088, 38.841 ], [ -77.118, 38.829 ], [ -77.139, 38.816 ], [ -77.163, 38.799 ], [ -77.187, 38.781 ], [ -77.213, 38.74 ] ] } },
{ "type": "Feature", "properties": { "type": "line", "line_id": 2, "kde_values": [ 1.3878226462554066, 2.089288454604974, 3.7424318769082823, 4.105946148798602, 4.737458279158527, 5.774133895916095, 12.189280645767653, 18.46063660686255, 18.997142561415647, 7.438557937345261, 4.989827171692972, 6.141062197892786, 5.03663959473124, 3.2957149837496744, 2.9208860975969193, 1.8001408762940387 ], "segment_lengths": [ 13945.115109388158, 5011.417116774964, 4158.339242163873, 3367.0196116680263, 2815.847572588469, 2932.541616017679, 1581.5939698625511, 667.9169447589666, 5007.627102945947, 4350.080758562847, 3754.161055142529, 2985.8239718050336, 3610.4671196017293, 3707.624080844456, 6529.642083012081 ], "group": 2, "name_list": [ "Marlboro Meadows", "Largo 2", "Walker Mill", "Coral Hills", "Dupont Park", "Historic Anacostia", "Near Southeast", "Southwest Employment Area", "", "Aurora Highlands", "Shirlington", "Fairlington 4", "Claremont", "Fairlington 3", "Fairlington 2", "Fairlington" ], "is_station": [ true, true, true, true, true, true, true, true, false, true, true, true, true, true, true, true ], "route_kind": "generated", "service_status": "planned", "occupancy_pct": null, "delay_min": null, "accessibility_score": null, "is_accessible": null, "row_type": null, "construction_cost_musd": null, "ridership_estimate": null }, "geometry": { "type": "LineString", "coordinates": [ [ -76.728, 38.842 ], [ -76.848, 38.87 ], [ -76.893, 38.869 ], [ -76.93, 38.873 ], [ -76.96, 38.87 ], [ -76.985, 38.867 ], [ -77.008, 38.877 ], [ -77.019, 38.884 ], [ -77.025, 38.884 ], [ -77.061, 38.863 ], [ -77.088, 38.841 ], [ -77.118, 38.829 ], [ -77.139, 38.816 ], [ -77.163, 38.799 ], [ -77.187, 38.781 ], [ -77.213, 38.74 ] ] } },
{ "type": "Feature", "properties": { "type": "line", "line_id": 3, "kde_values": [ 2.0659721355640572, 2.7435999320365267, 4.045974732520667, 3.96520115783015, 4.241786399807209, 5.480047369732869, 2.2993537596187226, 1.9191765229996078, 2.1110698250901416, 2.2855259634358367, 2.8805761092087856, 2.480658065129777, 2.875199994288919, 3.646291072506738, 3.60692253745901 ], "segment_lengths": [ 6423.2063537793665, 4207.348012559578, 3427.2412531261384, 4018.961995756001, 2654.276704631067, 4570.756071993383, 4290.328579006527, 7898.280714271559, 6327.085523084107, 12491.397622197675, 2814.3329151248067, 8092.831086796334, 1810.34057929778, 2814.0715378466853 ], "group": 3, "name_list": [ "Kettering", "Glenarden", "Landover", "Woodlawn", "Edmonston", "Hyattsville", "Langley Park", "Silver Spring", "North Chevy Chase", "North Bethesda", "North Potomac", "Gaithersburg", "Germantown 3", "Germantown 2", "Germantown" ], "is_station": [ true, true, true, true, true, true, true, true, true, true, true, true, true, true, true ], "route_kind": "generated", "service_status": "planned", "occupancy_pct": null, "delay_min": null, "accessibility_score": null, "is_accessible": null, "row_type": null, "construction_cost_musd": null, "ridership_estimate": null }, "geometry": { "type": "LineString", "coordinates": [ [ -76.796, 38.901 ], [ -76.847, 38.922 ], [ -76.884, 38.928 ], [ -76.908, 38.943 ], [ -76.94, 38.956 ], [ -76.957, 38.969 ], [ -76.989, 38.989 ], [ -77.027, 38.994 ], [ -77.097, 39.003 ], [ -77.147, 39.024 ], [ -77.197, 39.102 ], [ -77.217, 39.114 ], [ -77.275, 39.148 ], [ -77.28, 39.16 ], [ -77.27, 39.178 ] ] } },
{ "type": "Feature", "properties": { "type": "line", "line_id": 4, "kde_values": [ 2.089288454604974, 3.00849610555648, 3.393270814560499, 4.045974732520667, 3.7446285320720825, 3.430097725349692, 3.5015724149924723, 1.549958872502987, 1.7073545195298334, 1.6723968203310895, 2.456201447743356, 2.6772378532608245, 2.589398557864302, 3.529420300866793, 3.475528317706187, 3.7322267425833346, 3.92728624679579, 4.394805684100802, 4.391898484406646, 4.047896041993979, 3.60692253745901 ], "segment_lengths": [ 3810.473984190332, 3915.5296055269637, 1863.4045850728753, 3659.469654093607, 3903.5870133628946, 2917.682158530242, 8584.470467847186, 5251.602131658515, 4158.530628491198, 7166.292340041691, 3738.6111473630535, 4845.23478073605, 2926.1202701004872, 2386.9602023984708, 3614.968967114714, 3520.4275291534514, 2579.6210991511402, 484.8162438358023, 5813.222107864762, 1342.9310829039628 ], "group": 4, "name_list": [ "Largo 2", "Peppermill Village", "Landover 2", "Landover", "Springdale", "Seabrook 2", "Seabrook", "Beltsville", "Calverton", "White Oak", "Glenmont", "Aspen Hill", "Aspen Hill 2", "Derwood", "Derwood 2", "Washington Grove", "Gaithersburg 2", "Gaithersburg 3", "Gaithersburg 4", "Germantown 4", "Germantown" ], "is_station": [ true, true, true, true, true, true, true, true, true, true, true, true, true, true, true, true, true, true, true, true, true ], "route_kind": "generated", "service_status": "planned", "occupancy_pct": null, "delay_min": null, "accessibility_score": null, "is_accessible": null, "row_type": null, "construction_cost_musd": null, "ridership_estimate": null }, "geometry": { "type": "LineString", "coordinates": [ [ -76.848, 38.87 ], [ -76.872, 38.889 ], [ -76.883, 38.915 ], [ -76.884, 38.928 ], [ -76.862, 38.947 ], [ -76.848, 38.972 ], [ -76.853, 38.992 ], [ -76.908, 39.034 ], [ -76.953, 39.045 ], [ -76.99, 39.041 ], [ -77.049, 39.061 ], [ -77.072, 39.08 ], [ -77.111, 39.095 ], [ -77.137, 39.098 ], [ -77.157, 39.104 ], [ -77.184, 39.118 ], [ -77.195, 39.141 ], [ -77.211, 39.154 ], [ -77.213, 39.157 ], [ -77.262, 39.171 ], [ -77.27, 39.178 ] ] } },
{ "type": "Feature", "properties": { "type": "line", "line_id": 5, "kde_values": [ 2.1584353676152874, 2.7260387608051606, 2.185825862110667, 1.689333212786909, 2.2146730593095674, 3.362402522843402, 1.7914955655424742, 3.1523233428354276, 3.419489075371627, 4.324006689985729, 4.849850160328561, 20.20624464169552, 22.621473069998103, 24.727596547147932, 26.739933397007352, 26.700826856967964, 25.77417842495785, 23.875785579036915, 15.474197748923906, 5.774133895916095, 4.051278142700593, 4.071435314934124, 3.625412817871971, 3.500192273554207, 3.7706871668708852, 1.896980933861579 ], "segment_lengths": [ 3876.7873892341668, 11489.85703657667, 5998.433091046299, 6581.836398231972, 4563.839435641563, 6358.420948629646, 5064.269885073151, 5706.025605367363, 4281.669523254985, 3379.921543026871, 3996.285916084553, 529.2619765747169, 625.8203514525161, 830.0962649134941, 889.5840733356403, 543.749117325353, 625.8056176995055, 1933.3816192787435, 3624.311016146974, 3034.8346370543995, 2989.82514947428, 1870.587728918334, 3795.6374206851556, 2190.937339721095, 4060.388053357815 ], "group": 5, "name_list": [ "Poolesville 2", "Poolesville", "East Falls Church 6", "East Falls Church 5", "East Falls Church 4", "East Falls Church 3", "East Falls Church 2", "East Falls Church", "Boulevard Manor", "Virginia Square", "Colonial Village", "George Washington University", "", "", "Downtown 2", "Downtown", "", "", "Capitol Hill", "Historic Anacostia", "Douglass", "Hillcrest Heights", "Marlow Heights", "Morningside 2", "Morningside", "Melwood" ], "is_station": [ true, true, true, true, true, true, true, true, true, true, true, true, false, false, true, true, false, false, true, true, true, true, true, true, true, true ], "route_kind": "generated", "service_status": "planned", "occupancy_pct": null, "delay_min": null, "accessibility_score": null, "is_accessible": null, "row_type": null, "construction_cost_musd": null, "ridership_estimate": null }, "geometry": { "type": "LineString", "coordinates": [ [ -77.55, 38.94 ], [ -77.521, 38.925 ], [ -77.447, 38.869 ], [ -77.395, 38.858 ], [ -77.336, 38.855 ], [ -77.296, 38.862 ], [ -77.241, 38.874 ], [ -77.197, 38.865 ], [ -77.146, 38.869 ], [ -77.112, 38.883 ], [ -77.083, 38.89 ], [ -77.05, 38.901 ], [ -77.046, 38.903 ], [ -77.041, 38.905 ], [ -77.034, 38.903 ], [ -77.027, 38.9 ], [ -77.024, 38.897 ], [ -77.019, 38.895 ], [ -77.005, 38.887 ], [ -76.985, 38.867 ], [ -76.981, 38.846 ], [ -76.959, 38.834 ], [ -76.943, 38.83 ], [ -76.909, 38.828 ], [ -76.89, 38.824 ], [ -76.855, 38.816 ] ] } },
{ "type": "Feature", "properties": { "type": "line", "line_id": 6, "kde_values": [ 2.089288454604974, 3.00849610555648, 3.393270814560499, 4.045974732520667, 3.7446285320720825, 3.430097725349692, 3.5015724149924723, 1.549958872502987, 1.7073545195298334, 1.6723968203310895, 2.456201447743356, 2.6772378532608245, 2.589398557864302, 3.529420300866793, 3.475528317706187, 3.7322267425833346, 3.92728624679579, 4.394805684100802, 4.391898484406646, 2.7007868449246177, 1.8870927188088347 ], "segment_lengths": [ 3810.473984190332, 3915.5296055269637, 1863.4045850728753, 3659.469654093607, 3903.5870133628946, 2917.682158530242, 8584.470467847186, 5251.602131658515, 4158.530628491198, 7166.292340041691, 3738.6111473630535, 4845.23478073605, 2926.1202701004872, 2386.9602023984708, 3614.968967114714, 3520.4275291534514, 2579.6210991511402, 484.8162438358023, 4656.422715906283, 6764.987250707536 ], "group": 4, "name_list": [ "Largo 2", "Peppermill Village", "Landover 2", "Landover", "Springdale", "Seabrook 2", "Seabrook", "Beltsville", "Calverton", "White Oak", "Glenmont", "Aspen Hill", "Aspen Hill 2", "Derwood", "Derwood 2", "Washington Grove", "Gaithersburg 2", "Gaithersburg 3", "Gaithersburg 4", "Germantown 5", "Clarksburg" ], "is_station": [ true, true, true, true, true, true, true, true, true, true, true, true, true, true, true, true, true, true, true, true, true ], "route_kind": "generated", "service_status": "planned", "occupancy_pct": null, "delay_min": null, "accessibility_score": null, "is_accessible": null, "row_type": null, "construction_cost_musd": null, "ridership_estimate": null }, "geometry": { "type": "LineString", "coordinates": [ [ -76.848, 38.87 ], [ -76.872, 38.889 ], [ -76.883, 38.915 ], [ -76.884, 38.928 ], [ -76.862, 38.947 ], [ -76.848, 38.972 ], [ -76.853, 38.992 ], [ -76.908, 39.034 ], [ -76.953, 39.045 ], [ -76.99, 39.041 ], [ -77.049, 39.061 ], [ -77.072, 39.08 ], [ -77.111, 39.095 ], [ -77.137, 39.098 ], [ -77.157, 39.104 ], [ -77.184, 39.118 ], [ -77.195, 39.141 ], [ -77.211, 39.154 ], [ -77.213, 39.157 ], [ -77.238, 39.183 ], [ -77.251, 39.229 ] ] } },
{ "type": "Feature", "properties": { "type": "line", "line_id": 7, "kde_values": [ 1.3878226462554066, 2.089288454604974, 3.7424318769082823, 4.105946148798602, 4.737458279158527, 5.774133895916095, 12.189280645767653, 18.46063660686255, 18.997142561415647, 7.438557937345261, 4.989827171692972, 6.141062197892786, 5.03663959473124, 3.2957149837496744, 2.9208860975969193, 1.8001408762940387 ], "segment_lengths": [ 13945.115109388158, 5011.417116774964, 4158.339242163873, 3367.0196116680263, 2815.847572588469, 2932.541616017679, 1581.5939698625511, 667.9169447589666, 5007.627102945947, 4350.080758562847, 3754.161055142529, 2985.8239718050336, 3610.4671196017293, 3707.624080844456, 6529.642083012081 ], "group": 2, "name_list": [ "Marlboro Meadows", "Largo 2", "Walker Mill", "Coral Hills", "Dupont Park", "Historic Anacostia", "Near Southeast", "Southwest Employment Area", "", "Aurora Highlands", "Shirlington", "Fairlington 4", "Claremont", "Fairlington 3", "Fairlington 2", "Fairlington" ], "is_station": [ true, true, true, true, true, true, true, true, false, true, true, true, true, true, true, true ], "route_kind": "generated", "service_status": "planned", "occupancy_pct": null, "delay_min": null, "accessibility_score": null, "is_accessible": null, "row_type": null, "construction_cost_musd": null, "ridership_estimate": null }, "geometry": { "type": "LineString", "coordinates": [ [ -76.728, 38.842 ], [ -76.848, 38.87 ], [ -76.893, 38.869 ], [ -76.93, 38.873 ], [ -76.96, 38.87 ], [ -76.985, 38.867 ], [ -77.008, 38.877 ], [ -77.019, 38.884 ], [ -77.025, 38.884 ], [ -77.061, 38.863 ], [ -77.088, 38.841 ], [ -77.118, 38.829 ], [ -77.139, 38.816 ], [ -77.163, 38.799 ], [ -77.187, 38.781 ], [ -77.213, 38.74 ] ] } },
{ "type": "Feature", "properties": { "type": "line", "line_id": 8, "kde_values": [ 3.0097733054708895, 4.05873099058771, 3.7446285320720825, 2.7435999320365267, 3.356463399073181, 2.089288454604974, 1.896980933861579, 2.169801672344161, 1.388548958697046, 1.6964473896224594, 2.3286057600893804, 1.8001408762940387 ], "segment_lengths": [ 5110.805370120871, 1629.7976020153355, 3948.205777564963, 3206.42118353196, 4834.451280113336, 7757.178428271592, 8120.359918749222, 12675.048960652355, 10558.627829000718, 6395.2147785297675, 8260.34491289797 ], "group": 6, "name_list": [ "Greenbelt", "New Carrollton", "Springdale", "Glenarden", "Lake Arbor", "Largo 2", "Melwood", "Clinton", "Fort Washington 2", "Fort Washington", "Fairlington 5", "Fairlington" ], "is_station": [ true, true, true, true, true, true, true, true, true, true, true, true ], "route_kind": "generated", "service_status": "planned", "occupancy_pct": null, "delay_min": null, "accessibility_score": null, "is_accessible": null, "row_type": null, "construction_cost_musd": null, "ridership_estimate": null }, "geometry": { "type": "LineString", "coordinates": [ [ -76.878, 38.992 ], [ -76.869, 38.957 ], [ -76.862, 38.947 ], [ -76.847, 38.922 ], [ -76.834, 38.902 ], [ -76.848, 38.87 ], [ -76.855, 38.816 ], [ -76.892, 38.767 ], [ -76.993, 38.726 ], [ -77.085, 38.744 ], [ -77.141, 38.754 ], [ -77.213, 38.74 ] ] } },
{ "type": "Feature", "properties": { "type": "line", "line_id": 9, "kde_values": [ 1.645696547553329, 3.5789957018996144, 3.8254026557548486, 3.362402522843402, 1.8555693723510414, 1.85966080661483, 1.9645681385356757, 4.379937404022738, 4.039277964265989, 1.9191765229996078, 2.2993537596187226, 6.340153817177483, 6.169995407895433, 3.260303270541543, 4.05873099058771, 3.7446285320720825, 2.7435999320365267, 3.356463399073181, 2.089288454604974, 1.896980933861579 ], "segment_lengths": [ 11633.544707162046, 879.1827310455477, 2416.2507448627707, 6140.856371429816, 4140.966971189537, 14112.29822140263, 3839.0863726152834, 1406.0804417227646, 6855.581350927872, 4290.328579006527, 4509.9892902267275, 1351.872125386375, 5295.875393769038, 3101.26923185978, 1629.7976020153355, 3948.205777564963, 3206.42118353196, 4834.451280113336, 7757.178428271592 ], "group": 7, "name_list": [ "East Falls Church 10", "East Falls Church 9", "", "East Falls Church 3", "East Falls Church 8", "East Falls Church 7", "Brookmont", "Friendship Heights", "Chevy Chase Village", "Silver Spring", "Langley Park", "University Park 2", "University Park", "New Carrollton 2", "New Carrollton", "Springdale", "Glenarden", "Lake Arbor", "Largo 2", "Melwood" ], "is_station": [ true, true, false, true, true, true, true, true, true, true, true, true, true, true, true, true, true, true, true, true ], "route_kind": "generated", "service_status": "planned", "occupancy_pct": null, "delay_min": null, "accessibility_score": null, "is_accessible": null, "row_type": null, "construction_cost_musd": null, "ridership_estimate": null }, "geometry": { "type": "LineString", "coordinates": [ [ -77.413, 38.834 ], [ -77.309, 38.842 ], [ -77.303, 38.846 ], [ -77.296, 38.862 ], [ -77.268, 38.899 ], [ -77.237, 38.915 ], [ -77.118, 38.949 ], [ -77.086, 38.959 ], [ -77.076, 38.965 ], [ -77.027, 38.994 ], [ -76.989, 38.989 ], [ -76.949, 38.984 ], [ -76.938, 38.98 ], [ -76.893, 38.968 ], [ -76.869, 38.957 ], [ -76.862, 38.947 ], [ -76.847, 38.922 ], [ -76.834, 38.902 ], [ -76.848, 38.87 ], [ -76.855, 38.816 ] ] } },
{ "type": "Feature", "properties": { "type": "line", "line_id": 10, "kde_values": [ 2.9404718725652876, 3.5937278539784465, 1.549958872502987, 5.933686093294463, 6.106330124171947, 6.340153817177483, 5.480047369732869, 5.0866371801597134, 5.329007565352588, 6.155148558666371, 8.641881165050432, 6.462919491251545, 4.350835825886746, 1.9645681385356757, 1.85966080661483, 1.8555693723510414, 2.3524552940673504, 2.2146730593095674, 1.689333212786909, 2.185825862110667, 2.1584353676152874 ], "segment_lengths": [ 1991.4777513130757, 8800.482616360678, 7420.080662994773, 467.74341412965975, 725.5565284833339, 2325.2094615789197, 2776.2514303902863, 1319.599559352878, 2658.480434416747, 2732.312835613056, 3787.567413179874, 2811.864795062472, 4343.819107623762, 14112.29822140263, 4140.966971189537, 4750.180750075927, 5125.515428570238, 6581.836398231972, 5998.433091046299, 15317.325775152214 ], "group": 8, "name_list": [ "Laurel 2", "Laurel", "Beltsville", "College Park 2", "College Park", "University Park 2", "Hyattsville", "Mount Rainier", "Michigan Park", "Pleasant Hill", "Park View", "Cleveland Park", "Tenleytown", "Brookmont", "East Falls Church 7", "East Falls Church 8", "East Falls Church 11", "East Falls Church 4", "East Falls Church 5", "East Falls Church 6", "Poolesville 2" ], "is_station": [ true, true, true, true, true, true, true, true, true, true, true, true, true, true, true, true, true, true, true, true, true ], "route_kind": "generated", "service_status": "planned", "occupancy_pct": null, "delay_min": null, "accessibility_score": null, "is_accessible": null, "row_type": null, "construction_cost_musd": null, "ridership_estimate": null }, "geometry": { "type": "LineString", "coordinates": [ [ -76.855, 39.097 ], [ -76.864, 39.085 ], [ -76.908, 39.034 ], [ -76.941, 38.989 ], [ -76.945, 38.988 ], [ -76.949, 38.984 ], [ -76.957, 38.969 ], [ -76.969, 38.952 ], [ -76.978, 38.946 ], [ -77.001, 38.941 ], [ -77.025, 38.937 ], [ -77.059, 38.936 ], [ -77.079, 38.948 ], [ -77.118, 38.949 ], [ -77.237, 38.915 ], [ -77.268, 38.899 ], [ -77.303, 38.88 ], [ -77.336, 38.855 ], [ -77.395, 38.858 ], [ -77.447, 38.869 ], [ -77.55, 38.94 ] ] } },
{ "type": "Feature", "properties": { "type": "line", "line_id": 11, "kde_values": [ 2.928258801758819, 2.9924091694338615, 1.3877824985286824, 2.875199994288919, 4.394805684100802, 3.035176170992581, 2.6262238514738065, 2.589398557864302, 3.2062872616559095, 3.1923393952986046, 2.1110698250901416, 2.8943452562574943, 4.379937404022738, 4.350835825886746, 6.462919491251545, 8.641881165050432, 6.155148558666371, 5.329007565352588, 5.0866371801597134, 5.480047369732869, 6.340153817177483, 6.106330124171947, 5.933686093294463, 2.623106752011255, 3.0097733054708895 ], "segment_lengths": [ 1516.2399086022788, 16181.825243745825, 15372.815347545742, 7176.320138032012, 5122.70842272597, 2649.030701378163, 8111.418981525717, 6059.3680106645015, 1294.8515277681022, 5959.66606452661, 3040.5326620080477, 3384.1165127880495, 1756.8840723962016, 2811.864795062472, 3787.567413179874, 2732.312835613056, 2658.480434416747, 1319.599559352878, 2776.2514303902863, 2325.2094615789197, 725.5565284833339, 467.74341412965975, 4046.807146342621, 3380.3780352090193 ], "group": 9, "name_list": [ "Poolesville 5", "Poolesville 4", "Poolesville 3", "Germantown 3", "Gaithersburg 3", "Washington Grove 3", "Redland", "Aspen Hill 2", "North Bethesda 3", "North Bethesda 2", "North Chevy Chase", "Chevy Chase", "Friendship Heights", "Tenleytown", "Cleveland Park", "Park View", "Pleasant Hill", "Michigan Park", "Mount Rainier", "Hyattsville", "University Park 2", "College Park", "College Park 2", "Berwyn Heights", "Greenbelt" ], "is_station": [ true, true, true, true, true, true, true, true, true, true, true, true, true, true, true, true, true, true, true, true, true, true, true, true, true ], "route_kind": "generated", "service_status": "planned", "occupancy_pct": null, "delay_min": null, "accessibility_score": null, "is_accessible": null, "row_type": null, "construction_cost_musd": null, "ridership_estimate": null }, "geometry": { "type": "LineString", "coordinates": [ [ -77.564, 39.106 ], [ -77.552, 39.111 ], [ -77.413, 39.144 ], [ -77.275, 39.148 ], [ -77.211, 39.154 ], [ -77.165, 39.155 ], [ -77.145, 39.145 ], [ -77.111, 39.095 ], [ -77.105, 39.053 ], [ -77.106, 39.044 ], [ -77.097, 39.003 ], [ -77.093, 38.982 ], [ -77.086, 38.959 ], [ -77.079, 38.948 ], [ -77.059, 38.936 ], [ -77.025, 38.937 ], [ -77.001, 38.941 ], [ -76.978, 38.946 ], [ -76.969, 38.952 ], [ -76.957, 38.969 ], [ -76.949, 38.984 ], [ -76.945, 38.988 ], [ -76.941, 38.989 ], [ -76.907, 38.999 ], [ -76.878, 38.992 ] ] } },
{ "type": "Feature", "properties": { "type": "line", "line_id": 12, "kde_values": [ 4.8639628139125, 6.141062197892786, 4.953060295735286, 4.324006689985729, 3.6429303880046335, 1.9645681385356757, 2.8943452562574943, 2.1110698250901416, 3.1923393952986046, 3.2062872616559095, 2.6772378532608245, 2.3685784527232148, 2.6262238514738065, 3.035176170992581, 4.394805684100802, 2.875199994288919, 1.3877824985286824, 2.9924091694338615 ], "segment_lengths": [ 2415.247107287429, 2717.680626253962, 5034.811888886727, 2537.3067708653043, 7493.570090797744, 5483.381164400273, 3040.5326620080477, 5959.66606452661, 1294.8515277681022, 5336.74009054035, 3315.6841250676957, 9851.002454239298, 2649.030701378163, 5122.70842272597, 7176.320138032012, 15372.815347545742, 16181.825243745825 ], "group": 9, "name_list": [ "Fairlington 6", "Fairlington 4", "Columbia Forest", "Virginia Square", "Glebewood", "Brookmont", "Chevy Chase", "North Chevy Chase", "North Bethesda 2", "North Bethesda 3", "Aspen Hill", "Leisure World", "Redland", "Washington Grove 3", "Gaithersburg 3", "Germantown 3", "Poolesville 3", "Poolesville 4" ], "is_station": [ true, true, true, true, true, true, true, true, true, true, true, true, true, true, true, true, true, true ], "route_kind": "generated", "service_status": "planned", "occupancy_pct": null, "delay_min": null, "accessibility_score": null, "is_accessible": null, "row_type": null, "construction_cost_musd": null, "ridership_estimate": null }, "geometry": { "type": "LineString", "coordinates": [ [ -77.111, 38.813 ], [ -77.118, 38.829 ], [ -77.117, 38.848 ], [ -77.112, 38.883 ], [ -77.126, 38.897 ], [ -77.118, 38.949 ], [ -77.093, 38.982 ], [ -77.097, 39.003 ], [ -77.106, 39.044 ], [ -77.105, 39.053 ], [ -77.072, 39.08 ], [ -77.075, 39.103 ], [ -77.145, 39.145 ], [ -77.165, 39.155 ], [ -77.211, 39.154 ], [ -77.275, 39.148 ], [ -77.413, 39.144 ], [ -77.552, 39.111 ] ] } },
{ "type": "Feature", "properties": { "type": "line", "line_id": 13, "kde_values": [ 3.9556264003797836, 4.394805684100802, 2.480658065129777, 1.429552049362001, 3.127687735980555, 3.7682014217317037, 3.5763292500135218, 2.998498684214626, 2.185825862110667, 1.645696547553329, 2.196894452283163, 2.251961236396148, 1.6756510267339488, 1.8001408762940387 ], "segment_lengths": [ 2669.2263361877745, 5779.270334324611, 18866.559486190967, 8011.26937249536, 4394.697805566519, 2901.84293556484, 10626.184535790777, 2894.4000372100845, 6273.345076187742, 15443.012622946833, 2645.346946615565, 4650.82253105737, 6344.836968622887 ], "group": 10, "name_list": [ "Montgomery Village", "Gaithersburg 3", "Gaithersburg", "Darnestown 4", "Darnestown 3", "Darnestown 2", "Darnestown", "East Falls Church 12", "East Falls Church 6", "East Falls Church 10", "Madison Manor 2", "Madison Manor", "Boulevard Manor 2", "Fairlington" ], "is_station": [ true, true, true, true, true, true, true, true, true, true, true, true, true, true ], "route_kind": "generated", "service_status": "planned", "occupancy_pct": null, "delay_min": null, "accessibility_score": null, "is_accessible": null, "row_type": null, "construction_cost_musd": null, "ridership_estimate": null }, "geometry": { "type": "LineString", "coordinates": [ [ -77.205, 39.172 ], [ -77.211, 39.154 ], [ -77.217, 39.114 ], [ -77.358, 39.041 ], [ -77.404, 38.998 ], [ -77.435, 38.979 ], [ -77.451, 38.963 ], [ -77.443, 38.889 ], [ -77.447, 38.869 ], [ -77.413, 38.834 ], [ -77.276, 38.817 ], [ -77.254, 38.81 ], [ -77.235, 38.781 ], [ -77.213, 38.74 ] ] } },
{ "type": "Feature", "properties": { "type": "line", "line_id": 14, "kde_values": [ 2.1584353676152874, 2.185825862110667, 1.689333212786909, 2.2146730593095674, 3.362402522843402, 1.7914955655424742, 3.4553563727095056, 2.990458804552009, 4.13813253474327, 4.324006689985729, 5.342399558365974, 7.438557937345261, 7.974861932259946, 4.141368924624597, 4.066045443486797, 3.5289161688988355, 3.570927681222972, 2.7009288547780566, 2.169801672344161 ], "segment_lengths": [ 15317.325775152214, 5998.433091046299, 6581.836398231972, 4563.839435641563, 6358.420948629646, 4795.273220529037, 2841.158230938403, 5209.512827782086, 2043.167309399771, 3635.577606151512, 2810.7870024859885, 1417.8767323522766, 4484.92441729553, 3381.412366708004, 2753.4708289895566, 3795.629869617515, 3065.5471166986413, 5481.4027475575995 ], "group": 11, "name_list": [ "Poolesville 2", "East Falls Church 6", "East Falls Church 5", "East Falls Church 4", "East Falls Church 3", "East Falls Church 2", "East Falls Church 14", "East Falls Church 13", "High View Park", "Virginia Square", "Penrose", "Aurora Highlands", "Aurora Highlands 2", "Bellevue 2", "Bellevue", "Glassmanor", "Temple Hills", "Camp Springs", "Clinton" ], "is_station": [ true, true, true, true, true, true, true, true, true, true, true, true, true, true, true, true, true, true, true ], "route_kind": "generated", "service_status": "planned", "occupancy_pct": null, "delay_min": null, "accessibility_score": null, "is_accessible": null, "row_type": null, "construction_cost_musd": null, "ridership_estimate": null }, "geometry": { "type": "LineString", "coordinates": [ [ -77.55, 38.94 ], [ -77.447, 38.869 ], [ -77.395, 38.858 ], [ -77.336, 38.855 ], [ -77.296, 38.862 ], [ -77.241, 38.874 ], [ -77.198, 38.876 ], [ -77.173, 38.88 ], [ -77.128, 38.89 ], [ -77.112, 38.883 ], [ -77.081, 38.875 ], [ -77.061, 38.863 ], [ -77.05, 38.858 ], [ -77.017, 38.84 ], [ -77.003, 38.819 ], [ -76.986, 38.805 ], [ -76.952, 38.803 ], [ -76.927, 38.794 ], [ -76.892, 38.767 ] ] } },
{ "type": "Feature", "properties": { "type": "line", "line_id": 15, "kde_values": [ 1.8870927188088347, 3.60692253745901, 3.646291072506738, 2.875199994288919, 2.480658065129777, 2.8805761092087856, 2.2855259634358367, 1.9645681385356757, 3.6429303880046335, 4.324006689985729, 4.953060295735286, 6.141062197892786, 4.8639628139125, 4.118516400393916, 3.138660361540695 ], "segment_lengths": [ 7625.62220142603, 2814.0715378466853, 1810.34057929778, 8092.831086796334, 2814.3329151248067, 12491.397622197675, 11215.705411230638, 7493.570090797744, 2537.3067708653043, 5034.811888886727, 2717.680626253962, 2415.247107287429, 5011.860525685333, 2830.5597286647585 ], "group": 12, "name_list": [ "Clarksburg", "Germantown", "Germantown 2", "Germantown 3", "Gaithersburg", "North Potomac", "North Bethesda", "Brookmont", "Glebewood", "Virginia Square", "Columbia Forest", "Fairlington 4", "Fairlington 6", "Fairlington 7", "National Harbor" ], "is_station": [ true, true, true, true, true, true, true, true, true, true, true, true, true, true, true ], "route_kind": "generated", "service_status": "planned", "occupancy_pct": null, "delay_min": null, "accessibility_score": null, "is_accessible": null, "row_type": null, "construction_cost_musd": null, "ridership_estimate": null }, "geometry": { "type": "LineString", "coordinates": [ [ -77.251, 39.229 ], [ -77.27, 39.178 ], [ -77.28, 39.16 ], [ -77.275, 39.148 ], [ -77.217, 39.114 ], [ -77.197, 39.102 ], [ -77.147, 39.024 ], [ -77.118, 38.949 ], [ -77.126, 38.897 ], [ -77.112, 38.883 ], [ -77.117, 38.848 ], [ -77.118, 38.829 ], [ -77.111, 38.813 ], [ -77.077, 38.79 ], [ -77.059, 38.776 ] ] } },
{ "type": "Feature", "properties": { "type": "line", "line_id": 16, "kde_values": [ 5.120240598457495, 5.03663959473124, 3.982913008213583, 3.419489075371627, 2.990458804552009, 2.1108215966164257, 1.85966080661483, 1.5869116306712496, 2.224640180697341, 3.7345619399048533, 3.7682014217317037, 2.1838171012100784, 2.9522633987686606, 1.9176902647442722 ], "segment_lengths": [ 905.57452682263, 5448.75741303212, 2469.415952652203, 3392.3012442781546, 4752.863280510114, 4018.464262861592, 11013.176960710363, 4644.813416837078, 5718.657486246862, 2797.684678236624, 7835.918583947117, 3084.4985553525303, 9551.477412080236 ], "group": 13, "name_list": [ "Fairlington 8", "Claremont", "Glencarlyn", "Boulevard Manor", "East Falls Church 13", "East Falls Church 15", "East Falls Church 7", "Potomac", "Travilah", "Darnestown 5", "Darnestown 2", "Poolesville 8", "Poolesville 7", "Poolesville 6" ], "is_station": [ true, true, true, true, true, true, true, true, true, true, true, true, true, true ], "route_kind": "generated", "service_status": "planned", "occupancy_pct": null, "delay_min": null, "accessibility_score": null, "is_accessible": null, "row_type": null, "construction_cost_musd": null, "ridership_estimate": null }, "geometry": { "type": "LineString", "coordinates": [ [ -77.134, 38.811 ], [ -77.139, 38.816 ], [ -77.135, 38.854 ], [ -77.146, 38.869 ], [ -77.173, 38.88 ], [ -77.205, 38.902 ], [ -77.237, 38.915 ], [ -77.331, 38.939 ], [ -77.368, 38.954 ], [ -77.41, 38.977 ], [ -77.435, 38.979 ], [ -77.493, 39.01 ], [ -77.51, 39.027 ], [ -77.562, 39.08 ] ] } },
{ "type": "Feature", "properties": { "type": "line", "line_id": 17, "kde_values": [ 1.9176902647442722, 2.9522633987686606, 2.1838171012100784, 3.7682014217317037, 3.7345619399048533, 2.224640180697341, 1.5869116306712496, 1.85966080661483, 2.1108215966164257, 2.990458804552009, 3.419489075371627, 3.982913008213583, 5.867594556986308 ], "segment_lengths": [ 9551.477412080236, 3084.4985553525303, 7835.918583947117, 2797.684678236624, 5718.657486246862, 4644.813416837078, 11013.176960710363, 4018.464262861592, 4752.863280510114, 3392.3012442781546, 2469.415952652203, 3436.531928471505 ], "group": 13, "name_list": [ "Poolesville 6", "Poolesville 7", "Poolesville 8", "Darnestown 2", "Darnestown 5", "Travilah", "Potomac", "East Falls Church 7", "East Falls Church 15", "East Falls Church 13", "Boulevard Manor", "Glencarlyn", "Claremont 2" ], "is_station": [ true, true, true, true, true, true, true, true, true, true, true, true, true ], "route_kind": "generated", "service_status": "planned", "occupancy_pct": null, "delay_min": null, "accessibility_score": null, "is_accessible": null, "row_type": null, "construction_cost_musd": null, "ridership_estimate": null }, "geometry": { "type": "LineString", "coordinates": [ [ -77.562, 39.08 ], [ -77.51, 39.027 ], [ -77.493, 39.01 ], [ -77.435, 38.979 ], [ -77.41, 38.977 ], [ -77.368, 38.954 ], [ -77.331, 38.939 ], [ -77.237, 38.915 ], [ -77.205, 38.902 ], [ -77.173, 38.88 ], [ -77.146, 38.869 ], [ -77.135, 38.854 ], [ -77.126, 38.831 ] ] } },
{ "type": "Feature", "properties": { "type": "line", "line_id": 18, "kde_values": [ 2.9404718725652876, 1.6448138566776545, 2.660347041904198, 2.807340327213974, 2.0659721355640572, 3.356463399073181, 3.00849610555648, 3.7424318769082823, 3.5865940358862467, 3.625412817871971, 4.166611216923205, 3.5289161688988355, 2.3376079767164466, 3.138660361540695, 3.342418353140627, 3.185170955287769, 2.853317316587126, 1.8001408762940387 ], "segment_lengths": [ 21508.37732362779, 5356.245420185157, 1330.6783267347946, 9831.240307458766, 4232.558455078957, 4620.761946130333, 3693.800740884041, 2355.502984488175, 5547.4030007776355, 3475.5295719266624, 2645.3204112079693, 3782.2835885377604, 5393.598961580628, 2686.8872120354335, 5790.374269687449, 4684.131351549996, 5970.1551827477115 ], "group": 14, "name_list": [ "Laurel 2", "Bowie 3", "Bowie 2", "Bowie", "Kettering", "Lake Arbor", "Peppermill Village", "Walker Mill", "District Heights", "Marlow Heights", "Temple Hills 2", "Glassmanor", "National Harbor 3", "National Harbor", "National Harbor 2", "Fairlington 10", "Fairlington 9", "Fairlington" ], "is_station": [ true, true, true, true, true, true, true, true, true, true, true, true, true, true, true, true, true, true ], "route_kind": "generated", "service_status": "planned", "occupancy_pct": null, "delay_min": null, "accessibility_score": null, "is_accessible": null, "row_type": null, "construction_cost_musd": null, "ridership_estimate": null }, "geometry": { "type": "LineString", "coordinates": [ [ -76.855, 39.097 ], [ -76.734, 38.98 ], [ -76.717, 38.945 ], [ -76.72, 38.936 ], [ -76.796, 38.901 ], [ -76.834, 38.902 ], [ -76.872, 38.889 ], [ -76.893, 38.869 ], [ -76.906, 38.856 ], [ -76.943, 38.83 ], [ -76.964, 38.812 ], [ -76.986, 38.805 ], [ -77.014, 38.79 ], [ -77.059, 38.776 ], [ -77.083, 38.774 ], [ -77.135, 38.773 ], [ -77.177, 38.771 ], [ -77.213, 38.74 ] ] } },
{ "type": "Feature", "properties": { "type": "line", "line_id": 19, "kde_values": [ 2.660347041904198, 2.807340327213974, 2.0659721355640572, 3.356463399073181, 3.00849610555648, 3.5295634253081825, 4.105946148798602, 4.762343976293978, 5.774133895916095, 15.474197748923906, 20.013682841188768, 24.415801218046063, 22.931599118638072, 16.02874152309296, 6.462919491251545, 4.350835825886746, 4.379937404022738, 2.8943452562574943, 2.1110698250901416, 3.1923393952986046, 3.2062872616559095, 2.589398557864302, 2.6262238514738065, 3.035176170992581, 3.9556264003797836, 2.7007868449246177, 3.60692253745901, 1.3877824985286824, 2.9924091694338615, 2.928258801758819 ], "segment_lengths": [ 1330.6783267347946, 9831.240307458766, 4232.558455078957, 4620.761946130333, 3120.2250601891346, 3969.113858960754, 4316.800395328846, 2440.970380106366, 3624.311016146974, 2078.302254863028, 1515.259017968271, 1977.148625288696, 1498.4264458330094, 2755.8650464244256, 2811.864795062472, 1756.8840723962016, 3384.1165127880495, 3040.5326620080477, 5959.66606452661, 1294.8515277681022, 6059.3680106645015, 8111.418981525717, 2649.030701378163, 5077.846742401926, 3998.767036823345, 3633.871582037487, 16650.286291284152, 16181.825243745825, 1516.2399086022788 ], "group": 9, "name_list": [ "Bowie 2", "Bowie", "Kettering", "Lake Arbor", "Peppermill Village", "Maryland Park", "Coral Hills", "Naylor Gardens", "Historic Anacostia", "Capitol Hill", "North Capitol Street", "Mount Vernon Square", "Dupont Circle", "Adams Morgan", "Cleveland Park", "Tenleytown", "Friendship Heights", "Chevy Chase", "North Chevy Chase", "North Bethesda 2", "North Bethesda 3", "Aspen Hill 2", "Redland", "Washington Grove 3", "Montgomery Village", "Germantown 5", "Germantown", "Poolesville 3", "Poolesville 4", "Poolesville 5" ], "is_station": [ true, true, true, true, true, true, true, true, true, true, true, true, true, true, true, true, true, true, true, true, true, true, true, true, true, true, true, true, true, true ], "route_kind": "generated", "service_status": "planned", "occupancy_pct": null, "delay_min": null, "accessibility_score": null, "is_accessible": null, "row_type": null, "construction_cost_musd": null, "ridership_estimate": null }, "geometry": { "type": "LineString", "coordinates": [ [ -76.717, 38.945 ], [ -76.72, 38.936 ], [ -76.796, 38.901 ], [ -76.834, 38.902 ], [ -76.872, 38.889 ], [ -76.9, 38.888 ], [ -76.93, 38.873 ], [ -76.965, 38.86 ], [ -76.985, 38.867 ], [ -77.005, 38.887 ], [ -77.01, 38.901 ], [ -77.022, 38.906 ], [ -77.038, 38.912 ], [ -77.042, 38.922 ], [ -77.059, 38.936 ], [ -77.079, 38.948 ], [ -77.086, 38.959 ], [ -77.093, 38.982 ], [ -77.097, 39.003 ], [ -77.106, 39.044 ], [ -77.105, 39.053 ], [ -77.111, 39.095 ], [ -77.145, 39.145 ], [ -77.165, 39.155 ], [ -77.205, 39.172 ], [ -77.238, 39.183 ], [ -77.27, 39.178 ], [ -77.413, 39.144 ], [ -77.552, 39.111 ], [ -77.564, 39.106 ] ] } }
]
}
