{
    "type": "FeatureCollection",
    "name": "lines_aco",
    "crs": {
        "type": "name",
        "properties": {
            "name": "urn:ogc:def:crs:OGC:1.3:CRS84"
        }
    },
    "features": [
        {
            "type": "Feature",
            "properties": {
                "type": "line",
                "line_id": 0,
                "kde_values": [
                    1.6349219132324264,
                    1.896980933861579,
                    3.2025898309422987,
                    3.7424318769082823,
                    3.5295634253081825,
                    3.393270814560499,
                    4.045974732520667,
                    4.2743936984066195,
                    3.96520115783015,
                    4.241786399807209,
                    5.480047369732869,
                    2.2993537596187226,
                    1.9191765229996078,
                    2.1110698250901416,
                    2.2855259634358367
                ],
                "segment_lengths": [
                    8013.658088400267,
                    5185.4457390347825,
                    3606.9484551085516,
                    2826.4650934984043,
                    4300.869621541572,
                    1863.4045850728753,
                    2861.725052373904,
                    779.236435553059,
                    4018.961995756001,
                    2654.276704631067,
                    4570.756071993383,
                    4290.328579006527,
                    7898.280714271559,
                    6327.085523084107
                ],
                "group": 0,
                "name_list": [
                    "Queensland",
                    "Melwood",
                    "Forestville",
                    "Walker Mill",
                    "Maryland Park",
                    "Landover 2",
                    "Landover",
                    "Landover Hills",
                    "Woodlawn",
                    "Edmonston",
                    "Hyattsville",
                    "Langley Park",
                    "Silver Spring",
                    "North Chevy Chase",
                    "North Bethesda"
                ],
                "is_station": [
                    true,
                    true,
                    true,
                    true,
                    true,
                    true,
                    true,
                    true,
                    true,
                    true,
                    true,
                    true,
                    true,
                    true,
                    true
                ],
                "route_kind": "generated",
                "service_status": "planned",
                "occupancy_pct": null,
                "delay_min": null,
                "accessibility_score": 100.0,
                "is_accessible": true,
                "row_type": null,
                "construction_cost_musd": null,
                "ridership_estimate": null
            },
            "geometry": {
                "type": "LineString",
                "coordinates": [
                    [
                        -76.795,
                        38.785
                    ],
                    [
                        -76.855,
                        38.816
                    ],
                    [
                        -76.883,
                        38.845
                    ],
                    [
                        -76.893,
                        38.869
                    ],
                    [
                        -76.9,
                        38.888
                    ],
                    [
                        -76.883,
                        38.915
                    ],
                    [
                        -76.884,
                        38.928
                    ],
                    [
                        -76.901,
                        38.943
                    ],
                    [
                        -76.908,
                        38.943
                    ],
                    [
                        -76.94,
                        38.956
                    ],
                    [
                        -76.957,
                        38.969
                    ],
                    [
                        -76.989,
                        38.989
                    ],
                    [
                        -77.027,
                        38.994
                    ],
                    [
                        -77.097,
                        39.003
                    ],
                    [
                        -77.147,
                        39.024
                    ]
                ]
            }
        },
        {
            "type": "Feature",
            "properties": {
                "type": "line",
                "line_id": 1,
                "kde_values": [
                    1.3877956555541506,
                    2.9404718725652876,
                    1.75192631035931,
                    3.5015724149924723,
                    3.430097725349692,
                    1.6699968864424177
                ],
                "segment_lengths": [
                    47552.67974241466,
                    4963.876234174135,
                    10593.270715146225,
                    2917.682158530242,
                    4784.172780156953
                ],
                "group": 1,
                "name_list": [
                    "Damascus",
                    "Laurel",
                    "South Laurel",
                    "Seabrook 2",
                    "Seabrook",
                    "Mitchellville"
                ],
                "is_station": [
                    true,
                    true,
                    true,
                    true,
                    true,
                    true
                ],
                "route_kind": "generated",
                "service_status": "planned",
                "occupancy_pct": null,
                "delay_min": null,
                "accessibility_score": 100.0,
                "is_accessible": true,
                "row_type": null,
                "construction_cost_musd": null,
                "ridership_estimate": null
            },
            "geometry": {
                "type": "LineString",
                "coordinates": [
                    [
                        -77.203,
                        39.289
                    ],
                    [
                        -76.855,
                        39.097
                    ],
                    [
                        -76.838,
                        39.065
                    ],
                    [
                        -76.853,
                        38.992
                    ],
                    [
                        -76.848,
                        38.972
                    ],
                    [
                        -76.811,
                        38.955
                    ]
                ]
            }
        },
        {
            "type": "Feature",
            "properties": {
                "type": "line",
                "line_id": 2,
                "kde_values": [
                    3.710999963715438,
                    2.224640180697341,
                    1.387841599802638,
                    2.2855259634358367,
                    2.7952379625359534,
                    2.1110698250901416,
                    2.8943452562574943,
                    4.379937404022738,
                    4.350835825886746,
                    6.462919491251545,
                    8.641881165050432,
                    6.155148558666371,
                    5.329007565352588,
                    5.0866371801597134,
                    5.480047369732869,
                    6.340153817177483,
                    6.106330124171947,
                    5.933686093294463,
                    2.623106752011255,
                    3.0097733054708895,
                    3.5015724149924723,
                    2.810915192968316,
                    1.6566531012280954
                ],
                "segment_lengths": [
                    3827.9325353979752,
                    10826.85143055054,
                    16165.644706844118,
                    2230.996175966012,
                    4592.115046894027,
                    3040.5326620080477,
                    3384.1165127880495,
                    1756.8840723962016,
                    2811.864795062472,
                    3787.567413179874,
                    2732.312835613056,
                    2658.480434416747,
                    1319.599559352878,
                    2776.2514303902863,
                    2325.2094615789197,
                    725.5565284833339,
                    467.74341412965975,
                    4046.807146342621,
                    3380.3780352090193,
                    2782.987269833684,
                    2115.070325070992,
                    7522.4555200527
                ],
                "group": 0,
                "name_list": [
                    "Travilah 3",
                    "Travilah 2",
                    "Travilah",
                    "North Bethesda",
                    "North Bethesda 2",
                    "North Chevy Chase",
                    "Chevy Chase",
                    "Friendship Heights",
                    "Tenleytown",
                    "Cleveland Park",
                    "Park View",
                    "Pleasant Hill",
                    "Michigan Park",
                    "Mount Rainier",
                    "Hyattsville",
                    "University Park",
                    "",
                    "",
                    "Berwyn Heights",
                    "Greenbelt",
                    "Seabrook 2",
                    "Seabrook 3",
                    "Fairwood"
                ],
                "is_station": [
                    true,
                    true,
                    true,
                    true,
                    true,
                    true,
                    true,
                    true,
                    true,
                    true,
                    true,
                    true,
                    true,
                    true,
                    true,
                    true,
                    false,
                    false,
                    true,
                    true,
                    true,
                    true,
                    true
                ],
                "route_kind": "generated",
                "service_status": "planned",
                "occupancy_pct": null,
                "delay_min": null,
                "accessibility_score": 100.0,
                "is_accessible": true,
                "row_type": null,
                "construction_cost_musd": null,
                "ridership_estimate": null
            },
            "geometry": {
                "type": "LineString",
                "coordinates": [
                    [
                        -77.402,
                        38.958
                    ],
                    [
                        -77.368,
                        38.954
                    ],
                    [
                        -77.288,
                        38.997
                    ],
                    [
                        -77.147,
                        39.024
                    ],
                    [
                        -77.127,
                        39.025
                    ],
                    [
                        -77.097,
                        39.003
                    ],
                    [
                        -77.093,
                        38.982
                    ],
                    [
                        -77.086,
                        38.959
                    ],
                    [
                        -77.079,
                        38.948
                    ],
                    [
                        -77.059,
                        38.936
                    ],
                    [
                        -77.025,
                        38.937
                    ],
                    [
                        -77.001,
                        38.941
                    ],
                    [
                        -76.978,
                        38.946
                    ],
                    [
                        -76.969,
                        38.952
                    ],
                    [
                        -76.957,
                        38.969
                    ],
                    [
                        -76.949,
                        38.984
                    ],
                    [
                        -76.945,
                        38.988
                    ],
                    [
                        -76.941,
                        38.989
                    ],
                    [
                        -76.907,
                        38.999
                    ],
                    [
                        -76.878,
                        38.992
                    ],
                    [
                        -76.853,
                        38.992
                    ],
                    [
                        -76.834,
                        38.992
                    ],
                    [
                        -76.771,
                        38.973
                    ]
                ]
            }
        },
        {
            "type": "Feature",
            "properties": {
                "type": "line",
                "line_id": 3,
                "kde_values": [
                    1.3878226462554066,
                    2.089288454604974,
                    3.00849610555648,
                    3.393270814560499,
                    4.045974732520667,
                    4.2743936984066195,
                    3.96520115783015,
                    3.155125594977449,
                    5.872602687355989,
                    6.155148558666371,
                    4.11835575436219,
                    2.2993537596187226,
                    1.6723968203310895,
                    1.6739257044651077,
                    2.33079082510616,
                    2.3685784527232148,
                    2.589398557864302,
                    3.529420300866793,
                    3.475528317706187,
                    3.7322267425833346,
                    3.92728624679579
                ],
                "segment_lengths": [
                    13945.115109388158,
                    3810.473984190332,
                    3915.5296055269637,
                    1863.4045850728753,
                    2861.725052373904,
                    779.236435553059,
                    4957.009646055298,
                    4455.0786823813605,
                    1596.8806477665933,
                    2578.9294793185663,
                    4532.878497326161,
                    7450.965722310904,
                    5254.06109888717,
                    5272.899888421141,
                    3532.5923238964515,
                    4168.562669076012,
                    2926.1202701004872,
                    2386.9602023984708,
                    3614.968967114714,
                    3520.4275291534514
                ],
                "group": 2,
                "name_list": [
                    "Marlboro Meadows",
                    "Largo",
                    "Peppermill Village",
                    "Landover 2",
                    "Landover",
                    "Landover Hills",
                    "Woodlawn",
                    "Cottage City",
                    "Brookland",
                    "Pleasant Hill",
                    "Queens Chapel",
                    "Langley Park",
                    "White Oak",
                    "Colesville",
                    "Layhill",
                    "Leisure World",
                    "Aspen Hill",
                    "Derwood 2",
                    "Derwood",
                    "Washington Grove",
                    "Gaithersburg"
                ],
                "is_station": [
                    true,
                    true,
                    true,
                    true,
                    true,
                    true,
                    true,
                    true,
                    true,
                    true,
                    true,
                    true,
                    true,
                    true,
                    true,
                    true,
                    true,
                    true,
                    true,
                    true,
                    true
                ],
                "route_kind": "generated",
                "service_status": "planned",
                "occupancy_pct": null,
                "delay_min": null,
                "accessibility_score": 100.0,
                "is_accessible": true,
                "row_type": null,
                "construction_cost_musd": null,
                "ridership_estimate": null
            },
            "geometry": {
                "type": "LineString",
                "coordinates": [
                    [
                        -76.728,
                        38.842
                    ],
                    [
                        -76.848,
                        38.87
                    ],
                    [
                        -76.872,
                        38.889
                    ],
                    [
                        -76.883,
                        38.915
                    ],
                    [
                        -76.884,
                        38.928
                    ],
                    [
                        -76.901,
                        38.943
                    ],
                    [
                        -76.908,
                        38.943
                    ],
                    [
                        -76.951,
                        38.934
                    ],
                    [
                        -76.991,
                        38.933
                    ],
                    [
                        -77.001,
                        38.941
                    ],
                    [
                        -77.002,
                        38.959
                    ],
                    [
                        -76.989,
                        38.989
                    ],
                    [
                        -76.99,
                        39.041
                    ],
                    [
                        -77.004,
                        39.076
                    ],
                    [
                        -77.046,
                        39.093
                    ],
                    [
                        -77.075,
                        39.103
                    ],
                    [
                        -77.111,
                        39.095
                    ],
                    [
                        -77.137,
                        39.098
                    ],
                    [
                        -77.157,
                        39.104
                    ],
                    [
                        -77.184,
                        39.118
                    ],
                    [
                        -77.195,
                        39.141
                    ]
                ]
            }
        },
        {
            "type": "Feature",
            "properties": {
                "type": "line",
                "line_id": 4,
                "kde_values": [
                    1.3877956555541506,
                    2.462295368971496,
                    3.035176170992581,
                    2.6262238514738065,
                    2.3685784527232148,
                    2.33079082510616,
                    1.6739257044651077,
                    1.6834426036341643,
                    3.1095686273853693,
                    3.5937278539784465,
                    1.75192631035931
                ],
                "segment_lengths": [
                    15171.184565227464,
                    4947.3893458604425,
                    2649.030701378163,
                    9851.002454239298,
                    3532.5923238964515,
                    5272.899888421141,
                    6644.1180934751055,
                    7591.430881515331,
                    1475.3051842611567,
                    4074.5177356468635
                ],
                "group": 3,
                "name_list": [
                    "Damascus",
                    "Montgomery Village",
                    "Washington Grove 2",
                    "Redland",
                    "Leisure World",
                    "Layhill",
                    "Colesville",
                    "Fairland",
                    "Laurel 3",
                    "Laurel 2",
                    "South Laurel"
                ],
                "is_station": [
                    true,
                    true,
                    true,
                    true,
                    true,
                    true,
                    true,
                    true,
                    true,
                    true,
                    true
                ],
                "route_kind": "generated",
                "service_status": "planned",
                "occupancy_pct": null,
                "delay_min": null,
                "accessibility_score": 100.0,
                "is_accessible": true,
                "row_type": null,
                "construction_cost_musd": null,
                "ridership_estimate": null
            },
            "geometry": {
                "type": "LineString",
                "coordinates": [
                    [
                        -77.203,
                        39.289
                    ],
                    [
                        -77.189,
                        39.184
                    ],
                    [
                        -77.165,
                        39.155
                    ],
                    [
                        -77.145,
                        39.145
                    ],
                    [
                        -77.075,
                        39.103
                    ],
                    [
                        -77.046,
                        39.093
                    ],
                    [
                        -77.004,
                        39.076
                    ],
                    [
                        -76.945,
                        39.083
                    ],
                    [
                        -76.877,
                        39.087
                    ],
                    [
                        -76.864,
                        39.085
                    ],
                    [
                        -76.838,
                        39.065
                    ]
                ]
            }
        },
        {
            "type": "Feature",
            "properties": {
                "type": "line",
                "line_id": 5,
                "kde_values": [
                    2.031240035282233,
                    1.5869116306712496,
                    1.387841599802638,
                    2.2855259634358367,
                    2.7952379625359534,
                    2.1110698250901416,
                    1.9191765229996078,
                    2.2993537596187226,
                    5.480047369732869,
                    4.241786399807209,
                    3.96520115783015,
                    4.045974732520667
                ],
                "segment_lengths": [
                    5144.8033908761845,
                    9585.06172022773,
                    16165.644706844118,
                    2230.996175966012,
                    4592.115046894027,
                    7898.280714271559,
                    4290.328579006527,
                    4570.756071993383,
                    2654.276704631067,
                    4018.961995756001,
                    3427.2412531261384
                ],
                "group": 0,
                "name_list": [
                    "Travilah 4",
                    "Potomac",
                    "Travilah",
                    "North Bethesda",
                    "North Bethesda 2",
                    "North Chevy Chase",
                    "Silver Spring",
                    "Langley Park",
                    "Hyattsville",
                    "Edmonston",
                    "Woodlawn",
                    "Landover"
                ],
                "is_station": [
                    true,
                    true,
                    true,
                    true,
                    true,
                    true,
                    true,
                    true,
                    true,
                    true,
                    true,
                    true
                ],
                "route_kind": "generated",
                "service_status": "planned",
                "occupancy_pct": null,
                "delay_min": null,
                "accessibility_score": 100.0,
                "is_accessible": true,
                "row_type": null,
                "construction_cost_musd": null,
                "ridership_estimate": null
            },
            "geometry": {
                "type": "LineString",
                "coordinates": [
                    [
                        -77.375,
                        38.928
                    ],
                    [
                        -77.331,
                        38.939
                    ],
                    [
                        -77.288,
                        38.997
                    ],
                    [
                        -77.147,
                        39.024
                    ],
                    [
                        -77.127,
                        39.025
                    ],
                    [
                        -77.097,
                        39.003
                    ],
                    [
                        -77.027,
                        38.994
                    ],
                    [
                        -76.989,
                        38.989
                    ],
                    [
                        -76.957,
                        38.969
                    ],
                    [
                        -76.94,
                        38.956
                    ],
                    [
                        -76.908,
                        38.943
                    ],
                    [
                        -76.884,
                        38.928
                    ]
                ]
            }
        },
        {
            "type": "Feature",
            "properties": {
                "type": "line",
                "line_id": 6,
                "kde_values": [
                    1.388476281145766,
                    1.6340007302412394,
                    1.6349219132324264,
                    1.3878226462554066,
                    1.7236338713586656,
                    2.807340327213974,
                    2.660347041904198,
                    1.6448138566776545
                ],
                "segment_lengths": [
                    25920.790795924262,
                    3945.3704402338517,
                    11042.726335087624,
                    9621.643852391337,
                    3863.2903384855017,
                    1330.6783267347946,
                    5356.245420185157
                ],
                "group": 4,
                "name_list": [
                    "Accokeek",
                    "Marlton",
                    "Queensland",
                    "Marlboro Meadows",
                    "Queen Anne",
                    "Bowie 3",
                    "Bowie 2",
                    "Bowie"
                ],
                "is_station": [
                    true,
                    true,
                    true,
                    true,
                    true,
                    true,
                    true,
                    true
                ],
                "route_kind": "generated",
                "service_status": "planned",
                "occupancy_pct": null,
                "delay_min": null,
                "accessibility_score": 100.0,
                "is_accessible": true,
                "row_type": null,
                "construction_cost_musd": null,
                "ridership_estimate": null
            },
            "geometry": {
                "type": "LineString",
                "coordinates": [
                    [
                        -77.01,
                        38.67
                    ],
                    [
                        -76.807,
                        38.759
                    ],
                    [
                        -76.795,
                        38.785
                    ],
                    [
                        -76.728,
                        38.842
                    ],
                    [
                        -76.72,
                        38.909
                    ],
                    [
                        -76.72,
                        38.936
                    ],
                    [
                        -76.717,
                        38.945
                    ],
                    [
                        -76.734,
                        38.98
                    ]
                ]
            }
        },
        {
            "type": "Feature",
            "properties": {
                "type": "line",
                "line_id": 7,
                "kde_values": [
                    2.787703903965496,
                    1.388476281145766,
                    1.6340007302412394,
                    1.3878226462554066,
                    1.7236338713586656,
                    2.807340327213974,
                    2.660347041904198
                ],
                "segment_lengths": [
                    15405.729368642364,
                    25920.790795924262,
                    14761.297011689137,
                    9621.643852391337,
                    3863.2903384855017,
                    1330.6783267347946
                ],
                "group": 4,
                "name_list": [
                    "Bryans Road",
                    "Accokeek",
                    "Marlton",
                    "Marlboro Meadows",
                    "Queen Anne",
                    "Bowie 3",
                    "Bowie 2"
                ],
                "is_station": [
                    true,
                    true,
                    true,
                    true,
                    true,
                    true,
                    true
                ],
                "route_kind": "generated",
                "service_status": "planned",
                "occupancy_pct": null,
                "delay_min": null,
                "accessibility_score": 100.0,
                "is_accessible": true,
                "row_type": null,
                "construction_cost_musd": null,
                "ridership_estimate": null
            },
            "geometry": {
                "type": "LineString",
                "coordinates": [
                    [
                        -77.144,
                        38.697
                    ],
                    [
                        -77.01,
                        38.67
                    ],
                    [
                        -76.807,
                        38.759
                    ],
                    [
                        -76.728,
                        38.842
                    ],
                    [
                        -76.72,
                        38.909
                    ],
                    [
                        -76.72,
                        38.936
                    ],
                    [
                        -76.717,
                        38.945
                    ]
                ]
            }
        },
        {
            "type": "Feature",
            "properties": {
                "type": "line",
                "line_id": 8,
                "kde_values": [
                    1.6340007302412394,
                    1.6349219132324264,
                    1.3878226462554066,
                    1.7236338713586656,
                    2.807340327213974,
                    2.660347041904198,
                    1.6448138566776545,
                    1.75192631035931,
                    3.5937278539784465,
                    3.1095686273853693,
                    1.6283031448032637,
                    1.5149261132501564,
                    2.33079082510616,
                    2.3685784527232148,
                    2.589398557864302,
                    3.529420300866793,
                    3.475528317706187,
                    2.8805761092087856,
                    2.480658065129777
                ],
                "segment_lengths": [
                    3945.3704402338517,
                    11042.726335087624,
                    9621.643852391337,
                    3863.2903384855017,
                    1330.6783267347946,
                    5356.245420185157,
                    16803.86573288257,
                    4074.5177356468635,
                    1475.3051842611567,
                    7250.598553207829,
                    6790.488938389346,
                    6076.748559402965,
                    3532.5923238964515,
                    4168.562669076012,
                    2926.1202701004872,
                    2386.9602023984708,
                    4462.012842569028,
                    2814.3329151248067
                ],
                "group": 4,
                "name_list": [
                    "Marlton",
                    "Queensland",
                    "Marlboro Meadows",
                    "Queen Anne",
                    "Bowie 3",
                    "Bowie 2",
                    "Bowie",
                    "South Laurel",
                    "Laurel 2",
                    "Laurel 3",
                    "Burtonsville",
                    "Cloverly",
                    "Layhill",
                    "Leisure World",
                    "Aspen Hill",
                    "Derwood 2",
                    "Derwood",
                    "North Potomac",
                    "Gaithersburg 2"
                ],
                "is_station": [
                    true,
                    true,
                    true,
                    true,
                    true,
                    true,
                    true,
                    true,
                    true,
                    true,
                    true,
                    true,
                    true,
                    true,
                    true,
                    true,
                    true,
                    true,
                    true
                ],
                "route_kind": "generated",
                "service_status": "planned",
                "occupancy_pct": null,
                "delay_min": null,
                "accessibility_score": 100.0,
                "is_accessible": true,
                "row_type": null,
                "construction_cost_musd": null,
                "ridership_estimate": null
            },
            "geometry": {
                "type": "LineString",
                "coordinates": [
                    [
                        -76.807,
                        38.759
                    ],
                    [
                        -76.795,
                        38.785
                    ],
                    [
                        -76.728,
                        38.842
                    ],
                    [
                        -76.72,
                        38.909
                    ],
                    [
                        -76.72,
                        38.936
                    ],
                    [
                        -76.717,
                        38.945
                    ],
                    [
                        -76.734,
                        38.98
                    ],
                    [
                        -76.838,
                        39.065
                    ],
                    [
                        -76.864,
                        39.085
                    ],
                    [
                        -76.877,
                        39.087
                    ],
                    [
                        -76.935,
                        39.11
                    ],
                    [
                        -76.996,
                        39.11
                    ],
                    [
                        -77.046,
                        39.093
                    ],
                    [
                        -77.075,
                        39.103
                    ],
                    [
                        -77.111,
                        39.095
                    ],
                    [
                        -77.137,
                        39.098
                    ],
                    [
                        -77.157,
                        39.104
                    ],
                    [
                        -77.197,
                        39.102
                    ],
                    [
                        -77.217,
                        39.114
                    ]
                ]
            }
        },
        {
            "type": "Feature",
            "properties": {
                "type": "line",
                "line_id": 9,
                "kde_values": [
                    1.3878226462554066,
                    2.089288454604974,
                    3.00849610555648,
                    3.393270814560499,
                    4.045974732520667,
                    3.7446285320720825,
                    3.430097725349692,
                    3.5015724149924723,
                    1.549958872502987,
                    1.7073545195298334,
                    1.6723968203310895,
                    2.024691776463726,
                    3.2062872616559095,
                    2.7080408713473756,
                    3.0628264356445207,
                    2.8805761092087856,
                    2.480658065129777
                ],
                "segment_lengths": [
                    13945.115109388158,
                    3810.473984190332,
                    3915.5296055269637,
                    1863.4045850728753,
                    3659.469654093607,
                    3903.5870133628946,
                    2917.682158530242,
                    8584.470467847186,
                    5251.602131658515,
                    4158.530628491198,
                    6790.488938389346,
                    6252.49509521107,
                    3343.6308371919126,
                    3606.7942153351464,
                    5536.818780311499,
                    2814.3329151248067
                ],
                "group": 5,
                "name_list": [
                    "Marlboro Meadows",
                    "Largo",
                    "Peppermill Village",
                    "Landover 2",
                    "Landover",
                    "Springdale",
                    "Seabrook",
                    "Seabrook 2",
                    "Beltsville",
                    "Calverton",
                    "White Oak",
                    "Wheaton",
                    "North Bethesda 3",
                    "Rockville 2",
                    "Rockville",
                    "North Potomac",
                    "Gaithersburg 2"
                ],
                "is_station": [
                    true,
                    true,
                    true,
                    true,
                    true,
                    true,
                    true,
                    true,
                    true,
                    true,
                    true,
                    true,
                    true,
                    true,
                    true,
                    true,
                    true
                ],
                "route_kind": "generated",
                "service_status": "planned",
                "occupancy_pct": null,
                "delay_min": null,
                "accessibility_score": 100.0,
                "is_accessible": true,
                "row_type": null,
                "construction_cost_musd": null,
                "ridership_estimate": null
            },
            "geometry": {
                "type": "LineString",
                "coordinates": [
                    [
                        -76.728,
                        38.842
                    ],
                    [
                        -76.848,
                        38.87
                    ],
                    [
                        -76.872,
                        38.889
                    ],
                    [
                        -76.883,
                        38.915
                    ],
                    [
                        -76.884,
                        38.928
                    ],
                    [
                        -76.862,
                        38.947
                    ],
                    [
                        -76.848,
                        38.972
                    ],
                    [
                        -76.853,
                        38.992
                    ],
                    [
                        -76.908,
                        39.034
                    ],
                    [
                        -76.953,
                        39.045
                    ],
                    [
                        -76.99,
                        39.041
                    ],
                    [
                        -77.051,
                        39.041
                    ],
                    [
                        -77.105,
                        39.053
                    ],
                    [
                        -77.128,
                        39.068
                    ],
                    [
                        -77.153,
                        39.084
                    ],
                    [
                        -77.197,
                        39.102
                    ],
                    [
                        -77.217,
                        39.114
                    ]
                ]
            }
        },
        {
            "type": "Feature",
            "properties": {
                "type": "line",
                "line_id": 10,
                "kde_values": [
                    1.7222515264938572,
                    1.8001408762940387,
                    2.9208860975969193,
                    3.2957149837496744,
                    5.03663959473124,
                    6.141062197892786,
                    4.989827171692972,
                    7.438557937345261,
                    19.426335949790207,
                    20.20624464169552,
                    6.225822955992628,
                    1.9645681385356757,
                    2.2855259634358367,
                    2.8805761092087856,
                    2.480658065129777,
                    2.875199994288919,
                    3.646291072506738
                ],
                "segment_lengths": [
                    3854.2778310823096,
                    6529.642083012081,
                    3707.624080844456,
                    3610.4671196017293,
                    2985.8239718050336,
                    3754.161055142529,
                    4350.080758562847,
                    4663.120745168584,
                    1025.6957628430443,
                    3585.1408929385607,
                    6678.1611955287235,
                    11215.705411230638,
                    12491.397622197675,
                    2814.3329151248067,
                    8092.831086796334,
                    1810.34057929778
                ],
                "group": 6,
                "name_list": [
                    "Indian Head",
                    "Fairlington 4",
                    "Fairlington 3",
                    "Fairlington 2",
                    "Claremont",
                    "Fairlington",
                    "Shirlington",
                    "Aurora Highlands",
                    "George Washington University 2",
                    "George Washington University",
                    "Glover Park",
                    "Brookmont",
                    "North Bethesda",
                    "North Potomac",
                    "Gaithersburg 2",
                    "Germantown 2",
                    "Germantown"
                ],
                "is_station": [
                    true,
                    true,
                    true,
                    true,
                    true,
                    true,
                    true,
                    true,
                    true,
                    true,
                    true,
                    true,
                    true,
                    true,
                    true,
                    true,
                    true
                ],
                "route_kind": "generated",
                "service_status": "planned",
                "occupancy_pct": null,
                "delay_min": null,
                "accessibility_score": 100.0,
                "is_accessible": true,
                "row_type": null,
                "construction_cost_musd": null,
                "ridership_estimate": null
            },
            "geometry": {
                "type": "LineString",
                "coordinates": [
                    [
                        -77.214,
                        38.713
                    ],
                    [
                        -77.213,
                        38.74
                    ],
                    [
                        -77.187,
                        38.781
                    ],
                    [
                        -77.163,
                        38.799
                    ],
                    [
                        -77.139,
                        38.816
                    ],
                    [
                        -77.118,
                        38.829
                    ],
                    [
                        -77.088,
                        38.841
                    ],
                    [
                        -77.061,
                        38.863
                    ],
                    [
                        -77.048,
                        38.894
                    ],
                    [
                        -77.05,
                        38.901
                    ],
                    [
                        -77.071,
                        38.92
                    ],
                    [
                        -77.118,
                        38.949
                    ],
                    [
                        -77.147,
                        39.024
                    ],
                    [
                        -77.197,
                        39.102
                    ],
                    [
                        -77.217,
                        39.114
                    ],
                    [
                        -77.275,
                        39.148
                    ],
                    [
                        -77.28,
                        39.16
                    ]
                ]
            }
        },
        {
            "type": "Feature",
            "properties": {
                "type": "line",
                "line_id": 11,
                "kde_values": [
                    1.8679541255306933,
                    1.8176698349426397,
                    2.196894452283163,
                    1.7914955655424742,
                    2.1108215966164257,
                    1.9645681385356757,
                    4.379937404022738,
                    4.039277964265989,
                    2.7394787248534636,
                    2.2993537596187226,
                    1.7073545195298334
                ],
                "segment_lengths": [
                    3539.1210485371485,
                    9362.905590418985,
                    9030.718042998566,
                    5665.290727816023,
                    11790.867023465706,
                    3839.0863726152834,
                    1406.0804417227646,
                    5360.571158737692,
                    5281.218143095572,
                    8968.600411255846
                ],
                "group": 7,
                "name_list": [
                    "Indian Head 2",
                    "Boulevard Manor",
                    "Madison Manor",
                    "East Falls Church 2",
                    "East Falls Church",
                    "Brookmont",
                    "Friendship Heights",
                    "Chevy Chase Village",
                    "Brightwood",
                    "Langley Park",
                    "Calverton"
                ],
                "is_station": [
                    true,
                    true,
                    true,
                    true,
                    true,
                    true,
                    true,
                    true,
                    true,
                    true,
                    true
                ],
                "route_kind": "generated",
                "service_status": "planned",
                "occupancy_pct": null,
                "delay_min": null,
                "accessibility_score": 100.0,
                "is_accessible": true,
                "row_type": null,
                "construction_cost_musd": null,
                "ridership_estimate": null
            },
            "geometry": {
                "type": "LineString",
                "coordinates": [
                    [
                        -77.257,
                        38.728
                    ],
                    [
                        -77.265,
                        38.752
                    ],
                    [
                        -77.276,
                        38.817
                    ],
                    [
                        -77.241,
                        38.874
                    ],
                    [
                        -77.205,
                        38.902
                    ],
                    [
                        -77.118,
                        38.949
                    ],
                    [
                        -77.086,
                        38.959
                    ],
                    [
                        -77.076,
                        38.965
                    ],
                    [
                        -77.028,
                        38.968
                    ],
                    [
                        -76.989,
                        38.989
                    ],
                    [
                        -76.953,
                        39.045
                    ]
                ]
            }
        },
        {
            "type": "Feature",
            "properties": {
                "type": "line",
                "line_id": 12,
                "kde_values": [
                    1.387782498296512,
                    1.8768383343099713,
                    1.8870927188088347,
                    2.462295368971496,
                    3.035176170992581,
                    2.6262238514738065,
                    1.3913792511031777,
                    1.5149261132501564,
                    1.6834426036341643,
                    3.1095686273853693,
                    3.5937278539784465,
                    1.75192631035931,
                    2.810915192968316,
                    1.6699968864424177
                ],
                "segment_lengths": [
                    49952.4480299596,
                    3068.8819561666473,
                    9456.651730853182,
                    4947.3893458604425,
                    2649.030701378163,
                    9421.086597047091,
                    9509.77997800813,
                    6872.429933718534,
                    7591.430881515331,
                    1475.3051842611567,
                    4074.5177356468635,
                    10470.31281180308,
                    5884.186211807611
                ],
                "group": 3,
                "name_list": [
                    "Brunswick",
                    "Clarksburg 2",
                    "Clarksburg",
                    "Montgomery Village",
                    "Washington Grove 2",
                    "Redland",
                    "Olney",
                    "Cloverly",
                    "Fairland",
                    "Laurel 3",
                    "Laurel 2",
                    "South Laurel",
                    "Seabrook 3",
                    "Mitchellville"
                ],
                "is_station": [
                    true,
                    true,
                    true,
                    true,
                    true,
                    true,
                    true,
                    true,
                    true,
                    true,
                    true,
                    true,
                    true,
                    true
                ],
                "route_kind": "generated",
                "service_status": "planned",
                "occupancy_pct": null,
                "delay_min": null,
                "accessibility_score": 100.0,
                "is_accessible": true,
                "row_type": null,
                "construction_cost_musd": null,
                "ridership_estimate": null
            },
            "geometry": {
                "type": "LineString",
                "coordinates": [
                    [
                        -77.705,
                        39.136
                    ],
                    [
                        -77.276,
                        39.238
                    ],
                    [
                        -77.251,
                        39.229
                    ],
                    [
                        -77.189,
                        39.184
                    ],
                    [
                        -77.165,
                        39.155
                    ],
                    [
                        -77.145,
                        39.145
                    ],
                    [
                        -77.061,
                        39.153
                    ],
                    [
                        -76.996,
                        39.11
                    ],
                    [
                        -76.945,
                        39.083
                    ],
                    [
                        -76.877,
                        39.087
                    ],
                    [
                        -76.864,
                        39.085
                    ],
                    [
                        -76.838,
                        39.065
                    ],
                    [
                        -76.834,
                        38.992
                    ],
                    [
                        -76.811,
                        38.955
                    ]
                ]
            }
        },
        {
            "type": "Feature",
            "properties": {
                "type": "line",
                "line_id": 13,
                "kde_values": [
                    2.2146730593095674,
                    2.031240035282233,
                    3.710999963715438,
                    3.7345619399048533,
                    3.127687735980555,
                    1.429552049362001,
                    2.480658065129777,
                    4.394805684100802,
                    3.9556264003797836,
                    2.462295368971496
                ],
                "segment_lengths": [
                    11307.303179580014,
                    5241.219813298281,
                    2862.3990123699537,
                    3080.811809995313,
                    8011.26937249536,
                    18866.559486190967,
                    5779.270334324611,
                    2669.2263361877745,
                    2478.289238056127
                ],
                "group": 8,
                "name_list": [
                    "East Falls Church 3",
                    "Travilah 4",
                    "Travilah 3",
                    "Darnestown 3",
                    "Darnestown 2",
                    "Darnestown",
                    "Gaithersburg 2",
                    "Gaithersburg 3",
                    "Montgomery Village 2",
                    "Montgomery Village"
                ],
                "is_station": [
                    true,
                    true,
                    true,
                    true,
                    true,
                    true,
                    true,
                    true,
                    true,
                    true
                ],
                "route_kind": "generated",
                "service_status": "planned",
                "occupancy_pct": null,
                "delay_min": null,
                "accessibility_score": 100.0,
                "is_accessible": true,
                "row_type": null,
                "construction_cost_musd": null,
                "ridership_estimate": null
            },
            "geometry": {
                "type": "LineString",
                "coordinates": [
                    [
                        -77.336,
                        38.855
                    ],
                    [
                        -77.375,
                        38.928
                    ],
                    [
                        -77.402,
                        38.958
                    ],
                    [
                        -77.41,
                        38.977
                    ],
                    [
                        -77.404,
                        38.998
                    ],
                    [
                        -77.358,
                        39.041
                    ],
                    [
                        -77.217,
                        39.114
                    ],
                    [
                        -77.211,
                        39.154
                    ],
                    [
                        -77.205,
                        39.172
                    ],
                    [
                        -77.189,
                        39.184
                    ]
                ]
            }
        },
        {
            "type": "Feature",
            "properties": {
                "type": "line",
                "line_id": 14,
                "kde_values": [
                    1.3877956555541506,
                    2.9404718725652876,
                    1.75192631035931,
                    1.6448138566776545,
                    2.660347041904198
                ],
                "segment_lengths": [
                    47552.67974241466,
                    4963.876234174135,
                    16803.86573288257,
                    5356.245420185157
                ],
                "group": 1,
                "name_list": [
                    "Damascus",
                    "Laurel",
                    "South Laurel",
                    "Bowie",
                    "Bowie 2"
                ],
                "is_station": [
                    true,
                    true,
                    true,
                    true,
                    true
                ],
                "route_kind": "generated",
                "service_status": "planned",
                "occupancy_pct": null,
                "delay_min": null,
                "accessibility_score": 100.0,
                "is_accessible": true,
                "row_type": null,
                "construction_cost_musd": null,
                "ridership_estimate": null
            },
            "geometry": {
                "type": "LineString",
                "coordinates": [
                    [
                        -77.203,
                        39.289
                    ],
                    [
                        -76.855,
                        39.097
                    ],
                    [
                        -76.838,
                        39.065
                    ],
                    [
                        -76.734,
                        38.98
                    ],
                    [
                        -76.717,
                        38.945
                    ]
                ]
            }
        },
        {
            "type": "Feature",
            "properties": {
                "type": "line",
                "line_id": 15,
                "kde_values": [
                    1.387782498296512,
                    1.4767347713398393,
                    3.0492534403987688,
                    2.7260387608051606,
                    2.185825862110667,
                    1.689333212786909,
                    2.2146730593095674,
                    3.362402522843402,
                    1.7914955655424742,
                    3.4553563727095056,
                    2.990458804552009,
                    3.419489075371627,
                    3.982913008213583,
                    4.953060295735286,
                    4.989827171692972,
                    5.322828594506178,
                    4.171344871088509,
                    4.066045443486797,
                    4.071435314934124,
                    3.625412817871971,
                    3.500192273554207,
                    3.2025898309422987,
                    2.089288454604974,
                    3.2219163466355836,
                    2.0659721355640572,
                    2.807340327213974
                ],
                "segment_lengths": [
                    28499.266048788024,
                    7325.8192886840425,
                    1589.7774133538612,
                    11489.85703657667,
                    5998.433091046299,
                    6581.836398231972,
                    4563.839435641563,
                    6358.420948629646,
                    4795.273220529037,
                    2841.158230938403,
                    3392.3012442781546,
                    2469.415952652203,
                    2179.5809026072175,
                    3379.746477273863,
                    4238.57059113124,
                    3995.702753442644,
                    1764.8922347315436,
                    5346.49658985114,
                    1870.587728918334,
                    3795.6374206851556,
                    3778.820131079753,
                    5287.024795233765,
                    4530.60713361572,
                    3125.7508150288713,
                    9831.240307458766
                ],
                "group": 9,
                "name_list": [
                    "Brunswick",
                    "Poolesville 3",
                    "Poolesville 2",
                    "Poolesville",
                    "East Falls Church 8",
                    "East Falls Church 7",
                    "East Falls Church 3",
                    "East Falls Church 6",
                    "East Falls Church 2",
                    "East Falls Church 5",
                    "East Falls Church 4",
                    "Boulevard Manor 2",
                    "Glencarlyn",
                    "Columbia Forest",
                    "Shirlington",
                    "Long Branch Creek",
                    "Bellevue 2",
                    "Bellevue",
                    "Hillcrest Heights",
                    "Marlow Heights",
                    "Morningside",
                    "Forestville",
                    "Largo",
                    "Largo 2",
                    "Kettering",
                    "Bowie 3"
                ],
                "is_station": [
                    true,
                    true,
                    true,
                    true,
                    true,
                    true,
                    true,
                    true,
                    true,
                    true,
                    true,
                    true,
                    true,
                    true,
                    true,
                    true,
                    true,
                    true,
                    true,
                    true,
                    true,
                    true,
                    true,
                    true,
                    true,
                    true
                ],
                "route_kind": "generated",
                "service_status": "planned",
                "occupancy_pct": null,
                "delay_min": null,
                "accessibility_score": 100.0,
                "is_accessible": true,
                "row_type": null,
                "construction_cost_musd": null,
                "ridership_estimate": null
            },
            "geometry": {
                "type": "LineString",
                "coordinates": [
                    [
                        -77.705,
                        39.136
                    ],
                    [
                        -77.537,
                        38.986
                    ],
                    [
                        -77.523,
                        38.936
                    ],
                    [
                        -77.521,
                        38.925
                    ],
                    [
                        -77.447,
                        38.869
                    ],
                    [
                        -77.395,
                        38.858
                    ],
                    [
                        -77.336,
                        38.855
                    ],
                    [
                        -77.296,
                        38.862
                    ],
                    [
                        -77.241,
                        38.874
                    ],
                    [
                        -77.198,
                        38.876
                    ],
                    [
                        -77.173,
                        38.88
                    ],
                    [
                        -77.146,
                        38.869
                    ],
                    [
                        -77.135,
                        38.854
                    ],
                    [
                        -77.117,
                        38.848
                    ],
                    [
                        -77.088,
                        38.841
                    ],
                    [
                        -77.051,
                        38.834
                    ],
                    [
                        -77.018,
                        38.823
                    ],
                    [
                        -77.003,
                        38.819
                    ],
                    [
                        -76.959,
                        38.834
                    ],
                    [
                        -76.943,
                        38.83
                    ],
                    [
                        -76.909,
                        38.828
                    ],
                    [
                        -76.883,
                        38.845
                    ],
                    [
                        -76.848,
                        38.87
                    ],
                    [
                        -76.823,
                        38.895
                    ],
                    [
                        -76.796,
                        38.901
                    ],
                    [
                        -76.72,
                        38.936
                    ]
                ]
            }
        },
        {
            "type": "Feature",
            "properties": {
                "type": "line",
                "line_id": 16,
                "kde_values": [
                    1.388476281145766,
                    1.6964473896224594,
                    3.342418353140627,
                    4.118516400393916,
                    3.7536952240908263,
                    5.322828594506178,
                    7.282703199473215,
                    7.438557937345261,
                    5.342399558365974,
                    4.849850160328561,
                    6.225822955992628,
                    4.350835825886746,
                    4.379937404022738,
                    2.8943452562574943,
                    2.2855259634358367
                ],
                "segment_lengths": [
                    13458.842129599023,
                    4288.476262065793,
                    2380.4631146825636,
                    1707.2040614416844,
                    5214.060923236256,
                    1576.031953804301,
                    2761.215757991049,
                    2810.7870024859885,
                    2156.586616965521,
                    4494.586624001852,
                    4104.794399152015,
                    1756.8840723962016,
                    3384.1165127880495,
                    8504.831917474972
                ],
                "group": 10,
                "name_list": [
                    "Accokeek",
                    "Fort Washington",
                    "National Harbor",
                    "Fairlington 6",
                    "Fairlington 5",
                    "Long Branch Creek",
                    "Aurora Highlands 2",
                    "Aurora Highlands",
                    "Penrose",
                    "Colonial Village",
                    "Glover Park",
                    "Tenleytown",
                    "Friendship Heights",
                    "Chevy Chase",
                    "North Bethesda"
                ],
                "is_station": [
                    true,
                    true,
                    true,
                    true,
                    true,
                    true,
                    true,
                    true,
                    true,
                    true,
                    true,
                    true,
                    true,
                    true,
                    true
                ],
                "route_kind": "generated",
                "service_status": "planned",
                "occupancy_pct": null,
                "delay_min": null,
                "accessibility_score": 100.0,
                "is_accessible": true,
                "row_type": null,
                "construction_cost_musd": null,
                "ridership_estimate": null
            },
            "geometry": {
                "type": "LineString",
                "coordinates": [
                    [
                        -77.01,
                        38.67
                    ],
                    [
                        -77.085,
                        38.744
                    ],
                    [
                        -77.083,
                        38.774
                    ],
                    [
                        -77.077,
                        38.79
                    ],
                    [
                        -77.071,
                        38.801
                    ],
                    [
                        -77.051,
                        38.834
                    ],
                    [
                        -77.052,
                        38.845
                    ],
                    [
                        -77.061,
                        38.863
                    ],
                    [
                        -77.081,
                        38.875
                    ],
                    [
                        -77.083,
                        38.89
                    ],
                    [
                        -77.071,
                        38.92
                    ],
                    [
                        -77.079,
                        38.948
                    ],
                    [
                        -77.086,
                        38.959
                    ],
                    [
                        -77.093,
                        38.982
                    ],
                    [
                        -77.147,
                        39.024
                    ]
                ]
            }
        },
        {
            "type": "Feature",
            "properties": {
                "type": "line",
                "line_id": 17,
                "kde_values": [
                    1.387782498296512,
                    2.928258801758819,
                    2.9924091694338615,
                    1.3877824985286824,
                    1.8768383343099713,
                    1.3877956555541506
                ],
                "segment_lengths": [
                    16275.61455279767,
                    1516.2399086022788,
                    16181.825243745825,
                    20368.330440203445,
                    10945.573980727331
                ],
                "group": 11,
                "name_list": [
                    "Brunswick",
                    "Poolesville 6",
                    "Poolesville 5",
                    "Poolesville 4",
                    "Clarksburg 2",
                    "Damascus"
                ],
                "is_station": [
                    true,
                    true,
                    true,
                    true,
                    true,
                    true
                ],
                "route_kind": "generated",
                "service_status": "planned",
                "occupancy_pct": null,
                "delay_min": null,
                "accessibility_score": 100.0,
                "is_accessible": true,
                "row_type": null,
                "construction_cost_musd": null,
                "ridership_estimate": null
            },
            "geometry": {
                "type": "LineString",
                "coordinates": [
                    [
                        -77.705,
                        39.136
                    ],
                    [
                        -77.564,
                        39.106
                    ],
                    [
                        -77.552,
                        39.111
                    ],
                    [
                        -77.413,
                        39.144
                    ],
                    [
                        -77.276,
                        39.238
                    ],
                    [
                        -77.203,
                        39.289
                    ]
                ]
            }
        },
        {
            "type": "Feature",
            "properties": {
                "type": "line",
                "line_id": 18,
                "kde_values": [
                    1.6340007302412394,
                    1.896980933861579,
                    3.2025898309422987,
                    3.5865940358862467,
                    4.105946148798602,
                    4.9738634153137244,
                    4.510883017129763,
                    6.817067608220814,
                    17.496283916655774,
                    20.013682841188768,
                    23.875785579036915,
                    22.896330968109545,
                    19.426335949790207,
                    18.79751611191482,
                    20.20624464169552,
                    22.621473069998103,
                    24.727596547147932,
                    22.931599118638072,
                    16.02874152309296,
                    6.462919491251545,
                    4.350835825886746,
                    4.379937404022738,
                    2.8943452562574943,
                    2.1110698250901416,
                    3.1923393952986046,
                    2.7080408713473756,
                    3.0628264356445207,
                    3.475528317706187,
                    3.7322267425833346,
                    3.92728624679579,
                    4.394805684100802,
                    4.391898484406646,
                    4.047896041993979,
                    3.60692253745901
                ],
                "segment_lengths": [
                    9737.394340332721,
                    5185.4457390347825,
                    3004.6018695877874,
                    3611.776192968817,
                    2417.0731662822254,
                    1682.455783255575,
                    3633.305518767542,
                    2705.9118837440706,
                    529.2619765762839,
                    1319.1979934487379,
                    1614.2032582432369,
                    1870.7352419299675,
                    543.7348120690611,
                    582.8786049384062,
                    529.2619765747169,
                    625.8203514525161,
                    1055.614806965467,
                    1498.4264458330094,
                    2755.8650464244256,
                    2811.864795062472,
                    1756.8840723962016,
                    3384.1165127880495,
                    3040.5326620080477,
                    5959.66606452661,
                    4223.14005763391,
                    3606.7942153351464,
                    2902.9962747300588,
                    3614.968967114714,
                    3520.4275291534514,
                    2579.6210991511402,
                    484.8162438358023,
                    5813.222107864762,
                    1342.9310829039628
                ],
                "group": 12,
                "name_list": [
                    "Marlton",
                    "Melwood",
                    "Forestville",
                    "District Heights",
                    "Coral Hills",
                    "Marshall Heights",
                    "Benning",
                    "Carver",
                    "North Capitol Street",
                    "",
                    "Penn Quarter",
                    "Monumental Core",
                    "George Washington University 2",
                    "",
                    "George Washington University",
                    "",
                    "",
                    "Dupont Circle",
                    "Adams Morgan",
                    "Cleveland Park",
                    "Tenleytown",
                    "Friendship Heights",
                    "Chevy Chase",
                    "North Chevy Chase",
                    "North Bethesda 4",
                    "Rockville 2",
                    "Rockville",
                    "Derwood",
                    "Washington Grove",
                    "Gaithersburg",
                    "Gaithersburg 3",
                    "",
                    "Germantown 4",
                    "Germantown 3"
                ],
                "is_station": [
                    true,
                    true,
                    true,
                    true,
                    true,
                    true,
                    true,
                    true,
                    true,
                    false,
                    true,
                    true,
                    true,
                    false,
                    true,
                    false,
                    false,
                    true,
                    true,
                    true,
                    true,
                    true,
                    true,
                    true,
                    true,
                    true,
                    true,
                    true,
                    true,
                    true,
                    true,
                    false,
                    true,
                    true
                ],
                "route_kind": "generated",
                "service_status": "planned",
                "occupancy_pct": null,
                "delay_min": null,
                "accessibility_score": 100.0,
                "is_accessible": true,
                "row_type": null,
                "construction_cost_musd": null,
                "ridership_estimate": null
            },
            "geometry": {
                "type": "LineString",
                "coordinates": [
                    [
                        -76.807,
                        38.759
                    ],
                    [
                        -76.855,
                        38.816
                    ],
                    [
                        -76.883,
                        38.845
                    ],
                    [
                        -76.906,
                        38.856
                    ],
                    [
                        -76.93,
                        38.873
                    ],
                    [
                        -76.937,
                        38.889
                    ],
                    [
                        -76.95,
                        38.895
                    ],
                    [
                        -76.982,
                        38.9
                    ],
                    [
                        -77.006,
                        38.903
                    ],
                    [
                        -77.01,
                        38.901
                    ],
                    [
                        -77.019,
                        38.895
                    ],
                    [
                        -77.032,
                        38.89
                    ],
                    [
                        -77.048,
                        38.894
                    ],
                    [
                        -77.051,
                        38.897
                    ],
                    [
                        -77.05,
                        38.901
                    ],
                    [
                        -77.046,
                        38.903
                    ],
                    [
                        -77.041,
                        38.905
                    ],
                    [
                        -77.038,
                        38.912
                    ],
                    [
                        -77.042,
                        38.922
                    ],
                    [
                        -77.059,
                        38.936
                    ],
                    [
                        -77.079,
                        38.948
                    ],
                    [
                        -77.086,
                        38.959
                    ],
                    [
                        -77.093,
                        38.982
                    ],
                    [
                        -77.097,
                        39.003
                    ],
                    [
                        -77.106,
                        39.044
                    ],
                    [
                        -77.128,
                        39.068
                    ],
                    [
                        -77.153,
                        39.084
                    ],
                    [
                        -77.157,
                        39.104
                    ],
                    [
                        -77.184,
                        39.118
                    ],
                    [
                        -77.195,
                        39.141
                    ],
                    [
                        -77.211,
                        39.154
                    ],
                    [
                        -77.213,
                        39.157
                    ],
                    [
                        -77.262,
                        39.171
                    ],
                    [
                        -77.27,
                        39.178
                    ]
                ]
            }
        },
        {
            "type": "Feature",
            "properties": {
                "type": "line",
                "line_id": 19,
                "kde_values": [
                    1.387782498296512,
                    2.9924091694338615,
                    2.0542014969106934,
                    1.6547457043084155,
                    3.1293096370400124,
                    3.3906035293446406,
                    3.127687735980555,
                    2.224640180697341,
                    1.5869116306712496,
                    1.85966080661483,
                    1.9645681385356757,
                    4.379937404022738,
                    4.039277964265989,
                    2.7394787248534636,
                    4.11835575436219,
                    5.0866371801597134,
                    3.155125594977449
                ],
                "segment_lengths": [
                    17405.567151584546,
                    3367.5536379298687,
                    7944.740245082038,
                    7829.254099393038,
                    2476.0734248089634,
                    2139.4366533974817,
                    7467.007197533845,
                    4644.813416837078,
                    11013.176960710363,
                    14112.29822140263,
                    3839.0863726152834,
                    1406.0804417227646,
                    5360.571158737692,
                    3168.1643528273707,
                    3807.7610057304096,
                    3263.7695584383273
                ],
                "group": 13,
                "name_list": [
                    "Brunswick",
                    "Poolesville 5",
                    "Poolesville 8",
                    "Poolesville 7",
                    "Darnestown 5",
                    "Darnestown 4",
                    "Darnestown 2",
                    "Travilah 2",
                    "Potomac",
                    "East Falls Church 9",
                    "Brookmont",
                    "Friendship Heights",
                    "Chevy Chase Village",
                    "Brightwood",
                    "Queens Chapel",
                    "Mount Rainier",
                    "Cottage City"
                ],
                "is_station": [
                    true,
                    true,
                    true,
                    true,
                    true,
                    true,
                    true,
                    true,
                    true,
                    true,
                    true,
                    true,
                    true,
                    true,
                    true,
                    true,
                    true
                ],
                "route_kind": "generated",
                "service_status": "planned",
                "occupancy_pct": null,
                "delay_min": null,
                "accessibility_score": 100.0,
                "is_accessible": true,
                "row_type": null,
                "construction_cost_musd": null,
                "ridership_estimate": null
            },
            "geometry": {
                "type": "LineString",
                "coordinates": [
                    [
                        -77.705,
                        39.136
                    ],
                    [
                        -77.552,
                        39.111
                    ],
                    [
                        -77.526,
                        39.099
                    ],
                    [
                        -77.478,
                        39.058
                    ],
                    [
                        -77.421,
                        39.026
                    ],
                    [
                        -77.417,
                        39.009
                    ],
                    [
                        -77.404,
                        38.998
                    ],
                    [
                        -77.368,
                        38.954
                    ],
                    [
                        -77.331,
                        38.939
                    ],
                    [
                        -77.237,
                        38.915
                    ],
                    [
                        -77.118,
                        38.949
                    ],
                    [
                        -77.086,
                        38.959
                    ],
                    [
                        -77.076,
                        38.965
                    ],
                    [
                        -77.028,
                        38.968
                    ],
                    [
                        -77.002,
                        38.959
                    ],
                    [
                        -76.969,
                        38.952
                    ],
                    [
                        -76.951,
                        38.934
                    ]
                ]
            }
        }
    ]
}